,STATE,DISTRICT,COLLEGE NAME,ADDRESS
0,ANDAMAN AND NICOBAR ISLAND,PORT BLAIR,DR. B.R. AMBEDKAR INSTITUTE OF TECHNOLOGY,"Polytechnic Road, Pahargaon,, Junglighat, Port Blair, Andaman and Nicobar Islands 744103"
1,ANDHRA PRADESH,CHITTOOR,VAISHNAVI INSTITUTE OF TECHNOLOGY,TANAPALLI(V) KUNTRAPAKKAM(P) TIRUPATI RURAL Tirupati-517503
2,ANDHRA PRADESH,KRISHNA,VIJAYA INSTITUTE OF TECHNOLOGY FOR WOMEN,"Enikepadu, Krishna District, Vijayawada, Andhra Pradesh 521108"
3,ANDHRA PRADESH,NELLORE,GEETHANJALI INSTITUTE OF SCIENCE AND TECHNOLOGY,"3rd Mile,Nellore-Bombay Highway,Gangavaram(V), Kovur(M), S.P.S.R Nellore Ditrict, Nellore, Andhra Pradesh 524137"
4,ANDHRA PRADESH,EAST GODAVARI,GODAVARI INSTITUTE OF ENGINEERING & TECHNOLOGY,"NH-16, Chaitanya Knowledge City, Rajahmundry, Andhra Pradesh 533296"
5,ANDHRA PRADESH,KURNOOL,RAVINDRA COLLEGE OF ENGINEERING FOR WOMEN,"PASUPULA VILLAGE, NANDIKOTKUR ROAD KURNOOL - 518002."
6,ANDHRA PRADESH,GUNTUR,KONERU LAKSHMAIAH EDUCATION FOUNDATION UNIVERSITY (K L COLLEGE OF ENGINEERING),"Green Fields, Vaddeswaram, Guntur, Andhra Pradesh 522502"
7,ANDHRA PRADESH,PRAKASAM,MALINENI LAKSHMAIAH ENGINEERING COLLEGE,"KANUMALLA(V), SINGARAYAKONDA(MD), PRAKASAM (DT), Guntur, Andhra Pradesh 522017"
8,ANDHRA PRADESH,CHITTOOR,ADITYA COLLEGE OF ENGINEERING,"Aditya Nagar, ADB Road, East Godavari, Surampalem, Andhra Pradesh 533437"
9,ANDHRA PRADESH,EAST GODAVARI,INTERNATIONAL SCHOOL OF TECHNOLOGY AND SCIENCES FOR WOMEN,"EAST GONA GUDEM (VIL), RAJA NAGARAM(MAN), EAST GODAVARI (DIST)-533294"
10,ANDHRA PRADESH,KURNOOL,ST. JOHNS COLLEGE OF ENGINEERING & TECHNOLOGY,"Yerrakota, Kurnool, Yemmiganur, Andhra Pradesh 518360"
11,ANDHRA PRADESH,WEST GODAVARI,SWARNANDHRA INSTITUTE OF ENGINEERING & TECHNOLOGY,"Seetharampuram, West Godavari District, Narsapur, Andhra Pradesh 534280"
12,ANDHRA PRADESH,WEST GODAVARI,SRI VASAVI ENGINEERING COLLEGE,"Pedatadepalli, West Godavari District, Tadepalligudem, Andhra Pradesh 534101"
13,ANDHRA PRADESH,NELLORE,"MRR INSTITUTE OF TECHNOLOGY & SCIENCE, UDAYAGIRI","MRR INSTITUTE OF TECHNOLOGY & SCIENCE, S.R.PURAM ROAD, UDAYAGIRI, NELLORE,DT ANDHRA PRADESH. PIN-524226."
14,ANDHRA PRADESH,KURNOOL,SREENIVASA COLLEGE OF ENGINEERING & TECHNOLOGY.,"Near Sakshi Paper, NH-44,
Gooty Road, Lakshmipuram,
Kurnool-518218."
15,ANDHRA PRADESH,GUNTUR,AMARA INSTITUTE OF ENGINEERING & TECHNOLOGY,SATULURU POST NADENDLA MD NARASARAOPET GUNTUR DT - 522549
16,ANDHRA PRADESH,SRIKAKULAM,SRI SIVANI INSTITUTE OF TECHNOLOGY,"Chilakapalem Juntion, Etcheral, Near Ambedkar University, Srikakulam, Andhra Pradesh 532402"
17,ANDHRA PRADESH,GUNTUR,MALINENI LAKSHMAIAH WOMEN'S ENGINEERING COLLEGE,"PULLADIGUNTA(V), VATTICHERUKURU(MD), GUNTUR - 522017"
18,ANDHRA PRADESH,GUNTUR,CHINTALAPUDI ENGINEERING COLLEGE,PONNUR ENGINEERING COLLEGE CHINTALAPUDI(P.O) PONNUR(M.D) GUNTUR(D.T) ANDHRA PRADESH-522 124
19,ANDHRA PRADESH,SRIKAKULAM,ADITYA INSTITUTE OF TECHNOLOGY AND MANAGEMENT,K.KOTTURU (VILL) TEKKALI - 532 201 SRIKAKULAM (DIST) ANDHRA PRADESH
20,ANDHRA PRADESH,ANANTAPUR,SRI KRISHNADEVARAYA UNIVERSITY COLLEGE OF ENGINEERING AND TECHNOLOGY,"Sri Krishnadevaraya Engineering College,
NH-44, Gooty,Anantapur(Dist),
Andhra Pradesh, PIN:515401."
21,ANDHRA PRADESH,PRAKASAM,PRAKASAM ENGINEERING COLLEGE,O.V ROAD KANDUKUR PRAKASAM DISTRICT ANDHRA PRADESH-523105
22,ANDHRA PRADESH,EAST GODAVARI,RAJAMAHENDRI INSTITUTE OF ENGINEERING AND TECHNOLOGY,"Near Pidimgoyyi, Bhoopalapatnam, East Godavari District, Rajahmundry, Andhra Pradesh 533107
"
23,ANDHRA PRADESH,ANANTAPUR,CHIRANJEEVI REDDY INSTITUTE OF ENGINEERING AND TECHNOLOGY,"Susheela Nagar, Bellary Road, Anantapur, Andhra Pradesh 515001"
24,ANDHRA PRADESH,KRISHNA,SRI CHAITANYA - DJR COLLEGE OF ENGINEERING,"DJR COLLEGE OF ENGINEERING & TECHNOLOGY, DJR NAGAR, VELPUR VILLAGE, VIA GUDAVALLI VIJAYAWADA - 521104"
25,ANDHRA PRADESH,KRISHNA,SRI VASAVI INSTITUTE OF ENGINEERING & TECHNOLOGY,NANDAMURU PEDANA MANADAL KRISHNA DISTRICT ANDHRAPRADESH-521369
26,ANDHRA PRADESH,CHITTOOR,MADANAPALLE INSTITUTE OF TECHNOLOGY & SCIENCE,"Kadiri Road, Angallu Village, Chittoor District, Madanapalle, Andhra Pradesh 517325"
27,ANDHRA PRADESH,YSR DISTRICT,NARAYANADRI INSTITUTE OF SCIENCE AND TECHNOLOGY,"VENKATAPALLI ROAD, NEAR GOVT DEGREE COLLEGE, RAJAMPET,KADAPA DIST, ANDHRA PRADESH PIN-516115."
28,ANDHRA PRADESH,GUNTUR,GUNTUR ENGINEERING COLLEGE,"OPP. KATURI MEDICAL COLLEGE, NH - 5, YANAMADALA, GUNTUR - 522019"
29,ANDHRA PRADESH,GUNTUR,NALANDA INSTITUTE OF ENGINEERING & TECHNOLOGY,"SIDDHARTH NAGAR, KANTEPUDI (V), SATTENAPALLI (M), GUNTUR DISTRICT - 522 438, ANDHRA PRADESH"
30,ANDHRA PRADESH,VISHAKHAPATNAM,VIGNAN'S INSTITUTE OF ENGINEERING FOR WOMEN,"KAPU JAGGARAJUPETA, VADLAPUDI POST, GAJUWAKA, VISAKHAPATNAM - 530 046"
31,ANDHRA PRADESH,KRISHNA,NIMRA COLLEGE OF ENGINEERING AND TECHNOLOGY,"NIMRA NAGAR JUPUD,IBRAHIMPATNAM-521 456,KRISHNA DT., ANDHRA PRADESH"
32,ANDHRA PRADESH,EAST GODAVARI,PYDAH COLLEGE OF ENGINEERING,"PATAVALA, TALLAREVU MANDAL, EAST GODAVBARI DISTRICT. 533461 "
33,ANDHRA PRADESH,EAST GODAVARI,SRI PRAKASH COLLEGE OF ENGINEERING,"Govari Konaru, NH. 5, Rajupeta, Tuni, Andhra Pradesh 533401"
34,ANDHRA PRADESH,GUNTUR,VASIREDDY VENKATADRI INSTITUTE OF TECHNOLOGY,"NAMBUR(V), PEDAKAKANI(M), GUNTUR-522508"
35,ANDHRA PRADESH,KRISHNA,SREE VAHINI INSTITUTE OF SCIENCE AND TECHNOLOGY,BEHIND GANESH TEMPLE BYE PASS ROAD TIRUVURU KRISHNA (DT) ANDHRA PRADESH PIN-521235
36,ANDHRA PRADESH,KRISHNA,R.K. COLLEGE OF ENGINEERING,"R.S.NO.52,53 ,NAVEPOTAVARAM VILLAGE,KETHANA KONDA,IBRAHIMPATNAM 521456,VIJAYAWADA,A.P."
37,ANDHRA PRADESH,VIZIANAGARAM,GOKUL GROUP OF INSTITUTIONS,"Vizianagaram,Piridi, Bobbili, Andhra Pradesh 535568"
38,ANDHRA PRADESH,ANANTAPUR,TADIPATRI ENGINEERING COLLEGE,"Veerapuram (V), Kadapara Road, Anantapur, Tadipatri, Andhra Pradesh 515411
"
39,ANDHRA PRADESH,KRISHNA,GUDLAVALLERU ENGINEERING COLLEGE,"SESHADRI RAO KNOWLEDGE VILLAGE, GUDLAVALLERU-521356, KRISHNA DISTRICT, ANDHRA PRADESH"
40,ANDHRA PRADESH,GUNTUR,R.V.R.& J.C.COLLEGE OF ENGINEERING,CHANDRAMOULIPURAM CHOWDAVARAM GUNTUR-522 019 ANDHRA PRADESH
41,ANDHRA PRADESH,VISHAKHAPATNAM,SIMHADRI EDUCATIONAL SOCIETY GROUP OF INSTITUTIONS,"Sabbavaram - Anakapalle Highway, Near Koduru Junction, Sabbavaram Mandal, Visakhapatnam District, Narapadu, Andhra Pradesh 531035"
42,ANDHRA PRADESH,EAST GODAVARI,BENAIAH INSTITUTE OF TECHNOLOGY & SCIENCES,"Korukonda Rd, Burugupudi, Andhra Pradesh 533292"
43,ANDHRA PRADESH,CHITTOOR,CHADALAWADA VENKATA SUBBAIAH COLLEGE OF ENGINEERING,"Chadalawada Nagar, Renigunta Road, Tirupathi, Andhra Pradesh 517506"
44,ANDHRA PRADESH,CHITTOOR,KKC INSTITUTE OF TECHNOLOGY & ENGINEERING,"Parameswara Mangalam, Chittoor, NH-205, Chennai Tiruttani Renigunta Highway, Puttur, Puttur, Andhra Pradesh 517584"
45,ANDHRA PRADESH,KRISHNA,DAITA MADHUSUDANA SASTRY SRI VENKATESWARA HINDU COLLEGE OF ENGINEERING,"DAITA MADHUSUDANA SASTRY SRI VENKATESWARA HINDU COLLEGE OF ENGINEERING, MACHILIPATNAM PIN - 521 002"
46,ANDHRA PRADESH,GUNTUR,NARASARAOPETA INSTITUTE OF TECHNOLOGY,KOTAPPA KONDA ROAD YELLAMANDA(POST) NARASARAOPET(MANDAL) GUNTUR(DIST) ANDHRA PRADESH-522601
47,ANDHRA PRADESH,PRAKASAM,INDIRA INSTITUTE OF TECHNOLOGY AND SCIENCES,"Markapur, National Highway 565, Prakasam, Andhra Pradesh 523316"
48,ANDHRA PRADESH,PRAKASAM,RAO & NAIDU ENGINEERING COLLEGE,"Ambedkar Colony, Ramnagar, Ongole, Andhra Pradesh 523001"
49,ANDHRA PRADESH,CHITTOOR,SREENIVASA INSTITUTE OF TECHNOLOGY AND MANAGEMENT STUDIES,"DR.VISWESWARAIAH ROAD (BANGALORE-TIRUPATHI BYE-PASS ROAD), MURUKAMBATTU POST, CHITTOOR - 517 127."
50,ANDHRA PRADESH,PRAKASAM,RISE KRISHNA SAI GANDHI GROUP OF INSTITUTIONS,"NH-5, Valluru, Ongole, Andhra Pradesh 523272"
51,ANDHRA PRADESH,VIZIANAGARAM,THANDRA PAPARAYA INSTITUTE OF SCIENCE AND TECHNOLOGY,"komatipally,bobbili, vizaianagaram, Andhra Pradesh 535558"
52,ANDHRA PRADESH,EAST GODAVARI,BONAM VENKATA CHALAMAYYA ENGINEERING COLLEGE,"Allavaram, Odalarevu, Andhra Pradesh 533210"
53,ANDHRA PRADESH,KURNOOL,G.PULLA REDDY ENGINEERING COLLEGE,"G.Pulla Reddy Nagar, Nandyal Road, Kurnool, Andhra Pradesh 518007"
54,ANDHRA PRADESH,VIZIANAGARAM,GOKUL INSTITUTE OF TECHNOLOGY AND SCIENCES,PIRIDI (VILLAGE) BOBBILI (MANDAL) VIZIANAGARAM (DIST) ANDHRAPRADESH STATE PIN- 535568
55,ANDHRA PRADESH,VISHAKHAPATNAM,ANAKAPALLE MERCHANTS ASSOCIATION KONATHALA SUBRAHMANYAM & IMMEDISETTY KANAKARAJU COLLEGE OF TECHNOLO,KOTHURU VILLAGE ANAKAPALLE MANDAL ANAKAPALLE VISAKHA DIST. ANDHRA PRADESH 531001
56,ANDHRA PRADESH,SRIKAKULAM,SARADA INSTITUTE OF SCIENCE TECHNOLOGY AND MANAGEMENT,AMPOLU ROAD GARA MANDAL SRIKAKULAM-PIN 532404 ANDHRA PRADESH
57,ANDHRA PRADESH,CHITTOOR,ANNAMACHARYA INSTITUTE OF TECHNOLOGY AND SCIENCES,"VENKATAPURAM (VILLAGE), MANGALAM ROAD, KARAKAMBADI(POST), RENIGUNTA(MANDAL),TIRUPATI-517520, CHITTOOR DIST"
58,ANDHRA PRADESH,GUNTUR,NEWTON'S INSTITUTE OF ENGINEERING,ALUGURAJU PALLY VILLAGE KOPPUNORU POST MACHERLA GUNTUR DT
59,ANDHRA PRADESH,GUNTUR,PNC&VIJAI INSTITUTE OF ENGINEERING & TECHNOLGOY,"REPUDI (V), PHIRANGIPURAM (M), GUNTUR DIST. ANDHRA PRADESH"
60,ANDHRA PRADESH,ANANTAPUR,ST.MARK EDUCATIONAL INSTITUTION SOCIETY GROUP OF INSTITUTION (INTEGRATED CAMPUS),"ST.MARK CAMPUS,BELLARY ROAD ,RACHANAPALLY,ANANTAPUR"
61,ANDHRA PRADESH,NELLORE,BRAHMAIAH COLLEGE OF ENGINEERING,"NH-5, NORTH RAJU PALEM, KODAVALURU MANDAL, NELLORE DISTRICT, ANDHRA PRADESH, PIN:524366"
62,ANDHRA PRADESH,WEST GODAVARI,SHRI VISHNU ENGINEERING COLLEGE FOR WOMEN,"VISHNUPUR, BHIMAVARAM"
63,ANDHRA PRADESH,KURNOOL,KOTTAM KARUNAKARA REDDY INSTITUTE OF TECHNOLOGY,SURVEY NO. 341 CHINNA TEKURU (VILLAGE) KALLUR (M) KURNOOL ANDHRA PRADESH
64,ANDHRA PRADESH,KRISHNA,ANDHRA LOYOLA INSTITUTE OF ENGINEERING AND TECHNOLOGY,"GOVERNMENT POLYTECHNIC POST OFFICE, VIJAYAWADA-520008, KRISHNA DISTRICT, ANDHRA PRADESH"
65,ANDHRA PRADESH,CHITTOOR,SHREE RAMA EDUCATIONAL SOCIETY GROUP OF INSTITUTIONS,"RAMI REDDY NAGAR, KARAKAMBADI ROAD, MANGALAM BO TIRUPATI URABAN MANDAL TIRUPATI - 517 507 CHITTOOR DIST. A.P."
66,ANDHRA PRADESH,KRISHNA,PALADUGU PARVATHI DEVI COLLEGE OF ENGINEERING AND TECHNOLOGY,SURAMPALLI VILLAGE VIA NUNNA VIJAYAWADA RURAL KRISHNA DISTRICT - 521212 ANDHRA PRADESH
67,ANDHRA PRADESH,GUNTUR,MALINENI PERUMALLU EDUCATIONAL SOCIETY'S GROUP OF INSTITUTIONS(INTEGRATED CAMPUS),"PULLADIGUNTA (V), VATTICHERUKURU (MD), GUNTUR (DT) - 522017"
68,ANDHRA PRADESH,VISHAKHAPATNAM,"WELLFARE INSTITUTE OF SCIENCE, TECHNOLOGY AND MANAGEMENT","PINAGADI (V), PENDURTHY(M), VISAKHAPATNAM-531173. ANDHRA PRADESH."
69,ANDHRA PRADESH,CHITTOOR,CHADALAWADA RAMANAMMA ENGINEERING COLLEGE,"CHADALAWADA NAGAR, RENIGUNTA ROAD, TIRUPATI"
70,ANDHRA PRADESH,PRAKASAM,ST. ANN'S COLLEGE OF ENGINEERING & TECHNOLOGY,NAYUNIPALLI VILLAGE CHALLAREDDYPALEM VETAPALEM MANDAL PRAKASAM DISTRICT
71,ANDHRA PRADESH,WEST GODAVARI,NOVA COLLEGE OF ENGINEERING & TECHNOLOGY,VEGAVARAM VILLAGE JANGAREDDY GUDEM MANDAL WEST GODAVARI DISTRCIT ANDHRA PRADESH PIN:534447
72,ANDHRA PRADESH,ANANTAPUR,SHRI SHIRDI SAI INSTITUTE OF SCIENCE AND ENGINEERING,"#2-383, WARD NO. 10,VADIYAMPETA(POST), PODARALLA (VILLAGE), BUKKARAYASAMUDRAM (M), ANANTAPUR - 515731.` ANDHRA PRADESH."
73,ANDHRA PRADESH,PRAKASAM,BUCHEPALLI VENKAYAMMA SUBBAREDDY ENGINEERING COLLEGE,KURNOOL ROAD
74,ANDHRA PRADESH,ANANTAPUR,ANANTHA LAKSHMI INSTITUTE OF TECHNOLOGY & SCIENCES,"ITIKAKAPALLI NEAR SK UNIVERSITY ITIKALAPALLI, ANANTAPUR"
75,ANDHRA PRADESH,KRISHNA,NIMRA INSTITUTE OF SCIENCE & TECHNOLOGY,"NIMRA NAGAR ,JUPUDI,IBRAHIMPATNAM, VIJAYAWADA, KRISHNA DIST. ANDHRA PRADESH PIN:521456"
76,ANDHRA PRADESH,GUNTUR,KRISHNAVENI ENGINEERING COLLEGE FOR WOMEN,VILLAGE KESANUPALLI TALUK NARASARAOPET DISTRICT GUNTUR STATE ANDHRA PRADESH PIN CODE 522 601
77,ANDHRA PRADESH,KRISHNA,RGUKT-NUZIVID,"MYLAVARAM ROAD, NUZIVID, KRISHNA DISTRICT.HEAD OFFICE : RGUKT VINDHYA C-4, IIITH CAMPUS, GACHIBOWLI, HYDERABAD"
78,ANDHRA PRADESH,YSR DISTRICT,VAAGDEVI INSTITUTE OF TECHNOLOGY & SCIENCE,PEDDASETTIPALLY(VILLAGE) PRODDATUR(MANDAL) CUDDAPAH(DT) ANDHRA PRADESH- 516 360
79,ANDHRA PRADESH,WEST GODAVARI,DNR COLLEGE OF ENGINEERING & TECHNOLOGY,"DNR COLLEGE OF ENGINEERING & TECHNOLOGY, BALUSUMUDI,"
80,ANDHRA PRADESH,VIZIANAGARAM,AVANTHI'S RESEARCH & TECHNOLOGICAL ACADEMY,"AVANTHI'S RESEARCH & TECHNOLOGICAL ACADEMY BASAVAPALEM VILLAGE, BHOGAPURAM MANDALAM, VIZIANAGARAM DISTRICT."
81,ANDHRA PRADESH,VISHAKHAPATNAM,BABA INSTITUTE OF TECHNOLOGY AND SCIENCES,"P M PALEM, MADHURAWADA"
82,ANDHRA PRADESH,NELLORE,JAGAN'S COLLEGE OF ENGINEERING AND TECHNOLOGY,CHOUTAPALEM VENKATACHALAM MANDAL SPSR NELLORE DISTRICT 524320
83,ANDHRA PRADESH,VISHAKHAPATNAM,ANIL NEERUKONDA INSTITUTE OF TECHNOLOGY & SCIENCES,"SANGIVALASA BHEEMUNIPATNAM MANDAL VISAKHAPATANAM  531 162 TEL: 08933-225083, 84 & 85 FAX: 08933-226395 WEBSITE: WWW.ANITS.EDU.IN E-MAIL: PRINC"
84,ANDHRA PRADESH,VIZIANAGARAM,"AVANTHI S ST.THERESSA INSTITUTE OF ENGINEERING AND TECHNOLOGY,GARIVIDI","GARBHAM ROAD, GARIVIDI (CHEEPURUPALLI), VIZIANAGARAM DISTRICT"
85,ANDHRA PRADESH,YSR DISTRICT,SRI SAI INSTITUTE OF TECHNOLOGY AND SCIENCE,"2/714-18, GOLLAPALLI (V) RAYACHOTI- 516 270"
86,ANDHRA PRADESH,SRIKAKULAM,BHASKARA INSTITUTE OF TECHNOLOGY AND SCIENCE,"MITHRA INSTITUTE OF TECHNOLOGY, CHINARAVUPALLI VILLAGE, ETCHERLA POST, SRIKAKULAM DIST., ANDHRA PRADESH. PIN :532 410"
87,ANDHRA PRADESH,YSR DISTRICT,K.S.R.M. COLLEGE OF ENGINEERING,YERRAMASUPALLI VILLAGE CHINTAKOMMA DINNE MANDAL KADAPA
88,ANDHRA PRADESH,YSR DISTRICT,KANDULA OBULA REDDY MEMORIAL COLLEGE OF ENGINEERING,"TADIGOTLA, CHINTAKOMMADINNE (MANDAL) KADAPA"
89,ANDHRA PRADESH,EAST GODAVARI,ADITYA COLLEGE OF ENGINEERING & TECHNOLOGY,ADITYA NAGAR ADB ROAD SURAMPALEM GANDEPALLI MANDAL E.G.DT. 533437
90,ANDHRA PRADESH,EAST GODAVARI,KAKINADA INSTITUE OF TECHNOLOGICAL SCIENCES,KAKINADA INSTITUE OF TECHNOLOGICAL SCIENCES AMBIKAPALLI AGRAHARAM VILLAGE RAMACHNDRAPURAM MANDAL EAST GODAVARI DISTRICT
91,ANDHRA PRADESH,VISHAKHAPATNAM,PYDAH KAUSHIK COLLEGE OF ENGINEERING,"GAMBHEERAM VILLAGAE, ANANDAPURAM MANDAL, VISAKHAPATNAM- 531163"
92,ANDHRA PRADESH,EAST GODAVARI,LENORA COLLEGE OF ENGINEERING,IRLAPALLY VILLAGE RAMPACHODAVARM EAST GODAVRI
93,ANDHRA PRADESH,EAST GODAVARI,CHAITANYA INSTITUTE OF SCIENCE AND TECHNOLOGY,MADHAVA PATNAM
94,ANDHRA PRADESH,GUNTUR,H.M.K.S & M.G.S COLLEGE OF ENGINEERING,KANAGALA (PO) CHERUKUPALLI (MANDAL) GUNTUR (DIST) ANDHRA PRADESH INDIA PIN : 522259
95,ASSAM, NH-37,KU SCHOOL OF ENGINEERING TECHNOLOGY AND MANAGEMENT,KORAIKHOWA GAON
96,ASSAM,CACHAR,TRIGUNA SEN SCHOOL OF TECHNOLOGY,"ASSAM UNIVERSITY (CENTRAL UNIVERSITY), SILCHAR"
97,ASSAM,JORHAT,JORHAT INSTITUTE OF SCIENCE & TECHNOLOGY,"SATAI, CHENIAMGURI P.O: CHENIJAN JORHAT"
98,ASSAM,KOKRAJHAR,CENTRAL INSTITUTE OF TECHNOLOGY,"BALAGAON BODOLAND TERRITORIAL COUNCIL KOKRAJHAR, ASSAM 783370"
99,ASSAM,KOKRAJHAR,BINESWAR BRAHMA ENGINEERING |COLLEGE,CHANDRAPARA
100,ASSAM,KAMRUP,GAUHATI UNIVERSITY INSTITUTE OF SCIENCE AND TECHNOLOGY,"INSTITUTE OF SCIENCE AND TECHNOLOGY, GAUHATI UNIVERSITY, GUWAHATI-781014, ASSAM"
101,ASSAM,SONITPUR,TEZPUR UNIVERSITY,"NAPAAM TEZPUR - 784 028 DISTRICT : SONITPUR ASSAM, INDIA"
102,ASSAM,SONITPUR,"GIRIJANANDA CHOWDHURY INSTITUTE OF MANAGEMENT AND TECHNOLOGY (GIMT), TEZPUR",VILL : DEKACHUBURI AND KUNDABOURI MOUZA : HALLESWAR P.O.: TEZPUR DIST : SONITPUR STATE : ASSAM PIN : 784001
103,BIHAR,PATNA,NETAJI SUBHAS INSTITUTE OF TECHNOLOGY,"AT + PO: AMHARA, BIHTA, PATNA"
104,BIHAR,DARBHANGA,DARBHANGA COLLEGE OF ENGINEERING,DR JAGGANATH MISHRA INSTITUTE OF TECHNOLOGY MABBI DARBHANGA PO LALSAHPUR VIA PTC DARBHANGA
105,BIHAR,VAISHALI,PATNA SAHIB TECHNICAL CAMPUS,"BAFAPUR BANTHU, BLOCK-BHAGWANPUR, DISTT-VAISHALI"
106,BIHAR,VAISHALI,EXALT COLLEGE OF ENGINEERING & TECHNOLOGY,KAHAULI TEH. GARAUL MAHUA
107,BIHAR,MUZAFFARPUR,"MUZAFFARPUR INSTITUTE OF TECHNOLOGY, MUZAFFARPUR",PRINCIPAL MUZAFFARPUR INSTITUTE OF TECHNOLOGY MUZAFFARPUR AT LAKSHMI CHOWCK PO MIT MUZAFFARPUR BIHAR MUZAFFARPUR-842003
108,BIHAR,PURNIA,MILLIA INSTITUTE OF TECHNOLOGY,"RAMBAGH, PURNEA"
109,BIHAR,KISHANGANJ,AZMET INSTITUTE OF TECHNOLOGY,"ZAFARNAGAR, ANARKALI KISHANGUNJ"
110,BIHAR,GAYA,GAYA COLLEGE OF ENGINEERING,SHRIKRISHN NAGAR VIA BUNIYAD GANJ KHIJAR SARAI GAYA
111,BIHAR,AURANGABAD,SITYOG INSTITUTEOF TECHNOLOGY,GROWTH CENTER JASOIYA MORE AURANGABAD BIHAR
112,BIHAR,SARAN,"LOKNAYAK JAI PRAKASH INSTITUTE OF TECHNOLOGY, CHHAPRA","IN THE CAMPUS OF LNJP UNIVERSITY, CHHAPRA"
113,BIHAR,ARARIA,MOTI BABU INSTITUTE OF TECHNOLOGY,"INDUSTRIAL ESTATE OFF NH87, FORBESGANJ-854318 (BIHAR)"
114,BIHAR,BUXAR,VIDYADAAN INSTITUTE OF TECHNOLOGY & MANAGEMENT,VILLAGE & PO. - ARIAON DISTRICT- BUXAR (BIHAR) PIN- 802119
115,BIHAR,PATNA,MAULANA AZAD COLLEGE OF ENGINEERING AND TECHNOLOGY,NEORAGANJ GHORNA NEORA PATNA
116,BIHAR,EAST CHAMPARAN,"MOTIHARI COLLEGE OF ENGINEERING, MOTIHARI","AT/P.O -PHURSATPUR BAIRIYA P.S -MUFASSIL (MOTIHARI) DIST.-EAST CHAMPARAN,BIHAR-845401"
117,BIHAR,NALANDA,K.K. COLLEGE OF ENGINEERING & MANAGEMENT,VILLAGE+AT: BERAUTI POST OFF: NEPURA THANA: DEEPNAGAR BIHARSHARIF DIST-NALANDA BIHAR
118,BIHAR,GAYA,BUDDHA INSTITUTE OF TECHNOLOGY,"INDUSTRIAL AREA, GAYA, BEHIND RITURAJ COLD STORAGE, GAYA-DOBHI ROAD"
119,CHHATTISGARH,DURG,CHHATTISGARH INSTITUTE OF MANAGEMENT & TECHNOLOGY,PATAN ROAD GANYARI BHILAI-3 DURG
120,CHHATTISGARH,RAIPUR,GOVT. ENGINEERING COLLEGE RAIPUR,"OLD DHAMTARI ROAD, SEJBAHAR"
121,CHHATTISGARH,RAIPUR,CENTRAL COLLEGE OF ENGINEERING AND MANAGEMENT,"MAIN ROAD, RING ROAD NO.02, KABIR NAGAR"
122,CHHATTISGARH,DURG,SHRI SHANKARACHARYA INSTITUTE OF ENGINEERING AND TECHNOLOGY,"VILLAGE:KHAPRI,DHAMDHA ROAD,JEWRA SIRSA,DISTRICT:DURG, CHHATTISGARH-491001"
123,CHHATTISGARH,RAIPUR,CENTRAL INSTITUTE OF TECHNOLOGY,"VILLAGE - BHELWADIH NH 43, TAHSIL- ABHANPUR-PIN 493661 DISTRICT- RAIPUR STATE- CHHATTISGARH"
124,CHHATTISGARH,RAIPUR,SCHOOL OF ENGINEERING AND INFORMATION TECHNOLOGY,"GULLU, AARANG-KHARORA HIGHWAY, AARANG, RAIPUR CHHATTISGARH 493441"
125,CHHATTISGARH,DURG,BHARTI COLLEGE OF ENGINEERING & TECHNOLOGY DURG,"PULGAON CHOWK, DURG (C.G.)"
126,CHHATTISGARH,BILASPUR,"INSTITUTE OF TECHNOLOGY, GURU GHASIDAS VISHWAVIDYALAYA, BILASPUR(C.G.)","INSTITUTE OF TECHNOLOGY, GURU GHASIDAS VISHWAVIDYALAYA"
127,CHHATTISGARH,RAIPUR,KRUTI INSTITUTE OF TECHNOLOGY & ENGINEERING,"KNOWLEDGE VILAGE, NARADAHA"
128,CHHATTISGARH,RAIPUR,COLUMBIA INSTITUTE OF ENGINEERING & TECHNOLOGY,"BHURKONI VILLAGE - TEKARI, NEAR- VIDHANSABHA"
129,CHHATTISGARH,RAIPUR,"BHILAI INSTITUTE OF TECHNOLOGY,RAIPUR.","ON NATIONAL HIGHWAY 43, 5 KM.BEFORE ABHANPUR,VILLAGE KENDRI,NEW RAIPUR,RAIPUR."
130,CHHATTISGARH,RAJNANDGAON,YUGANTAR INSTITUTE OF TECHNOLOGY AND MANAGEMENT,"G.E. ROAD, GRAM - THEKWA POST-SOMNI RAJNANDGAON-491441 CHHATTISGARH"
131,CHHATTISGARH,DURG,CHRISTIAN COLLEGE OF ENGINEERING AND TECHNOLOGY,"KAILASH NAGAR, INDUSTRIAL ESTATE P.O."
132,CHHATTISGARH,DURG,CHHATTISGARH ENGINEERING COLLEGE,"BORSI-DHANORA ROAD, IN FRONT OF ST. XAVIER SCHOOL DHANORA DISTT: DURG,CG CHHATTISGARH 491001"
133,CHHATTISGARH,RAIGARH,KIRODIMAL INSTITUTE OF TECHNOLOGY,"POST BOX NO-2, VILLAGE-GARHUMARIA,ORISSA ROAD,RAIGARH"
134,CHHATTISGARH,RAIPUR,PROFESSIONAL INSTITUTE OF ENGINEERING & TECHNOLOGY,"STATE HIGHWAY 9, MURRA, KHARORA ROAD, RAIPUR"
135,CHHATTISGARH,DURG,PARTHIVI COLLEGE OF ENGINEERING & MANAGEMENT,SIRSAKALA BHILAI-3 DISTRICT DURG (C.G.)
136,CHHATTISGARH,RAIPUR,MM COLLEGE OF TECHNOLOGY,"NH-06, UMARIA,REWA- LAKHOLI, RAIPUR(C.G.)"
137,CHHATTISGARH,BILASPUR,DR C.V.RAMAN INSTITUTE OF SCIENCE AND TECHNOLOGY,"KARGI ROAD,BLOCK - KOTA, BILASPUR, CHHATTISHGARH"
138,CHHATTISGARH,RAJNANDGAON,ASHOKA INSTITUTE OF TECHNOLOGY & MANAGEMENT,"GRAM- TORANKATTA, POST- SOMNI, G.E. ROAD, RAJNANDGAON (C.G)"
139,CHHATTISGARH,BILASPUR,LAKHMI CHAND INSTITUTE OF TECHNOLOGY,"LAKHMI CHAND INSTITUTE OF TECHNOLOGY, VIDYASTHALI, VILLAGE: BODRI P.O:CHAKARBHATHA DISTT-BILASPUR(CHHATTISGARH) PIN-495220"
140,DELHI,NORTH WEST DELHI,HMR INSTITUTE OF TECHNOLOGY AND MANAGEMENT,PLOT NO.370&364 HAMIDPUR
141,DELHI,CENTRAL DELHI,DELHI INSTITUTE OF TOOL ENGINEERING,"CAMPUS -I WAZIRPUR INDUSTRIAL AREA, DELHI - 110 052 CAMPUS-II - SHRI MAA ANANDMAYI MARG, OKHLA INDUSTRIAL AREA, PHASE-II, NEW DELHI-110020."
142,DELHI,EAST DELHI,AMBEDKAR INSTITUTE OF ADVANCED COMMUNICATION TECHNOLOGIES AND RESEARCH,"GEETA COLONY, DELHI - 110 031"
143,DELHI,SOUTH DELHI,G.B. PANT GOVT. ENGINEERING COLLEGE,OKHKA INDUSTRIAL ESTATE PHASE III NEW DELHI
144,DELHI,NORTH WEST DELHI,DELHI TECHNOLOGICAL UNIVERSITY,SHAHBAD DAULATPUR BAWANA ROAD
145,DELHI,SOUTH WEST DELHI,NETAJI SUBHAS INSTITUTE OF TECHNOLOGY,"AZAD HIND FAUJ MARG, SECTOR-3, DWARKA, NEW DELHI-110078"
146,DELHI,SOUTH DELHI,INDRAPRASTHA INSTITUTE OF INFORMATION TECHNOLOGY -DELHI (IIIT-D),"INDRAPRASTHA INSTITUTE OF INFORMATION TECHNOLOGY - DELHI (IIIT-DELHI), OKHLA INDUSTRIAL ESTATE PHASE-3, NEW DELHI-110020"
147,DELHI,WEST DELHI,BHARATI VIDYAPEETH'S COLLEGE OF ENGINEERING,"A-4, PASCHIM VIHAR, ROHTAK ROAD, NEW DELHI - 110 063."
148,DELHI,SOUTH DELHI,JAMIA MILLIA ISLAMIA (A CENTRAL UNIVERSITY),"FACULTY OF ENGINEERING & TECHONOLOGY JAMIA MILLIA ISLAMIA MAULANA MOHAMMED ALI JAUHAR MARG JAMIA NAGAR, NEW DELHI-110025"
149,DELHI,SOUTH DELHI,NATIONAL POWER TRAINING INSTITUTE (NORTHERN REGION),BADARPUR NEW DELHI
150,DELHI,NORTH WEST DELHI,NORTHERN INDIA ENGINEERING COLLEGE,"FC-26, SHASTRI PARK,"
151,GOA,NORTH GOA,SHREE RAYESHWAR INSTITUTE OF ENGINEERING AND INFORMATION TECHNOLOY,"SHIV SHAIL, KARAI, SHIRODA, GOA 403103"
152,GOA,NORTH GOA,AGNEL INSTITUTE OF TECHNOLOGY AND DESIGN,"ASSAGAO, BARDEZ, GOA."
153,GOA,SOUTH GOA,PADRE CONCEICAO COLLEGE OF ENGINEERING,"AGNEL GANV, VERNA, GOA - 403722"
154,GOA,NORTH GOA,GOA COLLEGE OF ENGINEERING (GOVERNMENT OF GOA),"FARMAGUDI, PONDA-GOA PIN-403401"
155,GOA,SOUTH GOA,DON BOSCO COLLEGE OF ENGINEERING,"DON BOSCO, FATORDA,"
156,GUJARAT,RAJKOT,AURUM INSTITUTE OF TECHNOLOGY,"ISHWARIYA VILLAGE, OPP. HILL VIEW CLUB, KALAWAD ROAD, RAJKOT."
157,GUJARAT,SURAT,BHAGWAN MAHAVIR COLLEGE OF ENGINEERING AND TECHNOLOGY,"S. NO. 149/B, B/H. HEENA BUNGLOWS, NR. AASHIRWAD VILLA, NEW CITY LIGHT ROAD, BHARTHANA - VESU, SURAT - 395017."
158,GUJARAT,MEHSANA,SMT. S. R. PATEL ENGINEERING COLLEGE,"AT & P.O. : DABHI , TA. : UNJHA, DIST. : MEHSANA"
159,GUJARAT,GANDHINAGAR,KALOL INSTITUTE OF TECHNOLOGY & RESEARCH CENTRE,"B/H OLD JANPATH HOTEL,AHMEDABAD-MEHSANA NATIONAL HIGHWAY, KALOL, TA-KALOL,DIST-GANDHINAGAR."
160,GUJARAT,PANCHMAHAL,"ENGINEERING COLLEGE, TUWA","AT. & POST. TUWA, TALUKA. GODHRA, DIST. PANCHMAHLS GUJARAT"
161,GUJARAT,SABARKANTHA,"GOVERNMENT ENGINEERING COLLEGE, MODASA",SHAMLAJI ROAD MODASA - 383315 DIST. SABARKANTHA GUJARAT INDIA
162,GUJARAT,SURAT,CHHOTUBHAI GOPALBHAI PATEL INSTITUTE OF TECHNOLOGY,"MALIBA CAMPUS, GOPAL VIDYNAGAR, BARDOLI-MAHUVA ROAD"
163,GUJARAT,RAJKOT,LUKHDHIRJI ENGINEERING COLLEGE,LUKHDHIRJI ENGINEERING COLLEGE SAMA KANTHA MORBI DISTRICT RAJKOT STATE GUJARAT PIN CODE 363642
164,GUJARAT,KUTCH,HJD INSTITUTE OF TECHNICAL EDUCATION AND RESERCH,KERA - MUNDRA ROAD
165,GUJARAT,ANAND,A.D.PATEL INSTITUTE OF TECHNOLOGY,"P.O.BOX NO.:-52, BEHIND 4TH PHASE, GIDC VITTHAL UDYOGNAGAR, NEW VALLABH VIDYA NAGAR"
166,GUJARAT,SURENDRANAGAR,C. U. SHAH COLLEGE OF ENGINEERING & TECHNOLOGY,"SURENDRANAGAR-AHMEDABAD STATE HIGHWAY, NEAR KOTHARIYA VILLAGE, WADHWAN CITY"
167,GUJARAT,NAVSARI,MAHATMA GANDHI INSTITUTE OF TECHNICAL EDUCATION AND RESEARCH CENTRE,"NPE-CAMPUS ,BHANUNAGAR, ERU-AAT ROAD TA:JALALPOR DI:NAVSARI"
168,GUJARAT,AHMEDABAD,HASMUKH GOSWAMI COLLEGE OF ENGINEERING,"VAHELAL GAM,NARODA-DAHEGAM ROAD,NEAR ZAK,TALUKA DASCROI,DIST AHMEDABAD,GUJARAT"
169,GUJARAT,MEHSANA,MERCHANT ENGINEERING COLLEGE,"MEHSANA - VISNAGAR HIGHWAY, AT & PO. BASNA, TA. VISNAGAR, DIST.MEHSNA NORTH GUJARAT PIN. 384315"
170,GUJARAT,MEHSANA,"""SHRI SATSANGI SAKETDHAM 'RAM ASHRAM' GROUP OF INSTITUTIONS""",AT. & PO. VADASMA
171,GUJARAT,ANAND,MADHUBEN AND BHANUBHAI PATEL WOMEN INSTITUTE OF ENGG. FOR STUDIES AND RESEARCH IN COMPUTER AND COMM.,"BEYOND GIDC PHASE IV, POST BOX NO. 8, NEW VALLABH VIDYANAGAR(GUJARAT) PIN;388 121 DIST:ANAND"
172,GUJARAT,MEHSANA,S.P.B. PATEL ENGINEERING COLLEGE,"SAFFRONY INSTITUTE OF TECHNOLOGY CAMPUS, NR. SAFFRONY HOLIDAY RESORT, AHMEDABAD-MEHSANA HIGHWAY, AT & POST - LINCH, TAL & DIST. - MEHSANA"
173,GUJARAT,AHMEDABAD,L. D. COLLEGE OF ENGINEERING,"NEAR GUJARAT UNIVERSITY, NAVRANGPURA, AHMEDABAD- 380015"
174,GUJARAT,BHAVNAGAR,GOVERNMENT ENGINEERING COLLEGE,"GOVERNMENT ENGINEERING COLLEGE, NEAR BPTI VIDYANAGAR, BHAVNAGAR-364002"
175,GUJARAT,AHMEDABAD,SILVER OAK COLLEGE OF ENGINEERING & TECHNOLOGY,"352,353A, NR. BHAVIK PUBLICATION, NR. GOTA CROSS ROAD, OPP. BHAGAVAT VIDYAPITH, S. G. HIGHWAY,AHMEDABAD,GUJARAT"
176,GUJARAT,RAJKOT,ATMIYA INSTITUTE OF TECHNOLOGY & SCIENCE (ENGINEERING),"""YOGIDHAM GURUKUL"", KALAWAD ROAD"
177,GUJARAT,BHARUCH,"GOVERNMENT ENGINEERING COLLEGE, BHARUCH","OPP. GOVT. REST HOUSE, NR. OLD NATIONAL HIGHWAY NO-08 BHOLAV, BHARUCH. ( GUJARAT)"
178,GUJARAT,KUTCH,GOVERNMENT ENGINEERING COLLEGE BHUJ,"NEW RAVAL VADI RELOCATION SITE, NEAR SAHAYOG NAGAR"
179,GUJARAT,BANASKANTHA,GOVERNMENT ENGINEERING COLLEGE,AT AND POST JAGANA PALANPUR-AHMEDABAD HIGHWAY PALANPUR - 385011
180,GUJARAT,VADODARA,PARUL INSTITUTE OF ENGINEERING & TECHNOLOGY,"P.O. LIMDA, TAL.WAGHODIA, DIST. VADODARA-391760, GUJARAT STATE"
181,GUJARAT,SURAT,SARVAJANIK COLLEGE OF ENGINEERING & TECHNOLOGY,"DR. R.K. DESAI MARG, OPP. MISSION HOSPITAL, ATHWALINES, SURAT - 395001."
182,GUJARAT,RAJKOT,MARWADI EDUCATION FOUNDATION'S GROUP OF INSTITUTIONS,AT: VILLAGE: GAURIDAD RAJKOT - MORBI HIGHWAY
183,GUJARAT,AHMEDABAD,"VISHWAKARMA GOVERNMENT ENGINEERING COLLEGE, CHANDKHEDA","OPP. SANGATH MALL, VISAT-KOBA ROAD, CHANDKHEDA"
184,GUJARAT,AHMEDABAD,SAL INSTITUTE OF TECHNOLOGY & ENGINEERING RESEARCH,"OPP. SCIENCE SITY, VILLAGE : BHADAJ"
185,GUJARAT,VALSAD,"GOVERNMENT ENGINEERING COLLEGE, VALSAD","BETWEEN B.K.M.SCIENCE COLLEGE AND GOVERNMENT POLYTECHNIC, TITHAL ROAD, VALSAD"
186,GUJARAT,VADODARA,VADODARA INSTITUTE OF ENGINEERING,"VADODARA-HALOL TOLL ROAD AT. KOTAMBI, TA. WAGHODIA DIST. VADODARA GUJARAT PIN - 391510"
187,GUJARAT,PATAN,"GOVERNMENT ENGINEERING COLLEGE, AT.KATPUR, PATAN","GOVERNMENT ENGINEERING COLLEGE, AT.KATPUR, DIS.-PATAN TA.-PATAN NORTH GUJARAT, PATAN-384265"
188,GUJARAT,MEHSANA,LALJIBHAI CHATURBHAI INSTITUTE OF TECHNOLOGY,MEHSANA-UNJHA STATE HIGHWAY
189,GUJARAT,PATAN,HANSABA COLLEGE OF ENGINEERING & TECHNOLOGY,"SUJANPUR PATIYA, MAHESANA - PALANPUR STATE HIGHWAY NO 41,"
190,GUJARAT,MEHSANA,U. V. PATEL COLLEGE OF ENGINEERING,GANPAT VIDYANAGAR MEHSANA-GOZARIA HIGHWAY KHERVA
191,GUJARAT,GANDHINAGAR,SHANKERSINH VAGHELA BAPU TECHNICAL CAMPUS,GANDHINAGAR MANSA HIGHWAY ROAD NR. RANDHEJA RLY CROSSING
192,GUJARAT,SABARKANTHA,ARRDEKTA INSTITUTE OF TECHNOLOGY,"AHMEDABAD-AMBAJI STATE HIGHWAY NO. 09, OPP. EKTA INSTITUTE., AT: RADHIWAD, PO.: NAVI METRAL TAL. KHEDBRAHMA, DIST. SABARKANTHA, GUJARAT- 383270"
193,GUJARAT,BHARUCH,SHROFF S.R.ROTARY INSTITUTE OF CHEMICAL TECHNOLOGY,"AT & PO - VATARIA, BLOCK NO. 402, TA- VALIA, DIST- BHARUCH, GUJARAT , INDIA"
194,GUJARAT,SURAT,"SHRI SITARAMBHAI NARANJI PATEL INSTITUTE OF TECHNOLOGY, MANAGED BY VIDYABHARTI TRUST,UMRAKH -BARDOLI","VIDYA BHARTI CAMPUS BARDOLI - MOTA ROAD, UMRAKH TA. BARDOLI, DIST. SURAT, STATE. GUJARAT"
195,GUJARAT,SURAT,PACIFIC SCHOOL OF ENGINEERING,"PLOT NO.: 87, 91, 92, 96, SANKI, PALSANA, SURAT"
196,GUJARAT,GANDHINAGAR,"GOVERNMENT ENGINEERING COLLEGE, SECTOR-28","NR-ANIMAL VACCINE INSTITUTE, SECTOR-28, GANDHINAGAR"
197,GUJARAT,AMRELI,ARUN MUCHHALA ENGINEERING COLLEGE,"AT.KHOKRA MAHADEV DHARI SARSIYA ROAD, TAL.DHARI,DIST. AMRELI,GUJRAT STATE"
198,GUJARAT,VALSAD,"LAXMI INSTITUTE OF TECHNOLOGY, SARIGAM",LAXMI VIDYAPEETH P. B. NO. 15 SARIGAM P. O. VALSAD - 396155
199,GUJARAT,ANAND,BIRLA VISHVAKARMA MAHAVIDYALAYA,"(ENGINEERING COLLEGE) P.B. NO. : 20 VALLABH VIDYANAGAR - 388 120 GUJARAT, INDIA"
200,GUJARAT,SABARKANTHA,GROW MORE FOUNDATION'S GROUP OF INSTITUTIONS,AHMEDABAD -UDAIPUR HIGHWAY HIMATNAGAR DIST- SABARKANTHA
201,GUJARAT,RAJKOT,DARSHAN INSTITUTE OF ENGINEERING & TECHNOLOGY,"AT: HADALA NEAR WATER SUMP, RAJKOT-MORBI HIGHWAY,"
202,GUJARAT,SURAT,FACULTY OF ENGINEERING TECHNOLOGY & RESERACH,"AT :ISROLI, PO:AFWA, BARDOLI-NAVSARI ROAD, BARDOLI"
203,GUJARAT,AHMEDABAD,ADANI INSTITUTE OF INFRASTRUCTURE ENGINEERING,"SHANTIGRAM TOWNSHIP, NEAR VAISHNODEVI CIRCLE, SG HIGHWAY"
204,GUJARAT,KHEDA,D A DEGREE ENGINEERING AND TECHNOLOGY,"HIRABA KELAVANI TRUST EDUCATION CAMPUS, NR KHATRAJ CHOKDI"
205,GUJARAT,GANDHINAGAR,LEELABEN DASHRATHBHAI RAMDAS PATEL(LDRP)INSTITUTE OF TECHNOLOGY AND RESEARCH,"BESIDES ITI, NR KH 5 CIRCLE, SECTOR 15"
206,GUJARAT,GANDHINAGAR,INDUS INSTITUTE OF TECHNOLOGY & ENGINEERING,"VILLAGE: RANCHARDA, SUB DIST(TALUKA): KALOL, DIST.: GANDHINAGAR - 382 115 GUJARAT, (INDIA)"
207,GUJARAT,SURENDRANAGAR,SHREE PANDIT NATHULALJI VYAS TECHNICAL CAMPUS,"SURENDRANAGAR - AHMEDABAD HIGHWAY, NR. KOTHARIYA VILLAGE"
208,GUJARAT,SURAT,SHREE SWAMI ATMANAND SARASWATI INSTITUTE OF TECHNOLOGY,"SHREE SWAMI ATMANAND SARSWATI VIDYA SANKUL, KAPODRA, VARACHHA ROAD SURAT, GUJARAT. PIN CODE : 395006"
209,GUJARAT,BHARUCH,SIGMA ENGINEERING COLLEGE (MATAR),AT: MATAR TA: AMOD DIST: BHARUCH
210,GUJARAT,MEHSANA,GUJARAT POWER ENGINEERING AND RESEARCH INSTITUTE,"NEAR TOLL BOOTH, AHMEDABAD-MEHSANA EXPRESS HIGHWAY,"
211,GUJARAT,VADODARA,SIGMA INSTITUTE OF ENGINEERING,"SIGMA INSTITUTE OF TECHNOLOGY & ENGINEERING CAMPUS AJWA-NIMETA ROAD, BAKROL , TA: WAGHODIA, DIST: VADODARA"
212,GUJARAT,AMRELI,SMT SHANTABEN HARIBHAI GAJERA ENGINEERING COLLEGE,"BHAVNAGAR ROAD, OPP ITI"
213,GUJARAT,SURAT,VIDHYADEEP INSTITUTE OF ENGINEERING AND TECHNOLOGY,"G.S. HIGHWAY ROAD, AT : ANITA (KIM) TAL : OLPAD"
214,GUJARAT,SABARKANTHA,GUJARAT INSTITUTE OF TECHNICAL STUDIES,"VILL. MOYAD, TA. PRANTIJ, DIST. SABARKANTHA"
215,GUJARAT,AHMEDABAD,SAL COLLEGE OF ENGINEERING,"OPP. SCIENCE CITY, VILLAGE BHADAJ, SOLA ROAD"
216,GUJARAT,SABARKANTHA,SAMARTH COLLEGE OF ENGINEERING & TECHNOLOGY,"SAMARTH CAMPUS, OPP. SABAR DAIRY, NH-8, HAJIPUR"
217,GUJARAT,GANDHINAGAR,UNIVERSAL COLLEGE OF ENGG AND TECHNOLOGY,"VILLAGE BHOYAN MOTI,TALUKA KALOL,DIST GANDHINAGAR,GUJARAT"
218,GUJARAT,JUNAGADH,NOBLE GROUP OF INSTITUTIONS,"""PARTH - VATIKA"", JUNAGADH - BHESAN ROAD, VIA - VADAL , NR. BAMANGAM, DIST. - JUNAGADH."
219,GUJARAT,SABARKANTHA,SABAR INSTITUTE OF TECHNOLOGY FOR GIRLS,VILLAGE TAJPUR TALUKA PRANTIJ DISTRICT SABARKANTHA
220,GUJARAT,BHAVNAGAR,SHANTILAL SHAH ENGINEERING COLLEGE,SIDSAR PO:VARTEJ BHAVNAGAR
221,GUJARAT,RAJKOT,V. V. P. ENGINEERING COLLEGE,"VIRDA-VAJADI, KALAWAD ROAD RAJKOT"
222,GUJARAT,AHMEDABAD,L. J. INSTITUTE OF ENGINEERING & TECHNOLOGY,"L.J. CAMPUS, NEAR NAGDEV KALYAN MANDIR, SARKHEJ- SANAND CIRCLE, SARKHEJ - GANDHINAGAR HIGHWAY, AHMEDABAD"
223,GUJARAT,AHMEDABAD,NARNARAYAN SHASTRI INSTITUTE OF TECHNOLOGY,"C/O.SWAMINARAYAN GURUKUL, AT:JETALPUR, TA:DASKROI, DIST:AHMEDABAD STATE:GUJARAT"
224,GUJARAT,MEHSANA,MERCHANT INSTITUTE OF TECHNOLOGY,"MEHSANA-VISNAGAR HIGHWAY AT & PO. PILUDARA, TA & DIST. MEHSANA"
225,GUJARAT,GANDHINAGAR,GANDHINAGAR INSTITUTE OF TECHNOLOGY,"AT & POST. MOTI BHOYAN, KHATRAJ-KALOL ROAD, TA. KALOL, DIST. GANDHINAGAR"
226,GUJARAT,ANAND,CHANDUBHAI S. PATEL INSTITUTE OF TECHNOLOGY,EDUCATION CAMPUS AT & PO: CHANGA TA:PETLAD DIST:ANAND PIN:388421
227,GUJARAT,ANAND,SARDAR VALLABHBHAI PATEL INSTITUTE OF TECHNOLOGY (SVIT),"AT & PO. RAJUPURA, VASAD - 388 306, GUJARAT, INDIA"
228,GUJARAT,JUNAGADH,OM ENGINEERING COLLEGE,"JUNAGADH-BHESAN ROAD, AT : CHOKLI, DIST : JUNAGADH GUJARAT"
229,GUJARAT,RAJKOT,"AARYA-VEER COLLEGE OF ENGINEERING & TECHNOLOGY,RAJKOT","AT POST:KUVADVA, NH-8,KUVADVA-SARDHAR ROAD, KUVADVA DIST.:RAJKOT RAJKOT-360003"
230,GUJARAT,AHMEDABAD,ADITYA SILVER OAK INSTITUTE OF TECHNOLOGY,"352, 353A, NEAR BHAVIK PUBLICATION, OPP. BHAGWAT VIDHYAPITH, GOTA CROSS ROAD, S. G. HIGHWAY, AHMEDABAD"
231,GUJARAT,SURAT,C.K.PITHAWALA COLLEGE OF ENGG & TECHNOLOGY,"NEAR MALVAN MANDIR, VIA-MAGDALLA PORT"
232,GUJARAT,VADODARA,K.J.INSTITUTE OF ENGINEERING & TECHNOLOGY,"K.J.INSTITUTE OF ENGINEERING & TECHNOLOGY, OPP. I.T.I, JAVLA, SAVLI-391770, DIST: VADODARA"
233,GUJARAT,JUNAGADH,BALAJI ENGINEERING COLLEGE,AT MAKHIYALA JUNAGADH-DHORAJI HIGHWAY JUNAGADH
234,GUJARAT,MEHSANA,INDRASHIL INSTITUTE OF SCIENCE AND TECHNOLOGY,"N.H.NO.26, RAJPUR-UNTAVA ROAD, AT & PO.: RAJPUR, TA.: KADI, DIST. : MEHSANA"
235,GUJARAT,SURAT,"DR. S. & S. S. GHANDHY GOVERNMENT ENGINEERING COLLEGE, SURAT.","DR. S & S.S. GANDHY ENGINEERING COLLEGE CAMPUS, MAJURA GATE, OPP RTO, SURAT- 395001"
236,GUJARAT,GANDHINAGAR,SHREE SWAMINARAYAN INSTITUTE OF TECHNOLOGY,"NEAR EDI, BHAT CIRCLE, AHMEDABAD AIRPORT TO GANDHINAGAR HIGHWAY, BHAT, GANDHINAGAR"
237,HARYANA,GURGAON,GURGAON INSTITUTE OF TECHNOLOGY AND MANAGEMENT,"VILLAGE PATHRERI BILASPUR TAURU ROAD, GURGAON, HARYANA -122413"
238,HARYANA,GURGAON,DRONACHARYA COLLEGE OF ENGINEERING,"KHENTAWAS, FARRUKH NAGAR, GURGAON -123506"
239,HARYANA,FARIDABAD,B.S.ANANGPURIA INSTITUTE OF TECHNOLOGY & MANAGEMENT,"VILLAGE: ALAMPUR, BALLABGARH-SOHNA ROAD, FARIDABAD, HARYANA"
240,HARYANA,MAHENDERGARH,YADUVANSHI COLLEGE OF ENGINEERING & TECHNOLOGY,"V.P.O PATIKARA, TEHSIL NARNAUL, DISTT. MAHENDERGARH 123001"
241,HARYANA,YAMUNA NAGAR,SHREE SIDDHIVINAYAK EDUCATIONAL TRUST'S GROUP OF INSTITUTIONS,"SHAHPUR, JAGADHRI-BILASPUR ROAD NEAR VITA MILK PLANT TEHSIL BILASPUR DISTT. YAMUNA NAGAR HARYANA"
242,HARYANA,AMBALA,KALPI INSTITUTE OF TECHNOLOGY,"AMBALA JAGADHRI ROAD, NH-73, NEAR AIR FORCE STATION, KALPI, DISTT. AMBALA , STATE HARYANA."
243,HARYANA,PANIPAT,ASIA PACIFIC INSTITUTE OF INFORMATION TECHNOLOGY SD INDIA PANIPAT,"FARIDPUR ROAD, G.T. ROAD, KARNAL SIDE, PANIPAT-132103"
244,HARYANA,AMBALA,GALAXY GLOBAL EDUCATIONAL TRUST'S GROUP OF INSTITUTIONS,"SHAHABAD-SAHA ROAD, NH-73, VILL. DINARPUR, DISTT. AMBALA"
245,HARYANA,PANIPAT,NAV NIRMAN SEWA SAMITI'S SAMALKHA GROUP OF INSTITUTIONS,"VILLAGE HATHWALA, SAMALKHA, DISTT.-PANIPAT HARYANA PIN-132115"
246,HARYANA,ROHTAK,MATU RAM INSTITUTE OF ENGINEERING & MANAGEMENT,"OPPOSITE A.I.J.H.M COLLEGE, DELHI ROAD, ROHTAK-124001"
247,HARYANA,FARIDABAD,LINGAYA'S GVKS INSTITUTE OF MANAGEMENT & TECHNOLOGY,"KANWARA, OLD FARIDABAD - JASANA ROAD"
248,HARYANA,SIRSA,JAN NAYAK CH. DEVI LAL MEMORIAL COLLEGE OF ENGINEERING,"POST BOX NO. 81, BARNALA ROAD,"
249,HARYANA,BHIWANI,THE TECHNOLOGICAL INSTITUTE OF TEXTILE & SCIENCES,PO BIRLA COLONY BHIWANI 127021 (HARYANA)
250,HARYANA,KURUKSHETRA,MODERN INSTITUTE OF ENGG. AND TECHNOLOGY,"NH-1, VILLAGE-MOHRI, TEH-SHAHBAD(M) DISTT. KURUKSHETRA"
251,HARYANA,PANCHKULA,PANCHKULA ENGINEERING COLLEGE,"PANCHKULA ENGINEERING COLLEGE V.P.O MOULI,DIST-PANCHKULA(HARYANA) PINCODE 134118"
252,HARYANA,ROHTAK,"UNIVERSITY INSTITUTE OF ENGINEERING AND TECHNOLOGY, MAHARSHI DAYANAND UNIVERSITY, ROHTAK","UNIVERSITY INSTITUTE OF ENGINEERING AND TECHNOLOGY, MAHARSHI DAYANAND UNIVERSITY, ROHTAK - 124001"
253,HARYANA,PANCHKULA,SWAMI DEVI DYAL INSTITUTE OF ENGINEERING,VILL.GOLPURA TEH.BARWALA DISTT-PANCHKULA (HARYANA)134118
254,HARYANA,JHAJJAR,MERI COLLEGE OF ENGINEERING AND TECHNOLOGY,ASANDA NEAR SAMPLA TEHSIL: BAHADURGARH
255,HARYANA,PANIPAT,N. C. COLLEGE OF ENGINEERING,"N. C. COLLEGE OF ENGINEERING, ISRANA (PANIPAT)"
256,HARYANA,SONEPAT,P.M.COLLEGE OF ENGINEERING,"KAMI,DISTT.-SONEPAT,STATE-HARYANA,131001"
257,HARYANA,KURUKSHETRA,KURUKSHETRA INSTITUTE OF TECHNOLOGY & MANAGEMENT,"VILL BHOR SAIDAN, PEHOWA ROAD"
258,HARYANA,ROHTAK,R.N. ENGINEERING & MANAGEMENT COLLEGE FOR WOMEN,"MAKRAULI KALAN, NH-71A, GOHANA ROAD, ROHTAK"
259,HARYANA,AMBALA,SHREE RAM MULKH INSTITUTE OF ENGINEERING & TECHNOLOGY,VILL KHORABHURA TEH. NARAINGARH DISTT. AMBALA
260,HARYANA,SONEPAT,MAHAVEER SWAMI INSTITUTE OF TECHNOLOGY,"VILLAGE JAGDISHPUR, NEAR RAILWAY CROSSING, SONEPAT, HARYANA 131030"
261,HARYANA,FARIDABAD,BIMLA DEVI EDUCATIONAL SOCIETY'S GROUP OF INSTITUTIONS,"JB KNOWLEDGE PARK, KHERI MANJHAWALI ROAD, NAHAR PAR, VILLAGE- MANJHAWALI, FARIDABAD( HARYANA) - 121102"
262,HARYANA,PANIPAT,PANIPAT INSTITUTE OF ENGINEERING & TECHNOLOGY,"70KM MILESTONE, NH-1, VILLAGE PATTIKALYANA, SAMALKHA"
263,HARYANA,FARIDABAD,AL- FALAH SCHOOL OF ENGINEERING & TECHNOLOGY,"VILLAGE DHAUJ, (FARIDABAD), HARYANA"
264,HARYANA,ROHTAK,SAT PRIYA GROUP OF INSTITUTIONS,0.5 KM MILESTONE
265,HARYANA,PALWAL,APPLIED COLLEGE OF MANAGEMENT & ENGINEERING (ACME),"72 KM STONE, NH-2 DELHI-MATHURA ROAD, MITROL ,PALWAL"
266,HARYANA,KARNAL,DOON VALLEY COLLEGE OF ENGINEERING,"NEAR FIRE BRIDGADE STATION, OUTSIDE JUNDLA GATE,SECTOR-17"
267,HARYANA,KURUKSHETRA,TECHNOLOGY EDUCATION & RESEARCH INSTITUTE,"9TH MILESTONE, KAITHAL ROAD, VPO BARNA, KURUKSHETRA"
268,HARYANA,HISAR,GURU JAMBHESHWAR UNIVERSITY OF SCIENCE & TECHNOLOGY,DELHI-SIRSA ROAD
269,HIMACHAL PRADESH,SIRMAUR,HIMALAYAN INSTITUTE OF ENGINEERING & TECHNOLOGY,"SADHORA ROAD, KALA-AMB, TEH. NAHAN, DISTT SIRMOUR, HIMACHAL PARDESH."
270,HIMACHAL PRADESH,KANGRA,SAI SCHOOL OF ENGINEERINGA & TECHNOLOGY,"VPO. SUNGAL, TEH. PALAMPUR DISTT. KANGRA"
271,HIMACHAL PRADESH,KANGRA,VAISHNO COLLEGE OF ENGINEERING,"VILLAGE - THAPKOUR, POST OFFICE - BHADROYA, TEHSIL NURPUR, DISTT. KANGRA, H.P"
272,HIMACHAL PRADESH,SOLAN,MAHARAJA AGRASEN INSTITUTE OF TECHNOLOGY,"ATAL SHIKSHA KUNJ ATAL NAGAR VILLAGE KALUJHANDA, NEAR BROTIWALA, BADDI DISTT. SOLAN, PIN CODE 174103 (H.P)"
273,HIMACHAL PRADESH,SHIMLA,BELLS INSTITUTE OF MANAGEMENT & TECHNOLOGY GROUP OF INSTITUTIONS,"KNOWLEDGE CITY, MEHLI, SHIMLA-09"
274,HIMACHAL PRADESH,SHIMLA,ATAL BIHARI VAJPAYEE GOVT. INSTITUTE OF ENGINEERING & TECHNOLOGY ( DEGREE PROGRAMME),"ATAL BIHARI VAJPAYEE GOVT. INSTITUTE OF ENGINEERING & TECHNOLOGY ( DEGREE PROGRAMME), PRAGATINAGAR"
275,HIMACHAL PRADESH,KANGRA,RAJIV GANDHI GOVT. ENGG. COLLEGE KANGRA AT NAGROTA KANGRA,"RAJIV GANDHI GOVT. ENGG. COLLEGE KANGRA VILLAGE - MASSAL, TEHSIL NAGROTA BAGWAN"
276,JAMMU AND KASHMIR,JAMMU,MAHANT BACHITTAR SINGH COLLEGE OF ENGENEERING & TECHONOLOGY,JEVAN NAGAR BABLIANA
277,JAMMU AND KASHMIR,JAMMU,"GOVT. COLLEGE OF ENGINEERING & TECHNOLOGY, JAMMU","CHAK BHALWAL, JAMMU"
278,JAMMU AND KASHMIR,JAMMU,MODEL INSTITUTE OF ENGINEERING AND TECHNOLOGY,"KOT BHALWAL, JAMMU 181122 JAMMU AND KASHMIR"
279,JAMMU AND KASHMIR,PULWAMA,ISLAMIC UNIVERSITY OF SCIENCE AND TECHNOLOGY,ONE UNIVERSITY AVENUE AWANTIPORA PULWAMA KASHMIR
280,JAMMU AND KASHMIR,BARAMULLA,SSM COLLEGE OF ENGINEERING,"DIVAR,PARIHASPORA,PATTAN,BARAMULLA KASHMIR 193121"
281,JAMMU AND KASHMIR,SAMBA,BHARGAVA COLLEGE OF ENGINEERING AND TECHNOLOGY,LANGATH
282,JAMMU AND KASHMIR,REASI,SHRI MATA VAISHNO DEVI UNIVERSITY,"SUB POST OFFICE, KATRA 182320, DIST.REASI, JAMMU AND KASHMIR"
283,JAMMU AND KASHMIR,RAJAURI,"COLLEGE OF ENGINEERING & TECHNOLOGY, BGSB UNIVERSITY, RAJOURI, J&K",COLLEGE OF ENGINEERING & TECHNOLOGY BABA GHULAM SHAH BADSHAH UNIVERSITY RAJOURI J&K
284,JAMMU AND KASHMIR,JAMMU,YOGANANDA COLLEGE OF ENGINEERING & TECHNOLOGY,"GURHA BRAHMANA (PATOLI), AKHNOOR ROAD, JAMMU (J&K)"
285,JARKHAND,HAZARIBAG,UNIVERSITY COLLEGE OF ENGINEERING AND TECHNOLOGY (UCET),"UCET, VINOBA BHAVE UNIVERSITY, RANCHI - PATNA ROAD, NH - 33"
286,JARKHAND,RAMGARH,TECHNO INDIA RAMGARH,"RAMGARH, JHARKHAND"
287,JARKHAND,DHANBAD,K.K. COLLEGE OF ENGINEERING & MANAGEMENT,VILLAGE+AT: NAIRO POST OFF:-BAGSUMA THANA: GOVINDPUR DIST:-DHANBAD PIN: 828109 JHARKHAND
288,JARKHAND,PALAMU,DAV INSTITUTE OF ENGINEERING & TECHNOLOGY,"BETLA ROAD, P.O. POLPOL, MEDININAGAR (DALTONGANJ), DIST - PALAMAU, (JHARKHAND)"
289,JARKHAND,RANCHI,CAMBRIDGE INSTITUTE OF TECHNOLOGY,"CAMBRIDGE VILLAGE, TATISILWAI, RANCHI -835103"
290,JARKHAND,DUMKA,TECHNO INDIA DUMKA,"DUMKA,"
291,JARKHAND,DEOGHAR,"BIRLA INSTITUTE OF TECHNOLOGY,MESRA ,OFF CAMPUS DEOGHAR","BIT EXTENSION CENTRE DEO`GHAR, POST:JASIDIH DIST:DEOGHAR JHARKHAND 814142"
292,JARKHAND,KODERMA,RAMGOVIND INSTITUTE OF TECHNOLOGY,"MAHUVAN', MAHAUTANAR, P.O. KARMA, JHUMRI TILLAIYA, KODARMA,"
293,JARKHAND,EAST SINGHABHUM,MARYLAND INSTITUTE OF TECHNOLOGY AND MANAGEMENT,"VILLAGE CHARINDA / JORISA, GALUDIH"
294,JARKHAND,EAST SINGHABHUM,B.A.COLLEGE OF ENGINEERING & TECHNOLOGY,"VILLAGE : GHUTIA, TALUK : GHATSHILA, BARAKHURSI, VIA - MAHULIA DISTRICT : EAST SINGHBHUM"
295,JARKHAND,PALAMU,RAMCHANDRA CHANDRAVANSI INSTITUTE OF TECHNOLOGY,AT. NAWADIH P.O BISHRAMPUR P.S. BISHRAMPUR DISTT. PALAMU
296,JARKHAND,BOKARO,GURU GOBIND SINGH EDUCATIONAL SOCIETY'S TECHNICAL CAMPUS,KANDRA(V)
297,JARKHAND,RANCHI,RTC INSTITUTE OF TECHNOLOGY,"ANANADI, ORMANJHI, RANCHI"
298,JARKHAND,DHANBAD,B I T SINDRI,PO -SINDRI INSTITUTE
299,JARKHAND,WEST SINGHBHUM,TECHNO INDIA CHAIBASA,"JHIKPANI,CHAIBASA,JHARKHAND, EAST SINGHABHUM"
300,JARKHAND,EAST SINGHABHUM,R. V. S. COLLEGE OF ENGINEERING & TECHNOLOGY,EDALBERA BHILAI PAHARI NH 33
301,KARNATAKA,RAMANAGARA,AMRUTA INSTITUTE OF ENGINEERING AND MANAGEMENT SCIENCES,"BIDADI INDUSTRIAL AREA, OFF MYSORE ROAD, NEAR TOYOTA KIRLOSKAR MOTORS, BMRDA REGION, BANGALORE"
302,KARNATAKA,TUMKUR,KALPATARU INSTITUTE OF TECHNOLOGY,"KALPATARU INSTITUTE OF TECHNOLOGY, B.H.ROAD, HASSAN CIRCLE, TIPTUR-572202"
303,KARNATAKA,BANGALORE URBAN,THE OXFORD COLLEGE OF ENGINEERING,"HOSUR ROAD, BOMMANAHALLI,"
304,KARNATAKA,BANGALORE URBAN,BASAVA ACADEMY OF ENGINEERING,"NO: 161 / 64, GANGONDANAHALLI MAIN ROAD, NAGASANDRA POST NEAR PEENYA DASARAHALLI, BANGALORE - 560 073."
305,KARNATAKA,BANGALORE RURAL,VIVEKANANDA INSTITUTE OF TECHNOLOGY,GUDIMAVU VILLAGE KENGERI(HOBLI) NEAR KUMBALAGODU BANGALORE
306,KARNATAKA,BANGALORE URBAN,MVJ COLLEGE OF ENGINEERING,"NEAR ITPB, CHANNASANDRA, KADUGODI POST, BANGALORE"
307,KARNATAKA,BANGALORE URBAN,JSS ACADEMY OF TECHNICAL EDUCATION,JSSATE CAMPUS UTTARAHALLI-KENGERI ROAD BANGALORE 560060 KARNATAKA
308,KARNATAKA,BANGALORE URBAN,RAJARAJESWARI COLLEGE OF ENGINEERING,"#14, RAMOHOLLI CROSS, KUMBALGODU, MYSORE ROAD,BANGALORE - 560074"
309,KARNATAKA,MANDYA,GOVERNMENT ENGINEERING COLLEGE,"GOVERNMENT ENGINEERING COLLEGE, KRISHNARAJPET, MANDYA DIST. - 571 426, KARNATAKA"
310,KARNATAKA,BELGAUM,"KLE DR. M. S. SHESHGIRI COLLEGE OF ENGINEERING AND TECHNOLOGY, BELGAUM","UDYAMBAGH, BELGAUM"
311,KARNATAKA,BIJAPUR,"B.L.D.E.A'S V.P DR P.G.HALAKATTI COLLEGE OF ENGG. & TECH., BIJAPUR-03","ASHRAM ROAD, BIJAPUR - 586103"
312,KARNATAKA,BANGALORE URBAN,PNS INSTITUTE OF TECHNOLOGY,"94/1, DANOJI PALYA, ARISHNAKUNTE, TUMKUR ROAD, NELAMANGALA, BANGALORE- 562123"
313,KARNATAKA,BANGALORE RURAL,ALPHA COLLEGE OF ENGINEERING,"DODDAGUBBI POST, HENNUR-BAGALUR ROAD, BANGALORE-560077."
314,KARNATAKA,HASSAN,"GOVT. ENGINEERING COLLEGE, HASSAN","DAIRY CIRCLE, B M ROAD, HASSAN"
315,KARNATAKA,UDUPI,MOODLAKATTE INSTITUTE OF TECHNOLOGY,"MOODLAKATTE, KUNDAPURA TALUK, UDUPI DISTRICT, KARNATAKA - 576 217."
316,KARNATAKA,DAKSHINA KANNADA,K.V.G.COLLEGE OF ENGINEERING,"KURUNJIBHAG, SULLIA TALUK, DAKSHINA KANNADA DISTRICT, KARNATAKA STATE. - 574327"
317,KARNATAKA,BIDAR,BASAVAKALYAN ENGINEERING COLLEGE,N.H.9 BASAVAKALYAN-585327 DIST. BIDAR KARNATAKA
318,KARNATAKA,GADAG,TONTADARYA COLLEGE OF ENGINEERING,MUNDARAGI ROAD GADAG - 582101
319,KARNATAKA,BANGALORE URBAN,IMPACT COLLEGE OF ENGINEERING AND APPLIED SCIENCES,KODIGEHALLI SAHAKARANAGAR SOUTH BANGALORE
320,KARNATAKA,BELGAUM,KLE'S KLE COLLEGE OF ENGINEERING AND TECHNOLOGY,"KLE'S KLE COLLEGE OF ENGINEERING AND TECHNOLOGY,BANANTIKODI ROAD CHIKODI,BELGAUM DISTRICT-591 201,KARNATAKA"
321,KARNATAKA,BANGALORE URBAN,R. R. INSTITUTE OF TECHNOLOGY,"NO. 67, RAJA REDDY LAYOUT, NEAR CHIKKABANAVARA RAILWAY STATION, CHIKKABANAVARA BANGALORE - 560090 KARNATAKA INDIA"
322,KARNATAKA,BANGALORE URBAN,SAMBHRAM INSTITUTE OF TECHNOLOGY,"AMBABHAVANI TEMPLE ROAD M.S.PALYA, JALAHALLI EAST VIDYARANYAPURA POST"
323,KARNATAKA,BANGALORE URBAN,NEW HORIZON COLLEGE OF ENGINEERING (E&T),"RING ROAD, NEAR MARATHALLI, BELLANDUR POST, KADUBHISANAHALLI"
324,KARNATAKA,DAKSHINA KANNADA,SHREE DEVI INSTITUTE OF TECHNOLOGY,"AIRPORT ROAD, KENJAR VILLAGE MALAVOOR PANCHAYAT DAKSHINA KANNADA"
325,KARNATAKA,BANGALORE URBAN,A.M.C. ENGINEERING COLLEGE,"18KM,BANNERAGHATTA ROAD,KALKERE,BANGALORE-560083"
326,KARNATAKA,BANGALORE URBAN,SRI REVANA SIDDESHWARA INSTITUTE OF TECHNOLOGY,"CHOKKANAHALLI, CHIKKAJALA,BANGALORE NORTH - 562157"
327,KARNATAKA,CHITRADURGA,S J M INSTITUTE OF TECHNOLOGY,"P B NO 73, NH -4 BYE PASS, CHITRADURGA"
328,KARNATAKA,BIDAR,LINGARAJAPPA ENGINEERING COLLEGE,"SURVEY NO. 25/1, GORNALLI ,BIDAR,KARNATAKA"
329,KARNATAKA,YADGIR,VEERAPPA NISTY ENGNINEERING COLLEGE,"POST:HASNAPUR, TQ:SHORAPUR, DIST: YADGIR"
330,KARNATAKA,GADAG,"R.T.E.SOCIETY'S, RURAL ENGINEERING COLLEGE, HULKOTI","R.T.E.SOCIETY'S, RURAL ENGINEERING COLLEGE, HULKOTI -582 205 TAQ / DIST:GADAG STATE: KARNATAKA COUNTRY: INDIA"
331,KARNATAKA,BANGALORE URBAN,EAST WEST INSTITUTE OF TECHNOLOGY,"SY. NO.63, OFF MAGADI MAIN ROAD, VISHWANEEDAM POST"
332,KARNATAKA,BAGALKOT,B V V SANGHA'S BASAVESHWAR ENGINEERING COLLEGE BAGALKOT,NIJALINGAPPA ROAD BAGALKOT 587102
333,KARNATAKA,BANGALORE RURAL,ADARSHA INSTITUTE OF TECHNOLOGY,"SURVEY NO. 73, LINGADHEERA GOLLAHALLI, KUNDANA POST, DEVANAHALLI TALUK"
334,KARNATAKA,DAKSHINA KANNADA,CANARA ENGINEERING COLLEGE,"BENJANAPADAVU, BANTWAL PIN 574219 DAKSHINA KANNADA DIST, KARNATAKA STATE"
335,KARNATAKA,HASSAN,NDRK INSTITUTE OF TECHNOLOGY,"P.B.NO. 55, NH-48, KIADB INDUSTRIAL AREA, THIMMANAHALLY, HASSAN-573201"
336,KARNATAKA,BANGALORE URBAN,"ISLAMIAH INSTITUE OF TECHNOLOGY, BANGALORE","NATIONAL PARK ROAD, OPP MEENAKASHI TEMPLE"
337,KERALA,PALAKKAD,AHALIA SCHOOL OF ENGINEERING & TECHNOLOGY,KOZHIPPARA(PO) PALAKKAD
338,KERALA,THRISSUR,FOCUS INSTITUTE OF SCIENCE & TECHNOLOGY,"POOMALA, THRISSUR - 680581"
339,KERALA,THIRUVANANTHAPURAM,SREE CHITRA THIRUNAL COLLEGE OF ENGINEERING,PAPPANAMCODE THIRUVANANTHAPURAM
340,KERALA,KANNUR,"COLLEGE OF ENGINEERING, THALASSERY","COLLEGE OF ENGINEERING - THALASSERY, KUNDOORMALA, ERANHOLI, THALASSERY"
341,KERALA,ERNAKULAM,FEDERAL INSTITUTE OF SCIENCE AND TECHNOLOGY (FISAT),"HORMIS NAGAR, MOOKKANNOOR P.O, ANGAMALY"
342,KERALA,KOZHIKODE,KMCT COLLEGE OF ENGINEERING,"KMCT COLLEGE OF ENGINEERING KALANTHODE, MANASSERY POST MUKKAM (VIA) KOZHIKODE KERALA PIN:673602"
343,KERALA,THIRUVANANTHAPURAM,"GOVT. ENGINEERING COLLEGE, BARTON HILL","BARTON HILL, VANCHIYOOR P.O., TRIVANDRUM - 695035"
344,KERALA,ERNAKULAM,MAR BASELIOS INSTITUTE OF TECHNOLOGY AND SCIENCE,"NELLIMATTOM P.O. KOTHAMANGALAM, ERNAKULAM DISTRICT., KERALA - 686693"
345,KERALA,THIRUVANANTHAPURAM,"COLLEGE OF ENGINEERING, ATTINGAL","COLLEGE OF ENGINEERING, ATTINGAL ATTINGAL P.O. PINCODE 695101, TRIVANDRUM, KERALA"
346,KERALA,ALAPPUZHA,COLLEGE OF ENGINEERING CHENGANNUR,"CHENGANNUR, ALAPPUZHA DIST., KERALA - 689 121"
347,KERALA,THRISSUR,MALABAR COLLEGE OF ENGINEERING AND TECHNOLOGY,"DESAMANGALAM, PALLUR.P.O., CHERUTHURUTHY (VIA), THRISSUR (DIST), KERALA, 679 532"
348,KERALA,IDUKKI,COLLEGE OF ENGINEERING MUNNAR,P.B.NO.45 COUNTY HILLS MUNNAR
349,KERALA,IDUKKI,MAR BASELIOS CHRISTIAN COLLEGE OF ENGINEERING & TECHNOLOGY,"PALLIKKUNNU P.O KUTTIKKANAM, PEERMADE IDUKKI DIST. KERALA PIN- 685 531"
350,KERALA,ALAPPUZHA,ST.THOMAS COLLEGE OF ENGINEERING & TECHNOLOGY,"KOZHUVALOOR P.O, VENMONEY, CHENGANNUR, ALAPPUZHA (DIST.), KERALA, PIN : 689 521"
351,KERALA,THIRUVANANTHAPURAM,PANKAJAKASTHURI COLLEGE OF ENGINEERING AND TECHNOLOGY,PANKAJAKASTHURI COLLEGE OF ENGINEERING AND TECHNOLOGY KANDALA THIRUVANANTHAPURAM
352,KERALA,ERNAKULAM,SCMS SCHOOL OF ENGINEERING & TECHNOLOGY,"VIDYA NAGAR, PALISSERY, KARUKUTTY"
353,KERALA,THIRUVANANTHAPURAM,ST THOMAS INSTITUTE FOR SCIENCE AND TECHNOLOGY,"MAR CHRYSOSTOM NAGAR, KATTAIKONAM P O"
354,KERALA,ERNAKULAM,BASELIOS THOMAS I CATHOLICOSE COLLEGE OF ENGINEERING & TECHNOLEGY,"SYRIAN PARK, KOOTHATTUKULAM, ERNAKULAM, KOCHI"
355,KERALA,PATHANAMTHITTA,"COLLEGE OF ENGINEERING,ARANMULA",ARANMULA P.O PATHANAMTHITTA PIN 689533
356,KERALA,KOLLAM,"COLLEGE OF ENGINEERING, PATHANAPURAM","ELIKATTOOR P.O., PIRAVANTHOOR KOLLAM - 689 696"
357,KERALA,THRISSUR,UNIVERSAL ENGINEERING COLLEGE,"PAINGODE, PO. VALLIVATTOM, VIA. KONATHAKUNNU, THRISSUR DT, KERALA, INDIA."
358,KERALA,PALAKKAD,AMMINI COLLEGE OF ENGINEERING,KANNAMPARIYARAM POST MANKARA
359,KERALA,KOTTAYAM,TOMS COLLEGE OF ENGINEERING FOR STARTUPS,"MATTAKARA P.O., KOTTAYAM, KERALA, PIN - 686564"
360,KERALA,KANNUR,ST.THOMAS COLLEGE OF ENGINEERING & TECHNOLOGY,"SIVAPURAM P.O, MATTANNUR (VIA), KANNUR"
361,KERALA,KOTTAYAM,AMAL JYOTHI COLLEGE OF ENGINEERING,KOOVAPPALLY P.O KOTTAYAM DISTRICT KERALA - 686 518
362,KERALA,KOZHIKODE,"COLLEGE OF ENGINEERING, VADAKARA",MANDARATHUR PO VADAKARA KOZHIKODE KERALA PIN: 673105
363,KERALA,KOTTAYAM,GURUDEVA INSTITUTE OF SCIENCE AND TECHNOLOGY,"VENNIMALA, PAYYAPPADY P O, PUTHUPPALLY, KOTTAYAM - 686034, KERALA"
364,KERALA,IDUKKI,GOVERNMENT ENGINEERING COLLEGE IDUKKI,PAINAVU PO IDUKKI DISTRICT KERALA INDIA
365,KERALA,ERNAKULAM,ADI SHANKARA INSTITUTE OF ENGINEERING AND TECHNOLOGY,"SANKAR NAGAR, MATTOOR,KALADY, ERNAKULAM, KERALA"
366,KERALA,PALAKKAD,GOVERNMENT ENGINEERING COLLEGE SREEKRISHNAPURAM,"GOVERNMENT ENGINEERING COLLEGE SREEKRISHNAPURAM PALAKKAD, MANNAMPATTA P.O, PALAKKAD DIST, KERALA-678633"
367,KERALA,KOTTAYAM,MANGALAM COLLEGE OF ENGINEERING,MANGALAM HILLS VETTIMUKAL .P.O ETTUMANOOR
368,KERALA,THIRUVANANTHAPURAM,LBS INSTITUTE OF TECHNOLOGY FOR WOMEN,"POOJAPPURA. P. O, THIRUVANANTHAPURAM, KERALA - 695012"
369,KERALA,ERNAKULAM,KMEA ENGINEERING COLLEGE,KUZHIVELIPADY EDATHALA.P.O ALUVA ERNAKULAM (DIST) KERALA.683561
370,KERALA,THIRUVANANTHAPURAM,LOURDES MATHA COLLEGE OF SCIENCE AND TECHNOLOGY,"KUTTICHAL P O, TRIVANDRUM KERALA PIN 695 574"
371,KERALA,ERNAKULAM,JAIBHARATH COLLEGE OF MANAGEMENT & ENGINEERING TECHNOLOGY,ARACKAPADY VENGOLA P O PERUMBAVOOR ERNAKULAM DT
372,KERALA,PATHANAMTHITTA,SREE NARAYANA INSTITUTE OF TECHNOLOGY,"THEPPUPARA, EZHAMKULAM"
373,KERALA,THRISSUR,SAHRDAYA COLLEGE OF ENGINEERING & TECHNOLOGY,PB NO. 17 KODAKARA THRISSUR KERALA - 680 684
374,KERALA,THIRUVANANTHAPURAM,COLLEGE OF ENGINEERING MUTTATHARA,"ST:SEBASTIAN CHURCH ROAD,VALLAKADAVU. P. O,THIRUVANANTHAPURAM"
375,MADHYA PRADESH,BHOPAL,JAI NARAIN COLLEGE OF TECHNOLOGY & SCIENCE,"NEW CHOUKSEY NAGAR, LAMBAKHEDA,BERASIA ROAD, BHOPAL"
376,MADHYA PRADESH,BHOPAL,ALL SAINTS' COLLEGE OF ENGINEERING,"NEW PIPALNAIR, NEARGANDHI NAGAR-462031"
377,MADHYA PRADESH,BHOPAL,RKDF COLLEGE OF TECHNOLOGY,"NH-12,HOSHANGABAD ROAD JATKHEDI,BHOPAL"
378,MADHYA PRADESH,BHOPAL,SAGAR INSTITUTE OF RESEARCH TECHNOLOGY AND SCIENCE,"NEAR ISRO, AYODHYA NAGAR, BHOPAL."
379,MADHYA PRADESH,BHOPAL,RKDF INSTITUTE OF SCIENCE & TECHNOLOGY,"NH-12, HOSHANGABAD ROAD MISROD ,BHOPAL"
380,MADHYA PRADESH,BHOPAL,ORIENTAL INSTITUTE OF SCIENCE & TECHNOLOGY,"THAKRAL NAGAR, RAISEN ROAD, BHOPAL"
381,MADHYA PRADESH,BURHANPUR,THAKUR SHIVKUMARSINGH MEMORIAL ENGINEERING COLLEGE,NAVALNAGAR ZIRI
382,MADHYA PRADESH,BHOPAL,MILLENNIUM INSTITUTE OF TECHNOLOGY,"NATHU BARKHERA ROAD, NEAR NEELBAD, BHOPAL"
383,MADHYA PRADESH,BHOPAL,TECHNOCRATS INSTITUE OF TECHNOLOGY & SCIENCE,"IN FRONT OF HATHAIKHEDA DAM, POST PIPLANI, P.B.NO-24,BHEL"
384,MADHYA PRADESH,BHOPAL,"BHABHA COLLEGE OF ENGINEERING, BHOPAL","NEAR RGPV CAMPUS, AIRPORT BYPASS ROAD, GONDERMAU, GANDHINAGAR, BHOPAL"
385,MADHYA PRADESH,BHOPAL,CORPORATE INSTITUTE OF SCIENCE & TECHNOLOGY,"HATAIKHEDA, NEAR PATEL NAGAR, RAISEN ROAD"
386,MADHYA PRADESH,GUNA,SAKSHI INSTITUTE OF TECHNOLOGY AND MANAGEMENT,"VILLAGE MYANA, A.B. ROAD"
387,MADHYA PRADESH,BHOPAL,IASSCOM FORTUNE INSTITUTE OF TECHNOLOGY,GRAM RASULIA GOSAI RATIBAD SIKANDARABAD ROAD BHOPAL
388,MADHYA PRADESH,BHOPAL,TECHNOCRATS INSTITUTE OF TECHNOLOGY (EXCELLENCE),"INFRONT OF HATHAIKHEDA DAM, POST PIPLANI, P.B. NO.-24, BHEL"
389,MADHYA PRADESH,GWALIOR,BVM COLLEGE OF TECHNOLOGY & MANAGEMENT,"SHIVPURI LINK ROAD, GWALIOR (M.P.)"
390,MADHYA PRADESH,BHOPAL,SRI SATYA SAI COLLEGE OF ENGINEERING,"NEAR RGPV CAMPUS AIRPORT BY-PASS ROAD, GONDERMAU, GANDHINAGAR, BHOPAL"
391,MADHYA PRADESH,INDORE,VIDYASAGAR INSTITUTE OF TECHNOLOGY,"GARIPIPLIYA, AATH MEEL, NEMAWAR ROAD, INDORE"
392,MADHYA PRADESH,INDORE,VINDHYA INSTITUTE OF TECHNOLOGY AND SC,UMRIKHEDA KHANDWA ROAD INDORE
393,MADHYA PRADESH,JABALPUR,GYAN GANGA COLLEGE OF TECHNOLOGY,"P.O. TILWARA GHAT, GARHA NEAR SHAH NALA, TRIPURI WARD, JABALPUR 482003 MADHYA PRADESH"
394,MADHYA PRADESH,JABALPUR,GYAN GANGA INSTITUTE OF TECHNOLOGY & SCIENCES,"P.O: TILWARA GHAT, GARHA, NEAR SHAH NALA, TRIPURI WARD, JABALPUR, MADHYA PRADESH-482003"
395,MADHYA PRADESH,GWALIOR,IPS COLLEGE OF TECHNOLOGY & MANAGEMENT,"BELA KI BAWADI TIRAHA, SHIVPURI LINK ROAD, GWALIOR- (M.P.) PIN CODE: 474001"
396,MADHYA PRADESH,DATIA,"NAGAJI INSTITUTE OF TECHNOLOGY & MANAGEMENT, DATIA","SHEODA ROAD, DATIA (M.P.)"
397,MADHYA PRADESH,BHOPAL,SCHOOL OF RESEARCH & TECHNOLOGY,"PEOPLE'S CAMPUS, BHANPUR ROAD BHOPAL"
398,MADHYA PRADESH,GWALIOR,ITM UNIVERSITY - GWALIOR (SCHOOL OF ENGINEERING & TECHNOLOGY),"ITM UNIVERSITY CAMPUS, NH-75, JHANSI ROAD,"
399,MADHYA PRADESH,JABALPUR,RADHASWAMI INSTITUTE OF TECHNOLOGY,"VILL AINTHAKHEDA, CHARGAWAN ROAD,POST-TILWARA, JABALPUR-482003"
400,MADHYA PRADESH,JABALPUR,SHRI RAWATPURA SARKAR INSTITUTE OF TECHNOLOGY,"NEAR BHEDAGHAT CROSSING, NH-12 JABALPUR-BHOPAL ROAD, JABALPUR"
401,MADHYA PRADESH,BHOPAL,RADHARAMAN INSTITUTE OF TECHNOLOGY AND SCIENCE,"BHADBHDA ROAD, FATEHPUR DOBRA, RATIBAD"
402,MADHYA PRADESH,RAISEN,VAISHNAVI INSTITUTES OF TECHNOLOGY AND SCIENCE,"VILLAGE MENDUA,TEHSIL GOUHARGANJ"
403,MAHARASHTRA,AHMEDNAGAR,G.H.RAISONI COLLEGE OF ENGINEERING AND MANAGEMENT,"GAT NO.1030, NAGAR PUNE HIGHWAY, CHAS, AHMEDNAGAR."
404,MAHARASHTRA,SOLAPUR,COLLEGE OF ENGINEERING VAIRAG,AT/P- SASURE- VAIRAG ON SOLAPUR BARSHI STATE HIGHWAY TAL-BARSHI DIST-SOLAPUR PIN-413 402 MAHARASHTRA
405,MAHARASHTRA,NAGPUR,LAXMINARAYAN INSTITUTE OF TECHNOLOGY,"OPP. BHARAT NAGAR, AMRAVATI ROAD"
406,MAHARASHTRA,AURANGABAD,INTERNATIONAL CENTRE OF EXCELLENCE IN ENGINEERING & MANAGEMENT,"GUT NO- 4, OPPOSIT BAJAJ AUTO LTD. ,IN FRONT OF MIDC FILTERATION PLANT AURANGABAD - PUNE HIGHWAY,"
407,MAHARASHTRA,SOLAPUR,BHAGWANT INSTITUTE OF TECHNOLOGY,"GAT NUMBER  1239/4/2,1240/4/2,1242/2, BARSHI,"
408,MAHARASHTRA,RAIGAD,PILLAI HOC COLLEGE OF ENGINEERING AND TECHNOLOGY,"PILLAI'S HOCL EDUCATIONAL CAMPUS, RASAYANI, KHALAPUR, VIA PANVEL, RAIGAD"
409,MAHARASHTRA,PUNE,"GENBA SOPANRAO MOZE TRUST'S PARVATIBAI GENBA MOZE COLLEGE OF ENGINEERING,WAGHOLI, PUNE","GAT NO. 2181, WAGHOLI, TAL. HAVELI, DIST. PUNE"
410,MAHARASHTRA,GONDIA,MANOHARBHAI PATEL INSTITUTE OF ENGINEERING & TECHNOLOGY,"KUDWA, GONDIA 441614 (M.S.)"
411,MAHARASHTRA,MUMBAI CITY,USHA MITTAL INSTITUTE OF TECHNOLOGY,"S.N.D.T WOMEN'S UNIVERSITY, SIR VITHAL DAS VIHAR, SANTACRUZ(W), MUMBAI"
412,MAHARASHTRA,AHMEDNAGAR,VIDYA NIKETAN COLLEGE OF ENGINEERING,"GAT NO. 670, VIDYANAGARI, PUNE- NASHIK ROAD, AT POST- BOTA, TAL-SANGAMNER, DIST- AHMEDNAGAR"
413,MAHARASHTRA,WARDHA,SHRI SHANKARPRASAD AGNIHOTRI COLLEGE OF ENGINEERING,AGNIHOTRI COLLEGE CAMPUS BAPUJI WADI SINDI MEGHE WARDHA
414,MAHARASHTRA,PUNE,"VIDYA PRATISHTHANS KAMALNAYAN BAJAJ INSTITUTE OF ENGINEERING & TECHNOLOGY, BARAMATI","VIDYANAGARI, MIDC (RESI. ZONE), BARAMATI, DIST. PUNE - 413133, MAHARASHTRA STATE, INDIA"
415,MAHARASHTRA,AHMEDNAGAR,SANIVANI RURAL EDUCATION SOCIETY'S SANJIVANI COLLEGE OF ENGINEERING,AT: SAHAJANANDNAGAR POST- SHINGNAPUR TAL:-KOPARGAON DIST: AHMEDANAGR-423 603
416,MAHARASHTRA,WARDHA,DATTA MEGHE INSTITUTE OF ENGINEERING TECHNOLOGY AND RESEARCH,SAWANGI (MEGHE) WARDHA- 442004
417,MAHARASHTRA,PUNE,JAYAWANT SHIKSHAN PRASARAK MANDAL'S IMPERIAL COLLEGE OF ENGINEERING AND RESEARCH,"GAT NO- 720 (1 AND 2) PUNE-NAGAR ROAD, AT POST-WAGHOLI,TALUKA-HAVELI ,DISTRICT-PUNE, PIN-412207"
418,MAHARASHTRA,KOLHAPUR,SANJEEVAN ENGINEERING & TECHNOLOGY INSTITUTE,"SANJEEVAN KNOWLEDGE CITY, SOMWAR PETH, TAL. PANHALA, DIST. KOLHAPUR. PIN 416201"
419,MAHARASHTRA,THANE,B.R. HARNE COLLEGE OF ENGINEERING & TECHNOLOGY,"SURVEY NO. 110/1A, 111/1,, 111/2B, 126/2, VILLAGE - KARAV, NEAR VANGANI STATION, TAH. AMBARNATH, DIST. THANE."
420,MAHARASHTRA,OSMANABAD,SHRI TULJABHAVANI COLLEGE OF ENGINEERING,NALDURG ROAD TULJAPUR - 413 601 DIST- OSMANABAD [MAHARASHTRA STATE]
421,MAHARASHTRA,PUNE,ARMY INSTITUTE OF TECHNOLOGY,"PUNE-ALANDI ROAD, DIGHI HILLS, PUNE 411015"
422,MAHARASHTRA,NASHIK,"JAWAHAR EDUCATION SOCIETY'S INSTITUTE OF TECHNOLOGY, MANAGEMENT AND RESEARCH NASHIK","SURVE NO. 48, GOWARDHAN, GANAGPUR ROAD NASHIK."
423,MAHARASHTRA,SOLAPUR,"NAGESH KARAJAGI ORCHID COLLEGE OF ENGINEERING AND TECHNOLOGY, SOLAPUR.","POST BOX NO. 154, GUT NO. 16, SOLAPUR-TULJAPUR ROAD, TALE HIPPARAGA, SOLAPUR. TAHSIL- NORTH SOLAPUR, DIST. SOLAPUR. PIN CODE- 413 002. MAHARASHTRA"
424,MAHARASHTRA,JALGAON,"SHRI GULABRAO DEOKAR COLLEGE OF ENGINEERING, JALGAON","GAT(SURVEY) NO.56, P.B. NO.113, SHIRSOLI ROAD, JALGAON"
425,MAHARASHTRA,NASHIK,KALYANI CHARITABLE TRUST'S LATE G.N.SAPKAL COLLEGE OF ENGINEERING,"SAPKAL KNOWLEDGE HUB,KALYANI HILLS, ANJANERI-WADHOLI,TAL.TRIMBAKESHWAR,DIST.NASHIK (M.S.) PIN-422 212"
426,MAHARASHTRA,SANGLI,"SHIVGANGA CHARITABLE TRUST, SANGLI'S VISHVESHWARYA TECHNICAL CAMPUS, FACULTY OF DEGREE ENGINEERING,","AT / POST- PATGAON, MIRAJ-PANDHARPUR ROAD,"
427,MAHARASHTRA,NASHIK,NASHIK DISTRICT MARATHA VIDYA PRASARAK SAMAJ'S KARMAVEER BABURAO GANPATRAO THAKARE COLLEGE OF ENGIN,"UDOJI MARATHA BOARDING CAMPUS, NEAR PUMPING STATION, GANGAPUR ROAD, NASHIK-422013, MAHARASHTRA"
428,MAHARASHTRA,AKOLA,COLLEGE OF ENGINEERING & TECHNOLOGY,"N.H.NO 6, BABHULGAON, AKOLA"
429,MAHARASHTRA,OSMANABAD,"K.T.PATIL COLLEGE OF ENGINEEGING & TECHNOLOGY , OSMANABAD","JADHAVWADI ROAD ,OSMANABAD"
430,MAHARASHTRA,NAGPUR,RAJIV GANDHI COLLEGE OF ENGINEERING AND RESEARCH,"WANADONGRI, HINGNA ROAD, NAGPUR"
431,MAHARASHTRA,NANDED,SHRI GURU GOBIND SINGHJI INSTITUTE OF ENGINEERING AND TECHNOLOGY,VISHNUPURI
432,MAHARASHTRA,BEED,ADITYA ENGINEERING COLLEGE,TELGAON ROAD BEED
433,MAHARASHTRA,AMRAVATI,"DR.RAJENDRA GODE INSTITUTE OF TECHNOLOGY AND RESEARCH,AMRAVATI","UNIVERSITY MARDI ROAD, OPP.HEART HOSPITAL,AMRAVATI"
434,MAHARASHTRA,AURANGABAD,MARATHWADA INSTITUTE OF TECHNOLOGY,"BEED BYPASS, AURANGABAD"
435,MAHARASHTRA,NAGPUR,NUVA COLLEGE OF ENGINEERING & TECHNOLOGY,"NAGPUR KATOL HIGHWAY, KHAPRI (KOTHE), TAH. KALMESHWAR, DIST. NAGPUR"
436,MAHARASHTRA,KOLHAPUR,SHRI BALASAHEB MANE SHIKSHAN PRASARAK MANDAL'S ASHOKRAO MANE GROUP OF INSTITUTIONS,"NH4, PUNE-BENGALURU HIGHWAY, VATHAR TARF VADGAON"
437,MAHARASHTRA,PUNE,D. Y. PATIL SCHOOL OF ENGINEERING ACADEMY,"SR. NO. 124 & 126, A/P AMBI, TALEGAON DABHADE, TQ. MAVAL, DIST. PUNE"
438,MAHARASHTRA,SATARA,"SATARA COLLEGE OF ENGINEERING & MANAGEMENT LIMB,SATARA","SURVEY NO. 989KA1/990, NH4, A/P-LIMB, T/D- SATARA"
439,MAHARASHTRA,NASHIK,MET'S INSTITUTE OF ENGINEERING,"BHUJBAL KNOWLEDGE CITY, ADGAON"
440,MAHARASHTRA,PUNE,KEYSTONE SCHOOL OF ENGINEERING,"SR. NO. 305/7, 306, 307/5 & 308/21 URULI DEVACHI, PUNE - 412308"
441,MAHARASHTRA,WASHIM,PRATAP INSTITUTE OF MANAGEMENT AND TECHNOLOGY,"MOUJA WALKI ( JAHANGIR ), RISOD ROAD"
442,MAHARASHTRA,PUNE,JAIHIND COLLEGE OF ENGINEERING,"G. NO. 441, KURAN, TAL. JUNNAR, DIST. PUNE"
443,MAHARASHTRA,RAIGAD,DR BABASAHEB AMBEDKAR TECHNOLOGICAL UNIVERSITY LONERE,DR BABASAHEB AMBEDKAR TECHNOLOGICAL UNIVERSITY LONERE
444,MAHARASHTRA,PUNE,DR. D. Y. PATIL INSTITUTE OF TECHNOLOGY.,"OPPOSITE HINDUSTAN ANTIBIOTICS FACTORY, SANT TUKARAM NAGAR, PIMPRI, PUNE. (MAHARASHTRA) PIN-411018"
445,MAHARASHTRA,MUMBAI SUBURBAN,ANJUMAN-I-ISLAM'S KALSEKAR TECHNICAL CAMPUS,"PLOT NOS. 2 & 3, SECTOR 16, KHANDAGAON, NEAR THANA NAKA"
446,MAHARASHTRA,MUMBAI CITY,BHARATIYA VIDYA BHAVANS SARDAR PATEL INSTITUTE OF TECHNOLOGY,"BHAVANS CAMPUS, MUNSHI NAGAR, ANDHERI WEST MUMBAI"
447,MAHARASHTRA,NAGPUR,"PRIYADARSHINI INSTITUTE OF ENGINEERING AND TECHNOLOGY,NAGPUR.","KHASRA NO 1/1 A, 1909/12C NEAR CRPF CAMPUS , MOUZA SHIVANGAON, NAGPUR"
448,MAHARASHTRA,RAIGAD,"KONKAN GYANPEETH COLLEGE OF ENGINEERING, KARJAT","VENGAON ROAD, DAHIVALI, TALUKA - KARJAT, DISTRICT - RAIGAD, MAHARASHTRA (INDIA) PIN - 410201"
449,MAHARASHTRA,NAGPUR,"G. H. RAISONI COLLEGE OF ENGINEERING, NAGPUR.","CRPF GATE NO.3, DIGDOH HILLS, MIDC AREA, HINGNA ROAD, NAGPUR"
450,MAHARASHTRA,YAVATMAL,DR. BHAUSAHEB NANDURKAR COLLEGE OF ENGG.,SHRI SATYA SAI KRIDA NAGARI WAGHAPUR ROAD YAVATMAL-445001.
451,MAHARASHTRA,OSMANABAD,V. J. SHINDE COLLEGE OF ENGINEERING,"GAT NO. 738, WARUDA ROAD, OSMANABAD."
452,MAHARASHTRA,HINGOLI,KHURANA SAWANT INSTITUTE OF ENGINEERING & TECHNOLOGY,"BALSOND, HINGOLI TQ. & DIST. HINGOLI-431513 (M.S.)"
453,MAHARASHTRA,THANE,VISHWATMAK OM GURUDEV COLLEGE OF ENGINEERING,"AATGAON ,TANSA - AGHAI ROAD,"
454,MAHARASHTRA,RATNAGIRI,VPM'S MAHARSHI PARSHURAM COLLEGE OF ENGINEERING,"AT.POST. VELNESHWAR, HEDVAI - PALSHET ROAD"
455,MAHARASHTRA,RAIGAD,G V ACHARYA INSTITUTE OF ENGINEERING AND TECHNOLOGY,"VERACHARYA TECHNICAL EDUCATION CAMPUS, OPP. SHELU SUBURBAN RAILWAY STATION, SHELU/DAMAT,"
456,MAHARASHTRA,MUMBAI CITY,ANJUMAN-I-ISLAM'S M. H. SABOO SIDDIK COLLEGE OF ENGINEERING,"8, SABOO SIDDIK POLYTECHNIC ROAD, BYCULLA, MUMBAI"
457,MAHARASHTRA,NASHIK,"MATOSHRI COLLEGE OF ENGINEERING & RESEARCH CENTRE, NASHIK","EKLAHARE, NEAR ODHA GAON, AURANGABAD HIGHWAY,"
458,MAHARASHTRA,PUNE,INDIRA COLLEGE OF ENGINEERING & MANAGEMENT,"SR. NO. 64 AND 65, GAT NO. 276, AT POST PARANDWADI, TAL- MAVAL, DIST- PUNE. 410506"
459,MAHARASHTRA,SATARA,ARVIND GAVALI COLLEGE OF ENGINEERING,"GAT NO. 247, PANMALEWADI, POST - VARYE,"
460,MAHARASHTRA,SOLAPUR,BHARAT RATNA INDIRA GANDHI COLLEGE OF ENGINEERING,"GAT NO 58/3, PUNE- SOLAPUR NATIONAL HIGHWAY NO. 9, NEAR SOLAPUR UNIVERSITY, KEGAON, SOLAPUR."
461,MAHARASHTRA,PUNE,G.H.RAISONI COLLEGE OF ENGINEERING & MANAGEMENT,"GAT NO.1200, DOMKHEL ROAD, WAGHOLI, PUNE - 412 207"
462,MAHARASHTRA,BEED,M B E SOCIETY'S COLLEGE OF ENGINEERING AMBAJOGAI,"MOREWADI, NEAR YESHWANTRAO CHAVAN CIRCLE, AMBAJOGAI, TQ:AMBAJOGAI, DIST: BEED (MS)-431517"
463,MAHARASHTRA,CHANDRAPUR,BALLARPUR INSTITUTE OF TECHNOLOGY,"MAUJA BAHMNI,RAJURA ROAD, TEHSIL BALLARPUR, DISTICT CHANDRAPUR."
464,MAHARASHTRA,AMRAVATI,PROF RAM MEGHE COLLEGE OF ENGINEERING & MANAGEMENT,"NEW EXPRESS HIGHWAY, BADNERA-AMRAVATI"
465,MAHARASHTRA,JALGAON,J.T. MAHAJAN COLLEGE OF ENGINEERING,"JIVRAMNAGAR, NHAVI-MARG, MSSK, FAIZPUR, TEHSIL - YAWAL, DISTRICT - JALGAON"
466,MAHARASHTRA,AURANGABAD,AURANGABAD COLLEGE OF ENGINEERING,"GAT NO 52, TULJAPUR SHIVAR,"
467,MAHARASHTRA,NAGPUR,GURU NANAK INSTITUTE OF ENGNEERING & TECHNOLOGY,"KHASARA NO 95, MOUZA DAHEGAON, NAGPUR"
468,MAHARASHTRA,AHMEDNAGAR,SHRI CHHATRAPATI SHIVAJI MAHARAJ COLLEGE OF ENGINEERING,"SURVEY NO. 162 & 163, NAGAR KALYAN ROAD,"
469,MAHARASHTRA,JALNA,"MATSYODARI SHIKSHAN SANSTHA'S COLLEGE OF ENGINEERING AND TECHNOLOGY, JALNA","AURANGABAD ROAD, NAGEWADI"
470,MAHARASHTRA,NAGPUR,TULSIRAMJI GAIKWAD-PATIL COLLEGE OF ENGINEERING AND TECHNOLOGY,"KHASARA NO. 8/1, P.S.K. 74, MOHGAON, WARDHA ROAD, NAGPUR"
471,MAHARASHTRA,AKOLA,BHONSLA COLLEGE OF ENGINEERING & REASEARCH,"SURVEY NO. 65, MOUZA - HINGNA BARLINGNA, AKOLA-WASHIM HIGHWAY, TAH. & DIST. AKOLA. (M.S)"
472,MAHARASHTRA,JALGAON,GODAVARI COLLEGE OF ENGINEERING,"PLOT NO. P-51, ADDL MIDC, BHUSAWAL ROAD, DR. ULHAS PATIL NAGAR,"
473,MAHARASHTRA,NAGPUR,G. H. RAISONI INSTITUTE OF ENGINEERING & TECHNOLOGY,"37-39/1, SHRADHA PARK, HARIGANGA, HINGANA - WADI LINK ROAD, NAGPUR-16"
474,MAHARASHTRA,PUNE,"ALL INDIA SHRI SHIVAJI MEMORIAL SOCIETY'S COLLEGE OF ENGINEERING, PUNE-1","KENNEDY ROAD, NEAR RTO, PUNE-411001."
475,MAHARASHTRA,PUNE,COLLEGE OF MILITARY ENGINEERING,"DAPODI, PUNE, MAHARASHTRA STATE"
476,MAHARASHTRA,NASHIK,SF'S SANDIP INSTITUTE OF TECHNOLOGY AND RESEARCH CENTRE,"TRIMBAK ROAD, MAHIRAVANI, NASHIK - 422213, MAHARASHTRA"
477,MAHARASHTRA,PUNE,"MODERN EDUCATION SOCIETY'S COLLEGE OF ENGINEERING, PUNE","WADIA COLLEGE CAMPUS, 19 LATE PRIN V K JOAG PATH, PUNE 411 001"
478,MAHARASHTRA,NASHIK,"SND COLLEGE OF ENGINEERING & RESEARCH CENTER, BABHULGAON",A/P BABHULGAON TAL. YEOLA DIST. NASHIK STATE MAHARASHTRA PIN CODE-423401
479,MAHARASHTRA,PUNE,SUMAN RAMESH TULSIANI TECHNICAL CAMPUS- FACULTY OF ENGINEERING,"GAT NO. 81,82,91,92,94,97,99,101,102 & 106(PART)"
480,MAHARASHTRA,NAGPUR,"S B JAIN INSTITUTE OF TECHNOLOGY, MANAGEMENT AND RESEARCH","BEHIND ASARAM BAPU ASHRAM, GRAM -YERALA, KATOL ROAD, NAGPUR"
481,MAHARASHTRA,PUNE,NBN SINHGAD TECHNICAL INSTITUTES CAMPUS,"10/1 AMBEGAON (BK), TALUKA HAVELI, DIST. PUNE 411041"
482,MAHARASHTRA,THANE,THEEM COLLEGE OF ENGINEERING,"AT VILLAGE BETEGAON, CHILLHAR RAOD, N.H.NO.8,NEAR UNION PARK BOISAR(E) TAL - PALGHAR DIST - THANE"
483,MAHARASHTRA,KOLHAPUR,KITS COLLEGE OF ENGINEERING,"AT POST- GOKUL SHIRGAON, TAL- KARVEER, DIST. KOLHPAUR."
484,MAHARASHTRA,AURANGABAD,EVEREST EDUCATIONAL SOCIETYS GROUP OF INSTITUTIONS,"GUT NO. 187 & 189 OHAR, JATWADA ROAD AURANGABAD"
485,MAHARASHTRA,LATUR,M.S BIDVE ENGINEERING COLLEGE,"P.O BOX NO. 112, VASWADI, BARSHI ROAD, LATUR-413531"
486,MAHARASHTRA,SATARA,YASHODA TECHNICAL CAMPUS SATARA,"S. N. 242/1 AT POST - WADHE, TAL DIST - SATARA"
487,MAHARASHTRA,DHULE,SANJAY EDUCATION SOCIETY'S COLLEGE OF ENGINEERING,"A/P - NAVALNAGAR, TAL & DIST - DHULE, PIN -424318"
488,MAHARASHTRA,MUMBAI SUBURBAN,SHRI VILE PARLE KELAVANI MANDAL'S DWARKADAS J. SANGHVI COLLEGE OF ENGINEERING,"PLOT U/15, BHAKTIVEDANTA SWAMI MARG, J. V. P. D. SCHEME, VILE PARLE (WEST), MUMBAI 400 046"
489,MAHARASHTRA,AHMEDNAGAR,ADSUL'S TECHNICAL CAMPUS,"AT-CHAS, CHAS-NIMBLAK BYPASS ROAD, AHMEDNAGAR"
490,MAHARASHTRA,NAGPUR,"DR. BABASAHEB AMBEDKAR COLLEGE OF ENGINEERING AND RESEARCH,","WANADONGRI, HINGNA ROAD, NAGPUR."
491,MAHARASHTRA,JALGAON,KHANDESH COLLEGE EDUCATION SOCIETY'S COLLEGE OF ENGINEERING & INFORMATION TECHNOLOGY,"CS NO- 7480 /7323 BEHIND DIC , OFF NH-6"
492,MAHARASHTRA,RAIGAD,G. M. VEDAK INSTITUTE OF TECHNOLOGY,"AT POST AND TALUKA TALA, DIST RAIGAD, MAHARASHTRA"
493,MAHARASHTRA,PUNE,VISHWAKARMA INSTITUTE OF INFORMATION TECHNOLOGY,"SURVEY NO. 3/4, KONDHWA (BUDRUK) PUNE -411048"
494,MAHARASHTRA,PUNE,NUTAN MAHARASHTRA INSTITUTE OF ENGINEERING & TECHNOLOGY,"""VISHNUPURI, TALEGAON STATION, TAL : MAVAL, DIST : PUNE - 410507"
495,MAHARASHTRA,THANE,NEW HORIZON INSTITUTE OF TECHNOLOGY & MANAGEMENT,"ANAND NAGAR, KAVESAR, OFF GHODBANDAR ROAD, THANE (WEST) 400615"
496,MAHARASHTRA,KOLHAPUR,"DEPARTMENT OF TECHNOLOGY, SHIVAJI UNIVERSITY, KOLHAPUR","VIDYANAR, KOLHAPUR (MAHARASHTRA STATE)"
497,MAHARASHTRA,LATUR,"BALAGHAT ENGINEERING COLLEGE,RUDDHA","LATUR - NANDED HIGHWAY, RUDHA, AHMEDPUR, TALUKA - AHMEDPUR,DIST-LATUR (M.S.)"
498,MAHARASHTRA,PUNE,FLORA INSTITUTE OF TECHNOLOGY,"SR. NO.-49, VILLAGE - KHOPI, TAL - BHOR, DIST - PUNE"
499,MAHARASHTRA,SOLAPUR,FABTECH TECHNICAL CAMPUS - COLLEGE OF ENGINEERING AND RESEARCH,"PANDHARPUR ROAD, GAT NO. 565/1, SANGOLA, TALUKA - SANGOLA,"
500,MAHARASHTRA,THANE,IDEAL INSTITUTE OF TECHNOLOGY,"GUT NO. 40, PIMPLAJ ROAD, VILLAGE -POSHERI, TALUKA -WADA, DIST-THANA."
501,MAHARASHTRA,RAIGAD,YADAVRAO TASGAONKAR INSTITUTE OF ENGNEERING AND TECHNOLOGY,"VILLAGE,CHANDHI,NEAR BHIVPURI ROAD STATION,KARJAT,RAIGAD,PIN 410201"
502,MAHARASHTRA,PUNE,SHRI CHHATRAPATI SHIVAJIRAJE COLLEGE OF ENGINEERING,"S.NO. 237, DHANGWADI, TAL. BHOR, DIST. PUNE"
503,MAHARASHTRA,NAGPUR,VIDARBHA INSTITUTE OF TECHNOLOGY,"VIDARBHA INSTITUTE OF TECHNOLOGY, MOUZA: UTI(BHIVAPUR),UMRER ROAD, NAGPUR"
504,MAHARASHTRA,THANE,SHIVAJIRAO S JONDHALE COLLEGE OF ENGINEERING,"BEHND VENKATESH PETROL PUMP, SONARPADA, DOMBIVLI EAST, TAL- KALYAN, DIST-THANE, PIN-421 204."
505,MAHARASHTRA,BULDHANA,PANKAJ LADDHAD INSTITUTE OF TECHNOLOGY AND MANAGEMENT STUDIES,"CHIKHLI ROAD, YELGAON, BULDANA"
506,MAHARASHTRA,NAGPUR,GOVINDRAO WANJARI COLLEGE OF ENGINEERING & TECHNOLOGY,"148-149, SALAI GODHANI, NEAR CHIKNA VILLAGE, HUDKESHWAR ROAD, NAGPUR"
507,MAHARASHTRA,BULDHANA,RAJARSHI SHAHU COLLEGE OF ENGINEERING,"NEAR PALNA GHAR, SHAHU NAGAR, SAGWAN, BULDANA"
508,MAHARASHTRA,NAGPUR,"ITM COLLEGE OF ENGINEERING, NAGPUR","KHASRA NO.180, GHORPAD (SHIRPUR), TAL-KAMPTEE, DIST-NAGPUR, MAHARASHTRA"
509,MAHARASHTRA,NAGPUR,J D COLLEGE OF ENGINEERING AND MANAGEMENT,"AT:KHANDALA , POST: VALNI,KATOL ROAD, NAGPUR 441 501"
510,MAHARASHTRA,LATUR,MAHARASHTRA EDUCATION SOCIETY'S MAHARASHTRA UDAYAGIRI ENGINEERING COLLEGE,"NANDED ROAD, SOMNATHPUR UDGIR-413517 DIST -LATUR MAHARASHTRA INDIA"
511,MAHARASHTRA,SANGLI,NANASAHEB MAHADIK COLLEGE OF ENGINEERING,"GAT NO-894,2665 A/P PETH NAKA"
512,MAHARASHTRA,PUNE,K J COLLEGE OF ENGINEERING & MANAGEMENT RESEARCH,"SURVEY NO. 25&27 , PISOLI, NEAR BAPDEO GHAT,POST- YEWALEWADI TAL : HAVELI DIST : PUNE -411048"
513,MAHARASHTRA,NAGPUR,GURU NANAK INSTITUTE OF TECHNOLOGY,"KHASARA NO. 94, MOUZA DAHEGAON, KALMESHWAR ROAD, NAGPUR"
514,MAHARASHTRA,DHULE,SHRI JAYKUMAR RAWAL INSTITUTE OF TECHNOLOGY,"MANDAL ROAD , DONDIACHA"
515,MAHARASHTRA,PUNE,SAMARTH GROUP OF INSTITUTIONS,"A- BANGARWADI, P-BELHE,TAL- JUNNAR"
516,MAHARASHTRA,PARBHANI,SHRI SHIVAJI INSTITUTE OF ENGINEERING AND MANAGEMENT STUDIES,VASMAT ROAD
517,MAHARASHTRA,NASHIK,MAULANA MUKHTAR AHMAD NADVI TECHNICAL CAMPUS,"MANSOORA, MALEGAON-MANMAD ROAD, P.O.BOX 144,"
518,MAHARASHTRA,PUNE,ANANTRAO PAWAR COLLEGE OF ENGINEERING & RESEARCH,"S.NO. 103 PARVATI RAMANA, SHAHU COLLEGE ROAD, PUNE 411009"
519,MAHARASHTRA,KOLHAPUR,SANT GAJANAN MAHARAJ COLLEGE OF ENGINEERING,"SITE - CHINCHEWADI, TAL- GADHINGLAJ,"
520,MAHARASHTRA,NASHIK,SANGHAVI COLLEGE OF ENGINEERING,"GUT NO.166, VARVANDI, TALUKA: DINDORI DIST.: NASHIK"
521,MAHARASHTRA,NASHIK,SNJBS LATE SAU. KANTABAI BHAVARLALJI JAIN COLLEGE OF ENGINEERING,"NEMINAGAR,JAIN GURUKUL, CHANDWAD"
522,MAHARASHTRA,BULDHANA,"MAULI GROUP OF INSTITUTIONS, COLLEGE OF ENGINEERING AND TECHNOLOGY","KHAMGAON ROAD, SHEGAON"
523,MAHARASHTRA,NASHIK,BRAHMA VALLEY COLLEGE OF ENGINEERING AND REASERACH INSTITUTE,"BRAHMA VALLEY CAMPUS,ANJANERI, TRIMBAKESHWAR."
524,MAHARASHTRA,NAGPUR,V M INSTITUTE OF ENGINEERING & TECHNOLOGY,"WARDHA ROAD (NH-7), NEAR DONGARGOAN NAGPUR"
525,MAHARASHTRA,AURANGABAD,P.E.S. COLLEGE OF ENGINEERING,"UNIVERSITY ROAD, NEAR PANCHAKKI, NAGSENVANA,"
526,MAHARASHTRA,BULDHANA,SIDDHIVINAYAK TECHNICAL CAMPUS,"GAT NO.133,134,140 SHEGAON-KHAMGAON ROAD, SHIRA"
527,MAHARASHTRA,YAVATMAL,JAGADAMBHA COLLEGE OF ENGG & TECHNOLOGY,"SURVEY NO:167/1,167/2, 163 ARNI ROAD,KINHI YAVATMAL-445001"
528,MAHARASHTRA,NASHIK,SHATABDI INSTITUTE OF ENGINEERING & RESEARCH,"AT POST : AGASKHIND, VIA : DEOLALI CAMP-BHAGUR, TAL. SINNAR, DIST : NASHIK PIN : 422 502"
529,MAHARASHTRA,NASHIK,SIR VISVESVARAYA INSTITUTE OF TECHNOLOGY,"A/P: CHINCHOLI, TALUKA: SINNAR, DIST: NASHIK, MAHARASHTRA 422101"
530,MAHARASHTRA,WARDHA,"OM COLLEGE OF ENGINEERING , WARDHA","NEAR LOYDS STEEL INDUSTRIES LTD. HINGANGHAT ROAD , INZAPUR, WARDHA"
531,MAHARASHTRA,NAGPUR,ANJUMAN COLLEGE OF ENGINEERING & TECHNOLOGY,"MANGALWARI BAZAR,SADAR, NAGPUR"
532,MAHARASHTRA,SINDHUDURG,METROPOLITAN INSTITUTE OF TECHNOLOGY AND MANAGEMENT,"Village Sukhalwad, Near Sindhudurg Railway Station, Malvan, Sindhudurg, Oras, Maharashtra 416534"
533,MAHARASHTRA,PUNE,SINHGAD COLLEGE OF ENGINEERING," S. No. 44/1, Vadgaon Budruk, Off. Sinhgad Road, Pune, Maharashtra 411041"
534,MAHARASHTRA,NAGPUR,PRIYADARSHINI INDIRA GANDHI COLLEGE OF ENGINEERING,"Priyadarshini Campus, Near CRPF campus, Hingna Road, Nagpur, Maharashtra 440019"
535,MAHARASHTRA,SOLAPUR,SHRIRAM INSTITUTE OF ENGINEERING AND TECHNOLOGY CENTRE,"AT/P-PANIV, TAL-MALSHIRAS, DIST-SOLAPUR, STATE- MAHARASHTRA"
536,MAHARASHTRA,LATUR,VILASRAO DESHMUKH FOUNDATION GROUP OF INSTITUTIONS,"PLOT NO.165A,ADDITIONAL MIDC, NEAR TO MANJARA SUGAR,BARSHI ROAD,LATUR."
537,MAHARASHTRA,PUNE,MIT ACADEMY OF ENGINEERING,"ALANDI(D),TAL-KHED,DIST-PUNE"
538,MAHARASHTRA,WASHIM,SANMATI ENGINEERING COLLEGE,SURVEY NO. 40 WASHIM-MALEGAON ROAD AT. PO. SAWARGAON BARDE
539,MAHARASHTRA,KOLHAPUR,D.K.T.E. SOCIETY'S TEXTILE & ENGINEERING INSTITUTE,"""RAJWADA"" POST BOX NO. 130"
540,MAHARASHTRA,THANE,UNIVERSAL COLLEGE OF ENGINEERING,"KAMAN BHIWANDI ROAD, S.N. 146(PART), KAMAN"
541,MAHARASHTRA,NANDED,"M.G.M'S COLLEGE OF ENGINEERING ,NANDED","NEAR AIRPORT,HINGOLI,ROAD,NANDED-431 605"
542,MAHARASHTRA,PUNE,"COLLEGE OF ENGINEERING, PUNE","WELLESLY ROAD, SHIVAJINAGAR, PUNE"
543,MAHARASHTRA,PUNE,"VIDYA PRASARINI SABHA'S COLLEGE OF ENGINEERING & TECHNOLOGY, LONAVALA","GAT NO. 685, MOUJE - VAKSAI, TAH.- MAVAL, DIST.- PUNE"
544,MAHARASHTRA,NASHIK,K.V.N. NAIK S. P. SANSTHA'S LOKNETE GOPINATHJI MUNDE INSTITUTE OF ENGINEERING EDUCATION & RESEARCH,"KRANTIVEER VASANTRAO NAIK MARG,CANADA CORNER,NASHIK-422002"
545,MAHARASHTRA,PUNE,MAHARSHI KARVE STREE SHIKSHAN SAMSTHA'S CUMMINS COLLEGE OF ENGINEERING FOR WOMEN,"KARVENAGAR, PUNE 411 052"
546,MAHARASHTRA,YAVATMAL,JAWAHARLAL DARDA INSTITUTE OF ENGINEERING & TECHNOLOGY,"M.I.D.C., LOHARA, YAVATMAL-445001."
547,MAHARASHTRA,NAGPUR,SMT.RAJSHREE MULAK COLLEGE OF ENGINEERING FOR WOMEN,"GREAT NAG ROAD, NANDANVAN, NAGPUR-440009"
548,MAHARASHTRA,JALGAON,SSBT'S COLLEGE OF ENGINEERING & TECHNOLOGY,"POST BOX NO. 94 N.H. 6, BAMBHORI, JALGAON 425 001 MAHARASHTRA STATE"
549,MAHARASHTRA,NAGPUR,PRIYADARSHINI BHAGWATI COLLEGE OF ENGINEERING,"HARPUR NAGAR, UMRER ROAD, NAGPUR - 440009"
550,MAHARASHTRA,MUMBAI CITY,XAVIER INSTITUTE OF ENGINEERING,"MAHIM CAUSEWAY, MAHIM MAHIM (W), MUMBAI - 400 016"
551,MAHARASHTRA,MUMBAI CITY,SARDAR PATEL COLLEGE OF ENGINEERING,"Bhavans Campus, Munshi Nagar, Andheri (West), Mumbai, Maharashtra 400058"
552,MAHARASHTRA,SOLAPUR,N. B. NAVALE SINHGAD COLLEGE OF ENGINEERING,"AT POST KEGAON, SOLAPUR - PUNE NATIONAL HIGHWAY, DIST SOLAPUR, MAHARASHTRA, PIN- 413256"
553,MAHARASHTRA,RAIGAD,"SARASWATI COLLEGE OF ENGINEERING, KHARGHAR, NAVI-MUMBAI",PLOT NO-46 SECTOR-5 KHARGHAR NAVI-MUMBAI
554,MAHARASHTRA,PUNE,"PAD. DR. D. Y. PATIL INSTITUTE OF ENGINEERING, MANAGEMENT & RESEARCH","SECTOR 29, PCNTDA,(RAVET), NIGDI PRADHIKARAN, PUNE 411044"
555,MAHARASHTRA,PUNE,SIDDHANT COLLEGE OF ENGINEERING,"GAT NO. 131 VILLAGE : SUDUMBARE, TALEGAON CHAKAN ROAD, TALUKA : MAVAL, DISTRICT : PUNE - 412109"
556,ODISHA,ANGUL,ADARSHA COLLEGE OF ENGINEERING,"AT-SARADHAPUR, PO-KUMURISINGHA,VIA/DIST-ANGUL, PIN-759122 ORISSA"
557,ODISHA,KHORDHA,TRIDENT ACADEMY OF TECHNOLOGY,"F2A, INFRONT OF INFOCITY, CHANDAKA INDUSTRIAL ESTATE, CHANDRASEKHARPUR, BHUBANESWAR-751 024"
558,ODISHA,KHORDHA,VITS ENGINEERING COLLEGE,"DAMANABHUIN, KHORDHA"
559,ODISHA,KHORDHA,EASTERN ACADEMY OF SCIENCE AND TECHNOLOGY (EAST),"EASTERN ACADEMY OF SCIENCE AND TECHNOLOGY (EAST) AT:- PRACHI VIHAR, ANANTAPUR, PO:- PHULNAKHARA, BHUBANESWAR DIST:- KHURDHA(ORISSA) PIN:- 754001"
560,ODISHA,KHORDHA,EINSTEIN ACADEMY OF TECHNOLOGY AND MANAGEMENT,"AT-BANIATANGI, BHUBANESWAR, P.O-BAJAPUR, DIST:KHURDA, ORISSA, PIN - 752060"
561,ODISHA,KHORDHA,OXFORD COLLEGE OF ENGINEERING AND MANAGEMENT,"AT-RAMACHANDRAPUR, PO-BHATAPATNA, PS- BALIANTA, BHUBANESWAR, DIST-KHURDA, PH NO-0674-2593909 POSTAL ADRESS-QR NO-C77/3,AT-PAILLASHPALI,NEAR AERODRU"
562,ODISHA,SUNDERGARH,"SUNDARGARH ENGINEERING COLLEGE,SUNDARGARH",AT/PO- KIREI DIST-SUNDARGARH (ORISSA) PIN-770 073
563,ODISHA,KHORDHA,KONARK INSTITUTE OF SCIENCE AND TECHNOLOGY,"PO. BOX NO. 21, TECHNOPARK, JATNI, BHUBANESWAR."
564,ODISHA,,GOVERNMENT COLLEGE OF ENGINEERING. KEONJHAR,AT - JAMUNALIA P.O. - OLD TOWN DIST - KEONJHAR
565,ODISHA,RAYAGADA,GANDHI INSTITUTE OF ENGINEERING AND TECHNOLOGY,"VILLAGE : GOBIRIGUDA, PO : KHARLING, TALUK : GUNUPUR, DISTRICT : RAYAGADA"
566,ODISHA,KHORDHA,INDIC INSTITUTE OF DESIGN AND RESEARCH,"INDIC INSTITUTE OF DESIGN AND RESEARCH PLOT NO-370/1861/2379(NEAR REEBOK SHOWROOM),AT-PATIA,PO-KIIT, BHUBANESWAR-751024, ORISSA. CAMPUS  INDIC HEIG"
567,ODISHA,KORAPUT,SAMANTA CHANDRASEKHAR INSTITUTE OF TECHNOLOGY & MANAGEMENT,AT-JANIGUDA PO- SEMILIGUDA CITY-SEMILIGUDA TEHSIL-POTTANGI DISTRICT-KORAPUT PIN-764036 STATE-ORISSA
568,ODISHA,KHORDHA,MAHARAJA INSTITUTE OF TECHNOLOGY,"AT/PO.: TARABOI BACK SIDE OF BARUNEI HILLS, NEAR IIT, BHUBANESWAR DIST: KHURDA PIN CODE - 752050"
569,ODISHA,SAMBALPUR,SILICON INSTITUTE OF TECHNOLOGY,"SILICON WEST, SASON SAMBALPUR ORISSA 768200"
570,ODISHA,KHORDHA,INTERNATIONAL INSTITUTE OF INFORMATION TECHNOLOGY BHUBANESWAR,"PLOT-570(P), GOTHAPATNA, VIA- MALIPADA, BHUBANESWAR-751003"
571,ODISHA,KHORDHA,VEDANG INSTITUTE OF TECHNOLOGY,DURGAPRASAD P.O. RAMACHANDI DIST. KHURDA ORISSA
572,ODISHA,GANJAM,NATIONAL INSTITUTE OF SCIENCE & TECHNOLOGY,"PALUR HILLS, BERHAMPUR, ORISSA - 761008"
573,ODISHA,KHORDHA,ARYAN INSTITUTE OF ENGINEERING & TECHNOLOGY,AT: BARAKUDA PO: PANCHAGAON DIST: KHURDA BHUBANESWAR PIN-752050 ORISSA
574,ODISHA,RAYAGADA,GANDHI INSTITUTE OF SCIENCE AND TECHNOLOGY,AT. KHOLIGUDA PO. KOTHAPETA DIST. RAYAGADA ORISSA PIN.765017
575,ODISHA,GANJAM,ROLAND INSTITUTE OF TECHNOLOGY,"SURYA VIHAR, KOTHARI SINGHI, GOLANTHARA, BERHAMPUR-761008. GANJAM, ORISSA, INDIA."
576,ODISHA,DHENKANAL,SYNERGY INSTITUTE OF ENGINEERING & TECHNOLOGY,"BANAMALIPRASAD, BY THE SIDE OF NH-42, DISTRICT - DHENKANAL, PIN-759001, ORISSA."
577,ODISHA,RAYAGADA,GANDHI INSTITUTE OF ADVANCED COMPUTER AND RESEARCH,PRAJUKTI VIHAR AUROBINDO MARG
578,ODISHA,GANJAM,GANDHI ACADEMY OF TECHNOLOGY AND ENGINEERING,GOLANTHARA KONISI BERHAMPUR GANJAM ODISHA
579,ODISHA,PURI,"GHANASHYAM HEMALATA INSTITUTE OF TECHNOLOGY & MANAGEMENT, PURI","RASANANDA JENA VIHAR,BHUAN PO: CHHAITANA DIST:PURI PIN:752002 ORISSA"
580,ODISHA,KHORDHA,"TEMPLECITY INSTITUTE OF TECHNOLOGY & ENGINEERING ( TITE), BHUBANESWAR","PLOT NO. F/12, IID CENTRE KNOWLEDGE CAMPUS, BARUNEI, KHURDA, ORISSA"
581,ODISHA,GANJAM,KALAM INSTITUTE OF TECHNOLOGY,"GOVINDA VIHAR, GOVINDA PUR,PO: LAXMIPUR, BERHAMPUR, DIST: GANJAM"
582,ODISHA,KHORDHA,INDOTECH COLLEGE OF ENGINEERING,"INDOTECH COLLEGE OF ENGINEERING, PLOT NO 144, AT/PO MALLIPADA, VIA PALLAHAT (KHURDA- 2) DIST KHURDA, ORISSA - 752 056"
583,ODISHA,SUNDERGARH,PURUSHOTTAM INSTITUTE OF ENGINEERING & TECHNOLOGY,"PURUSHOTTAM VIHAR, 10TH KM., HIGHWAY 10, MANDIAKUDAR, KANSBAHAL"
584,ODISHA,KHORDHA,NALANDA INSTITUTE OF TECHNOLOGY,"BHUDHIST VILLA, NEBAD BHUASANI TEMPLE SQUARE, SIMILIPATNA, CHANDAKA, BHUBANESAWR, ORISSA."
585,ODISHA,SUNDERGARH,PADMANAVA COLLEGE OF ENGINEERING,ROURKELA-769002 SECTOR -4
586,ODISHA,KHORDHA,SPINTRONIC TECHNOLOGY AND ADVANCE RESEARCH,"AT/PO: TARABOI, BHUBANESWAR VIA: JATANI DIST: KHURDA"
587,ODISHA,GANJAM,GAYATRI INSTITUTE OF ENGINEERING AND TECHNOLOGY,"TATADAPALLI VILLAGE, GOLANTHRA JUNCTION, KONISI TAHSIL, BERHAMPUR, GANJAM DT, ORISSA-761 008"
588,ODISHA,KHORDHA,SYNERGY INSTITUTE OF TECHNOLOGY,"AT: BHIMPUR, VIA: PHULNAKHARA, PO: PAHALA, BHUBANESWAR, DIST: KHURDA, ORISSA, INDIA"
589,PUNJAB,AMRITSAR,SATYAM INSTITUTE OF ENGINEERING & TECHNOLOGY,"KOTLA DOOM, RAM TIRATH AMRITSAR"
590,PUNJAB,MOHALI,RAM DEVI JINDAL EDUCATIONAL CHARITABLE SOCIETY GROUP OF INSTIUTIONS,"RAM DEVI JINDAL EDUCATIONAL CHARITABLE SOCIETY GROUP OF INSTITUTIONS, VILLAGE BASOLI ,P.O RANIMAJRA- 140501,TEHSIL DERABASSI DISTT. MOHALI (PUNJAB)"
591,PUNJAB,BATHINDA,BABA FARID COLLEGE OF ENGINEERING & TECHNOLOGY,"VILLAGE DEON, MUKTSAR ROAD, BATHINDA"
592,PUNJAB,SHAHID BHAGAT SINGH NAGAR,"KC COLLEGE OF ENGINEERING & INFORMATION TECHNOLOGY, NAWANSHAHR","KARIAM ROAD, NAWANSHAHR VPO - KARIAM TEL. - NAWANSHAHR PUNJAB - 144514"
593,PUNJAB,S.A.S NAGAR,ADESH INSTITUTE OF TECHNOLOGY,LUDHIANA ROAD VILL : GHARUAN TEH : KHARAR DISTT : S.A. S. NAGAR
594,PUNJAB,AMRITSAR,"KHALSA COLLEGE OF ENGINEERING & TECHNOLOGY, AMRITSAR","RANJIT AVENUE, BLOCK-C, AMRITSAR, PUNJAB-143001"
595,PUNJAB,JALANDHAR,ST. SOLDIER GROUP OF INSTITUTIONS,"BEHIND N.I.T(R.E.C.), AMRITSAR BY-PASS, G.T. ROAD, JALANDHAR"
596,PUNJAB,PATIALA,SHREE GANESH GROUP OF INSTITUTIONS,"SHREE GANESH GROUP OF INSTITUTIONS, PATIALA NABHA ROAD, RAKHRA , PATIALA"
597,PUNJAB,LUDHIANA,"LUDHIANA COLLEGE OF ENGINEERING & TECHNOLOGY, KATANI KALAN, LUDHIANA.","LUDHIANA COLLEGE OF ENGINEERING & TECHNOLOGY, CHANDIGARH-LUDHIANA HIGHWAY, V.P.O. KATANI KALAN, TEHSIL & DISTRICT-LUDHIANA. PIN-141113."
598,PUNJAB,GURDASPUR,S.SUKHJINDER SINGH ENGINEERING & TECHNOLOGY COLLEGE,"V.P.O. HAYAT NAGAR, HARDOCHHANI ROAD, GURDASPUR"
599,PUNJAB,LUDHIANA,LUDHIANA GROUP OF COLLEGES,"CHOWK CHOWKIMANN, VILL.MANN"
600,PUNJAB,MOHALI,CGC TECHNICAL CAMPUS - FACULTY OF ENGINEERING,VILLAGE JHANJERI
601,PUNJAB,SHAHID BHAGAT SINGH NAGAR,"RAYAT GROUP OF INSTITUTIONS , ROPAR",VILLAGE RAILMAJRA NEAR RUPNAGAR DISTT. S.B.S NAGAR PUNJAB
602,PUNJAB,JALANDHAR,DAV INSTITUTE OF ENGINEERING & TECHNOLOGY,KABIR NAGAR
603,PUNJAB,FIROZPUR,RADIANT INSTITUTE OF ENGINEERING & TECHNOLOGY,"C/O HOMOEOPATHIC MEDICAL COLLEGE OPP. BSF CANTONMENT, HANUMANGARH ROAD, ABOHAR- 152116 PUNJAB"
604,PUNJAB,GURDASPUR,SUKHJINDER TECHNICAL CAMPUS,"PATHANKOT-DALHOUSIE ROAD, TEHSIL DHAR KALAN"
605,PUNJAB,S.A.S NAGAR,DOABA INSTITUTE OF ENGG. & TECH.,"VILLAGE-GHATAUR, PO-ALLAPUR, TEHSIL-KHARAR, DISTT - S.A.S. NAGAR (MOHALI) - PUNJAB"
606,PUNJAB,FIROZPUR,FEROZEPUR COLLEGE OF ENGINEERING & TECHNOLOGY,"MOGA-FEROZEPUR G.T ROAD FEROZSHAH, DISTT. FEROZEPUR"
607,PUNJAB,AMRITSAR,GLOBAL INSTITUTE OF MANAGEMENT AND EMERGING TECHNOLOGIES,"11TH KM STONE, SOHIAN KHURD AMRITSAR-BATALA ROAD AMRITSAR"
608,PUNJAB,AMRITSAR,"BABA KUMA SINGH JI ENGG COLLEGE,AMRITSAR",HOSHIAR NAGAR ATTARI ROAD NEAR WAGHA BORDER AMRITSAR-143107
609,PUNJAB,MOHALI,GGS COLLEGE OF MODERN TECHNOLOGY,"CHANDIGARH-LUDHIANA HIGHWAY VILL.KHANPUR, KHARAR"
610,PUNJAB,LUDHIANA,GURU NANAK DEV ENGINEERING COLLEGE,"GILL PARK, GILL ROAD, LUDHIANA"
611,PUNJAB,MOHALI,QUEST INFOSYS FOUNDATION GROUP OF INSTITUTIONS,"JHANJERI, (NEAR LANDRAN) CHANDIGARH-FATEHGARH SAHIB HIGHWAY, MOHALI-140307"
612,PUNJAB,JALANDHAR,UNIVERSITY INSTITUTE OF ENGINEERING AND TECHNOLOGY,"KHIALA , P.O. PADHIANA JALANDHAR PIN CODE- 144030 STATE PUNJAB"
613,PUNJAB,KAPURTHALA,ANAND COLLEGE OF ENGINEERING & MANAGEMENT,"OPPOSITE RAIL COACH FACTORY, SULTANPUR ROAD, KAPURTHALA"
614,PUNJAB,BATHINDA,AKLIA EDUCATIONAL AND RESEARCH SOCIETY GROUP OF INSTITUTIONS,"VILLAGE AKLIA KALAN, P. O. GONIANA MANDI, BATHINDA"
615,PUNJAB,TARAN TARAN,SHIV SHANKAR INSTITUTE OF ENGINEERING AND TECHNOLOGY,"CHUSLEWAL MORH PATTI, TARAN TARAN (PUNJAB)"
616,PUNJAB,PATIALA,GURUKUL VIDYAPEETH INSTITUTE OF ENGINEERING & TECHNOLOGY,"CHANDIGARH-PATIALA NATIONAL HIGHWAY, VILLAGE RAMNAGAR, P.O. JHANSLA, TEHSIL RAJPURA, DIST. PATIALA (PB) PIN CODE 104601"
617,PUNJAB,PATIALA,THAPAR UNIVERSITY,"THAPAR TECHNOLOGY CAMPUS, BHADSON ROAD"
618,PUNJAB,S.A.S NAGAR,SUS ENGINEERING COLLEGE,"VILLAGE-TANGORI, P.O.-MOTEMAJRA (VIA MANAULI), TEH. & DISTT. - SAS NAGAR"
619,PUNJAB,FIROZPUR,DEV RAJ GROUP'S TECHNICAL CAMPUS,"VILLAGE DASTUL SAHIB WALA, ZIRA ROAD"
620,PUNJAB,MUKATSAR,"MALOUT INSTITUTE OF MANAGEMENT AND INFORMATION TECHNOLOGY, MALOUT","MALOUT INSTITUTE OF MANAGEMENT AND INFORMATION TECHNOLOGY, GREEN FIELD ENCLAVE, NEAR NEW GRAIN MARKET, MALOUT, 152107, DISTT. MUKTSAR, PUNJAB"
621,PUNJAB,AMRITSAR,"SAI INSTITUTE OF ENGINEERING & TECHNOLOGY,MANAWALA, AMRITSAR","SAI INSTITUTE OF ENGINEERING & TECHNOLOGY, NEAR CIVIL HOSPITAL, V.P.O MANAWALA, AMRITSAR"
622,PUNJAB,MOGA,BIS COLLEGE OF ENGINEERING & TECHNOLOGY,"V.P.O. GAGRA, KOT ISE KHAN TEHSIL & DISTT. MOGA."
623,PUNJAB,AMRITSAR,M K EDUCATION SOCIETIE'S GROUP OF INSTITUTIONS,"AMRITSAR PUNJAB,"
624,PUNJAB,GURDASPUR,TAWI ENGINEERING COLLEGE,"SHAHPUR KANDI, TEH. DHAR KALAN."
625,PUNJAB,FIROZPUR,SHAHEED BHAGAT SINGH STATE TECHNICAL CAMPUS,"MOGA ROAD, NH-95, FEROZEPUR-PUNJAB-152004"
626,PUNJAB,GURDASPUR,SRI SAI COLLEGE OF ENGG. & TECH,"V.P.O. BADHANI , DISTRICT GURDASPUR- 145001 PATHANKOT PUNJAB"
627,PUNJAB,RUPNAGAR,INSTITUTE OF ENGINEERING & TECHNOLOGY-BHADDAL (ROPAR),VILLAGE BHADDAL POST OFFICE MIANPUR DISTT. ROPAR 140108 PUNJAB
628,PUNJAB,HOSHIARPUR,MODERN GROUP OF COLLEGES,"VILLAGE PANDORI BHAGAT,MANSAR HAJIPUR ROAD,MUKERIAN DISTRICT HOSIHARPUR"
629,RAJASTHAN,JAIPUR,JAGAN NATH GUPTA INSTITUTE OF ENGINEERING AND TECHNOLOGY,"IP 2 & 3, PHASE-IV, SITAPURA INDUSTRIAL AREA, JAIPUR"
630,RAJASTHAN,JODHPUR,JODHPUR INSTITUTE OF ENGINEERING & TECHNOLOGY,"JIET UNIVERSE, N.H. -65, PALI ROAD, MOGRA, LUNI"
631,RAJASTHAN,JAIPUR,STANI MEMORIAL COLLEGE OF ENGINEERING & TECHNOLOGY,"SMCET, PHAGI, JAIPUR ,RAJASTHAN"
632,RAJASTHAN,JAIPUR,RAJDHANI INSTITUTE OF TECHNOLOGY AND MANAGEMENT,"NEAR ROHINI NAGAR PHASE-I, SANGANER-RENWAL ROAD, JAIPUR"
633,RAJASTHAN,SIKAR,"SOBHASARIA GROUP OF INSTITUTIONS, SIKAR","NH-11, GOKULPURA, SIKAR"
634,RAJASTHAN,GANGANAGAR,SURENDERA GROUP OF INSTITUTIONS,H. H. GARDENS
635,RAJASTHAN,JODHPUR,MAYURAKSHI INSTITUTE OF ENGINEERING AND TECHNOLOGY,"MANDAL NATH CHOWRAHA, MAIN MATHANIYA ROAD, DAIJAR"
636,RAJASTHAN,DUNGAPUR,DUNGARPUR COLLEGE OF ENGINEERING & TECHNOLOGY,"DUNGARPUR COLLEGE OF ENGINEERING & TECHNOLOGY BHANDARIYA GHATA, SIMALWARA ROAD, DUNGARPUR (RAJASTHAN)-314001"
637,RAJASTHAN,BIKANER,"MARUDHAR ENGINEERING COLLEGE (MEC),BIKANER","NH-11, JAIPUR ROAD, RAISER, BIKANER RAJASTHAN"
638,RAJASTHAN,JAIPUR,ADVAIT VEDANTA INSTITUTE OF TECHNOLOGY,"ADVED KNOWLEDGE PARK, KANOTA-SAMBARIYA ROAD, VILLAGE GANGARAMPURA, TEHSIL BASSI, DIST. JAIPUR"
639,RAJASTHAN,PALI,MAHAVEER INSTITUTE OF TECHNOLOGY & SCIENCE,"MAHAVEER INSTITUTE OF TECHNOLOGY & SCIENCE, RANIYA BERA, MAIN HIGHWAY ROAD,NH-14,JADAN"
640,RAJASTHAN,JAIPUR,RAJDHANI ENGINEERING COLLEGE,"ROHINI NAHAR PHASE-I, SANGANER RENWAL ROAD, JAIPUR-303904"
641,RAJASTHAN,JHUNJHUNU,B.K. BIRLA INSTITUTE OF ENGINEERING AND TECHNOLOGY,"BKBIET, CEERI ROAD PILANI"
642,RAJASTHAN,SIKAR,FACULTY OF ENGINEERING & TECHNOLOGY,MODY INSTITUTE OF TECHNOLOGY & SCIENCE NATIONAL HIGHWAY -11
643,RAJASTHAN,KOTA,"GURUKUL INSTITUTE OF ENGINEERING AND TECHNOLOGY, KOTA","IPB - 13, RIICO INSTITUTIONAL AREA RANPUR, JHALAWAR KOTA - 325003"
644,RAJASTHAN,JAIPUR,VIVEKANANDA INSTITUTE OF TECHNOLOGY - EAST (FORMERLY VIVEKANANDA COLLEGE OF ENGINEERING),"SISYAWAS , DANTALI, NRI ROAD JAGATPURA, JAIPUR"
645,RAJASTHAN,UDAIPUR,GEETANJALI INSTITUTE OF TECHNICAL STUDIES,"AIRPORT ROAD DABOK, TALUKA MAVLI"
646,TAMILNADU,THIRUVALLUR,GOJAN SCHOOL OF BUSINESS AND TECHNOLOGY,"80-FEET ROAD, EDAPALAYAM, RED HILLS, CHENNAI-52"
647,TAMILNADU,KANCHIPURAM,LORD VENKATESHWARAA ENGINEERING COLLEGE,"PULIAMBAKKAM, WALAJABAD KANCHIPURAM DT TAMIL NADU 631605"
648,TAMILNADU,THOOTHUKUDI,DR. G.U. POPE COLLEGE OF ENGINEERING,"POPE NAGAR, SAWYERPURAM"
649,TAMILNADU,KANYAKUMARI,MARTHANDAM COLLEGE OF ENGINEERING AND TECHNOLOGY,"P.M. VILLAGE ROAD, KUTTAKUZHI, VEEYANNOOR POST, KANYAKUMARI DISTRICT, TAMIL NADU."
650,TAMILNADU,TIRUNELVELI,RAJAS ENGINEERING COLLEGE,"RAJA NAGAR, VADAKKANGULAM"
651,TAMILNADU,MADURAI,SACS M.A.V.M.M. ENGINEERING COLLEGE,"446,MELUR-ALAGARKOIL ROAD, KIDARIPATTI (PO), ALAGARKOIL (VIA), MELUR TALUK, MADURAI-625301."
652,TAMILNADU,MADURAI,VAIGAI COLLEGE OF ENGINEERING,"THERKUTHERU, MELUR TALUK, MADURAI"
653,TAMILNADU,NAMAKKAL,K S R COLLEGE OF ENGINEERING,"K S R KALVINAGAR, THOKKAVADI, TIRUCHENGODE, NAMAKKAL DIST, TAMILNADU-637215."
654,TAMILNADU,CHENNAI,MISRIMAL NAVAJEE MUNOTH JAIN ENGINEERING COLLEGE,"GURU MARUDHAR KESARI BUILDING, JYOTHI NAGAR, THORAPAKKAM, CHENNAI - 600097."
655,TAMILNADU,KANYAKUMARI,LORD JEGANNATH COLLEGE OF ENGINEERING AND TECHNOLOGY,PSN NAGAR RAMANATHICHANPUTHUR MARUNGOOR KANYAKUMARIDISTRICT
656,TAMILNADU,TIRUNELVELI,A.R COLLEGE OF ENGINEERING & TECHNOLOGY,"KADAYAM-ALANGULAM ROAD, NEAR RAILWAY STATION, KADAYAM."
657,TAMILNADU,KANCHIPURAM,ST.JOSEPH COLLEGE OF ENGINEERING,"TRINITY CAMPUS, NEMILI B BEEMANTHANGAL VILLAGE, SRIPERUMBUDUR, KANCHEEPURAM DISTRICT-602105."
658,TAMILNADU,KANYAKUMARI,PONJESLY COLLEGE OF ENGINEERING,"NEAR PARVATHIPURAM, ALAMPARAI, VETURNIMADAM POST, NAGERCOIL 629 003. KANYAKUMARI DIST., TAMIL NADU."
659,TAMILNADU,ERODE,VELALAR COLLEGE OF ENGINEERING AND TECHNOLOGY,PERUNDURAI ROAD THINDAL POST ERODE
660,TAMILNADU,THENI,BHARATH NIKETAN ENGINEERING COLLEGE,"SHRI GOWRI NAGAR, THIMMARASANAICKANOOR, AUNDIPATTI, THENI (DT). TAMILNADU.625536"
661,TAMILNADU,SALEM,SRS COLLEGE OF ENGINEERING & TECHNOLOGY,"HARUR MAIN ROAD, KUPPANUR (P.O), SALEM - 636 122 TAMIL NADU"
662,TAMILNADU,THIRUVALLUR,INDIRA INSTITUTE OF ENGINEERING AND TECHNOLOGY,NO 1 V.G.R NAGAR V.G.R GARDENS PANDUR THIRUVALLUR
663,TAMILNADU,SALEM,SALEM COLLEGE OF ENGINEERING AND TECHNOLOGY,"SALEM-ATTUR MAIN ROAD , NH-68 METTUPATTY-PERUMAPALAYAM"
664,TAMILNADU,TIRUNELVELI,SCAD COLLEGE OF ENGINEERING AND TECHNOLOGY,SCAD COLLEGE OF ENGINEERING AND TECHNOLOGY SCAD NAGAR CHERANMAHADEVI TIRUNELVELI
665,TAMILNADU,SALEM,MAHENDRA COLLEGE OF ENGINEERING,12TH KM ATTUR MAIN ROAD MINNAMPALLI SALEM
666,TAMILNADU,NAMAKKAL,MUTHAYAMMAL COLLEGE OF ENGINEERING,KAKKAVERI RASIPURAM
667,TAMILNADU,TIRUCHIRAPPALLI,THE SELVAM WOMEN EXCELLENCE ENGINEERING TECHNOLOGY,RAJA NAGAR
668,TAMILNADU,ERODE,NANDHA ENGINEERING COLLEGE,"28, CHENNIMALAIPALAYAM ROAD, PITCHANDAMPALAYAM (PO), ERODE"
669,TAMILNADU,DINDIGUL,SSM INSTITUTE OF ENGINEERING AND TECHNOLOGY,"KUTTATHUPATTI VILLAGE, BEGAMBUR POST, DINDIGUL TALUK, DINDIGUL DISTRICT, TAMILNADU"
670,TAMILNADU,KANCHIPURAM,ASAN MEMORIAL COLLEGE OF ENGINEERING AND TECHNOLOGY,ASAN NAGAR 9TH KILOMETER CHENGALPATTU-MAHABALIPURAM HIGHWAY POST BOX NO:6 CHENGALPATTU-603001
671,TAMILNADU,NAMAKKAL,MAHENDRA INSTITUTE OF ENGINEERING AND TECHNOLOGY,"MAHENDIRAPURI, MALLASAMUDRAM WEST, VADUGAPLAYAM POST, TIRUCHENGODE TALUK, NAMAKKAL DISTRICT"
672,TAMILNADU,THIRUVALLUR,VELAMMAL ENGINEERING COLLEGE (ENGG. & TECH),VELAMMAL NAGAR AMBATTUR-REDHILLS ROAD SURAPET CHENNAI - 600 066 TAMIL NADU
673,TAMILNADU,SIVAGANGA,VICKRAM COLLEGE OF ENGINEERING,"SREENIVASA GARDENS, MADURAI SIVAGANGAI ROAD, ENATHI."
674,TAMILNADU,VILUPPURAM,SARASWATHY COLLEGE OF ENGINEERING AND TECHNOLOGY,"NH45 MAIN ROAD, OLAKKUR"
675,TAMILNADU,VILUPPURAM,VEDHANTHA INSTITUTE OF TECHNOLOGY,"VEDHANTHA NAGAR,CHENNAI HIGHWAY, PADUR POST, ULUNDURPET TALUK, VILLUPURAM DT"
676,TAMILNADU,THANJAVUR,ARASU ENGINEERING COLLEGE,"CHENNAI MAIN ROAD THIRUVISANALLUR - VILLAGE, KUMBAKONAM-612501, THIRUVIDAIMARUTHUR - TALUK"
677,TAMILNADU,TIRUCHIRAPPALLI,M.I.E.T. ENGINEERING COLLEGE,TRICHY - PUDUKKOTTAI ROAD GUNDUR TIRUCHIRAPPALLI - 620 007
678,TAMILNADU,KANCHIPURAM,AGNI COLLEGE OF TECHNOLOGY,THALAMBUR OFF. RAJIV GANDHI SALAI CHENGALPATTU TALUK KANCHEEPURAM DISTRICT CHENNAI PIN CODE : 603 103
679,TAMILNADU,NILGIRIS,CSI COLLEGE OF ENGINEERING,"CSI COLLEGE OF ENGINEERING KETTI VALLEY THE NILGIRIS-643 215. TAMILNADU,SOUTH INDIA."
680,TAMILNADU,NAMAKKAL,K.S.RANGASAMY COLLEGE OF TECHNOLOGY,"K.S.R KALVI NAGAR, THOKKAVADI, TIRUCHENGODE TK, 637 215."
681,TAMILNADU,TIRUCHIRAPPALLI,IMAYAM COLLEGE OF ENGINEERING,"KANNANUR, THURAIYUR(T.K), TRICHY(D.T), 621 206."
682,TAMILNADU,COIMBATORE,AVINASHILINGAM DEEMED UNIVERSITY FOR WOMEN,"FACULTY OF ENGINEERING, AVINASHILINGAM UNIVERSITY FOR WOMEN, COIMBATORE - 641108"
683,TAMILNADU,KANYAKUMARI,LOYOLA INSTITUTE OF TECHNOLOGY & SCIENCE,"P.BO.NO.2, THOVALAI - RAJAVOOR ROAD, LOYOLA NAGAR, THEROOR VILLAGE, THOVALAI, KANYAKUMARI DT."
684,TAMILNADU,TIRUCHIRAPPALLI,CAUVERY COLLEGE OF ENGINEERING AND TECHNOLOGY,"PERUR,KULUMANI ROAD, SRIRANGAM (TK.) TIRUCHIRAPPALLI 639103"
685,TAMILNADU,TIRUCHIRAPPALLI,"OAS INSTITUTE OF TECHNOLOGY AND MANAGEMENT, GROUP OF INSTITUTIONS","TIRUCHIRAPPALLI-THURAIYUR MAIN ROAD, PULIVALAM P.O MUSIRI TALUK"
686,TAMILNADU,KANCHIPURAM,ADHIPARASAKTHI ENGINEERING COLLEGE,"MELMARUVATHUR, CHEYYUR TALUK, KANCHEEPURAM DISTRICT, TAMILNADU, INDIA"
687,TAMILNADU,NAGAPATTINAM,A.V.C.COLLEGE OF ENGINEERING,MAYILADUTHURAI MANNAMPANDAL
688,TAMILNADU,PERAMBALUR,ELIZABETH COLLEGE OF ENGINEERING AND TECHNOLOGY,"SELCRIM LAND ANNAMANGALAM-621102. VEPPANTHATTAI-TK, PERAMBALUR-DIST.,"
689,TAMILNADU,KANCHIPURAM,DHANALAKSHMI COLLEGE OF ENGINEERING,"MANIMANGALAM PUDUCHERI ROAD, MANIMANGALAM, MANIMANGALAM POST, SRIPERUMBUDUR TALUK, KANCHEEPURAM DIST., CHENNAI  601301"
690,TAMILNADU,COIMBATORE,GOVERNMENT COLLEGE OF TECHNOLOGY,THADAGAM ROAD COIMBATORE
691,TAMILNADU,COIMBATORE,UNITED INSTITUTE OF TECHNOLOGY,"G.KOUNDAMPALAYAM, PERIYANAICKENPALAYAM"
692,TAMILNADU,NAMAKKAL,PAVAI COLLEGE OF TECHNOLOGY,"NH-7, SALEM-NAMAKKAL HIGHWAYS, PACHAL POST, NAMAKKAL DT. TAMIL NADU PIN:637 018"
693,TAMILNADU,KANCHIPURAM,LORD AYYAPPA INSTITUTE OF ENGINEERING & TECHNOLOGY,UTHUKADU WALAJABAD KANCHEEPURAM DISTRICT
694,TAMILNADU,THOOTHUKUDI,INFANT JESUS COLLEGE OF ENGINEERING,"KAMARAJAR NAGAR, TIRUNELVELI - THOOTHUKUDI HIGHWAY (NH-7A), KEELAVALLANADU VILLAGE, ELLANAYAKKAN PATTI POST, SRIVAIKUNDAM TALUK, THOOTHUKUDI DISTR"
695,TAMILNADU,PERAMBALUR,SRI RAMAKRISHNA COLLEGE OF ENGINEERING,"SRI SARADHA NAGAR, NH - 45,"
696,TAMILNADU,VELLORE,PODHIGAI COLLEGE OF ENGINEERING & TECHNOLOGY,"SALEM MAIN ROAD, ADIYUR POST,TIRUPATTUR TALUK - 635 601. VELLORE DIST TAMILNADU"
697,TAMILNADU,TIRUVANNAMALAI,OXFORD COLLEGE OF ENGINEERING,"VENMANI VILLAGE, KARAIPOONDI POST, POLUR 606 803"
698,TAMILNADU,KARUR,M.KUMARASAMY COLLEGE OF ENGINEERING,"M KUMARASAMY COLLEGE OF ENGINEERING, THALAVAPALAYAM, KARUR - 639113"
699,TAMILNADU,ARIYALUR,MEENAKSHI RAMASWAMY ENGINEERING COLLEGE,MR KALVI NAGAR THATHANUR POST UDAYARPALAYAM TK ARIYALUR DT
700,TAMILNADU,NAGAPATTINAM,HAJI SHEIK ISMAIL ENGINEERING COLLEGE,"ESANOOR, KEELAIYUR-PO THIRUKKUVALAI -TK NAGAPATTINAM -DT"
701,TAMILNADU,KANYAKUMARI,RAJAS INTERNATIONAL INSTITUTE OF TECHNOLOGY FOR WOMEN,"OZHUGINASERY, NAGERCOIL KANYAKUMARI DIST. TAMILNADU SOUTH INDIA"
702,TAMILNADU,VELLORE,GGR COLLEGE OF ENGINEERING,"CHENNAI-BANGALORE HIGHWAY, PILLAIYARKUPPAM, PERUMUGAI, VELLORE"
703,TAMILNADU,COIMBATORE,SNS COLLEGE OF ENGINEERING,"SATHY MAIN ROAD KURUMBAPALAYAM (PO), COIMBATORE - 641 107"
704,TAMILNADU,COIMBATORE,ADITHYA INSTITUTE OF TECHNOLOGY,"SF NO. 348/1, 349/1, KURUMBAPALAYAM VILLAGE, SS KULUM POST, COIMBATORE"
705,TAMILNADU,TIRUPPUR,PROFESSIONAL GROUP OF INSTITUTIONS,"SFNO 166 , 167 PROFESSIONAL NAGAR"
706,TAMILNADU,THIRUVALLUR,PANIMALAR ENGINEERING COLLEGE,"BANGALORE TRUNK ROAD, NAZARATHPET, VARADHARAJAPURAM, POONAMALLEE, THIRUVALLUR(DT)"
707,TAMILNADU,COIMBATORE,KUMARAGURU COLLEGE OF TECHNOLOGY,CHINNAVEDAMPATTI
708,TAMILNADU,THIRUVALLUR,SRI VENKATESWARA COLLEGE OF ENGINEEIRNG & TECHNOLOGY,THIRUPACHUR THIRUVALLUR TALUK AND DISTRICT
709,TAMILNADU,ERODE,NANDHA COLLEGE OF TECHNOLOGY,"235, CHENNIMALAIPALAYAM ROAD PITCHANDAMPALAYAM POST VEPPAMPALAYAM VILLAGE ERODE - 638 052"
710,TAMILNADU,CUDDALORE,C.K. COLLEGE OF ENGINEERING & TECHNOLOGY,"JAYARAM NAGAR, CHELLANGKUPPAM, CUDDALORE, TAMILNADU - 607 003"
711,TAMILNADU,TIRUCHIRAPPALLI,SARANATHAN COLLEGE OF ENGINEERING,VENKATESWARA NAGAR EDAMALAIPATTIPUDUR POST PANJAPPUR VILLAGE SRIRANGAM TALUK
712,TAMILNADU,VIRUDHUNAGAR,SETHU INSTITUTE OF TECHNOLOGY,PULLOOR KARIAPATTI
713,TAMILNADU,TIRUNELVELI,FRANCIS XAVIER ENGINEERING COLLEGE,"103 G2, BY PASS ROAD, VANNARPETTAI TIRUNELVELI - 627 003"
714,TAMILNADU,CUDDALORE,DR.NAVALAR NEDUNCHEZHIYAN COLLEGE OF ENGINEERING,"RAJA NAGAR,VAITHIYANATHAPURAM, THOLUDUR - 606 303, CUDDALORE DISTRICT,TAMILNADU."
715,TAMILNADU,COIMBATORE,INFO INSTITUTE OF ENGINEERING,"S F NO.194-200, N.H.209, SATHY ROAD, SARAKARSAMAKULAM, KOVILPALAYAM, COIMBATORE-641107."
716,TAMILNADU,COIMBATORE,NEHRU INSTITUTE OF ENGINEERING AND TECHNOLOGY,"""NEHRU GARDENS"" THIRUMALAYAMPALAYAM (PO) COIMBATORE-641105"
717,TAMILNADU,RAMANATHAPURAM,MOHAMED SATHAK ENGINEERING COLLEGE,"SATHAK NAGAR, EAST COAST ROAD, PUDHU MAYAKULAM, KILAKARAI, RAMANATHAPURAM DIST"
718,TAMILNADU,TIRUVANNAMALAI,S.R.I. COLLEGE OF ENGINEERING & TECHNOLOGY,"321/15, MELMARUVATHUR ROAD, BIRUDUR, VANDAVASI"
719,TAMILNADU,THIRUVALLUR,VEL TECH HIGH TECH DR.RANGARAJAN DR.SAKUNTHALA ENGINEERING COLLEGE,"NO-60,VELTECH ROAD,AVADI"
720,TAMILNADU,COIMBATORE,RANGANATHAN ENGINEERING COLLEGE,"VIRALIYUR (PO),THONDAMUTHUR (VIA), COIMBATORE-641 109, TAMILNADU."
721,TAMILNADU,TIRUVANNAMALAI,S.K.P. ENGINEERING COLLEGE,"CHINNKANGIYANUR, SOMASIPADI POST, TIRUVANNAMALAI TALUK, TIRUVANNAMALAI DIST"
722,TAMILNADU,KANYAKUMARI,ANNAI VAILANKANNI COLLEGE OF ENGINEERING,"AVK NAGAR, POTHAIYADISALAI POTTALKULAM AZHAGAPPAPURAM.P.O KANYA KUMARI DISTRICT - 629401. TAMIL NADU"
723,TAMILNADU,VELLORE,RANIPPETTAI ENGINEERING COLLEGE,"THENKADAPANTHANGAL - 632513, WALLAJAH TALUK, VELLORE DISTRICT, TAMILNADU."
724,TAMILNADU,VIRUDHUNAGAR,P.S.R. RENGASAMY COLLEGE OF ENGINEERING FOR WOMEN,APPAYANAICKENPATTI SEVALPATTI SIVAKASI
725,TAMILNADU,TIRUVANNAMALAI,SKP INSTITUTE OF TECHNOLOGY,SKP INSTITUTE OF TECHNOLOGY CHINNAKANGIYANUR SOMASIPADI POST TIRUVANNAMALAI TAMIL NADU-606611
726,TAMILNADU,COIMBATORE,SRI KRISHNA COLLEGE OF TECHNOLOGY,KOVAIPUDUR POST
727,TAMILNADU,DHARMAPURI,JAYALAKSHMI INSTITUTE OF TECHNOLOGY,THOPPUR DHARMAPURI (DT)
728,TAMILNADU,COIMBATORE,SUGUNA COLLEGE OF ENGINEERING,"NEHRU NAGAR (WEST), KALAPATTI ROAD, CIVIL AERODROME (PO)"
729,TAMILNADU,SIVAGANGA,CSIR - CENTRAL ELECTROCHEMICAL RESEARCH INSTITUTE,"CENTRAL ELECTROCHEMICAL RESEARCH INSTITUTE, KARAIKUDI"
730,TAMILNADU,COIMBATORE,NEHRU INSTITUTE OF TECHNOLOGY,JAWAHAR GARDENS KALIAPURAM THIRUMALAYAMPALAYAM COIMBATORE-641105
731,TAMILNADU,TIRUCHIRAPPALLI,OXFORD ENGINEERING COLLEGE,PIRATTIYUR
732,TAMILNADU,VILUPPURAM,IDHAYA ENGINEERING COLLEGE FOR WOMEN,NAINARPALAYAM ROAD CHINNA SALEM VILLUPURAM DT
733,TAMILNADU,KANCHIPURAM,AKSHEYAA COLLEGE OF ENGINEERING,PULUDIVAKKAM MADHURANTAGAM TALUK KANCHEEPURAM DISTRICT
734,TAMILNADU,THANJAVUR,AS-SALAM COLLEGE OF ENGINEERING AND TECHNOLOGY,THIRUMANGALAKUDI - ADUTHURAI THIRUVIDAIMARUTHUR - 612 102 THANJAVUR DISTRICT
735,TAMILNADU,SALEM,GANESH COLLEGE OF ENGINEERING,"ATTUR MAIN ROAD, METTUPATTI, SALEM"
736,TAMILNADU,DINDIGUL,ARINGER ANNA COLLEGE OF ENGINEERING AND TECHNOLOGY,"SF.NO.145/1A1,METTUPATTY VILLAGE,PALANI TALUK,DINDIGUL DIST, TAMILNADU"
737,TAMILNADU,KANYAKUMARI,DMI ENGINEERING COLLEGE,"KUMARAPURAM ROAD, ARALVAIMOZHI, KANYAKUMARI DIST-629301"
738,TAMILNADU,COIMBATORE,PARK COLLEGE OF TECHNOLOGY,"PREMA RAVI NAGAR, KARUMATHAMPATTY, COIMBATORE - 641659"
739,TAMILNADU,NAGAPATTINAM,SEMBODAI RUKMANI VARATHARAJAN ENGINEERING COLLEGE,"SEMBODAI-POST, VEDARANIAM-TK, NAGAPATTINAM-DT TAMILNADU-614 820."
740,TAMILNADU,DINDIGUL,CHRISTIAN COLLEGE OF ENGINEERING AND TECHNOLOGY,"CHRISTIAN COLLEGE OF ENGINEERING AND TECHNOLOGY, NEAR CHECK POST, ODDANCHATRAM - 624 619, DINDIGUL DISTRICT, TAMILNADU."
741,TAMILNADU,ERODE,AL-AMEEN ENGINEERING COLLEGE,"KARUNDEVANPALAYAM, NANJAI UTHUKKULI (POST) ERODE, ERODE DISTRICT, PINCODE-638104 TAMIL NADU"
742,TAMILNADU,TIRUCHIRAPPALLI,K RAMAKRISHNAN COLLEGE OF TECHNOLOGY,"KARIYAMANICKAM ROAD, MANNACHANALLUR TALUK"
743,TAMILNADU,TIRUNELVELI,THAMIRABHARANI ENGINEERING COLLEGE,"WARD-1 THATCHANALLUR, CHATTIRAM PUTHUKULLAM VILLAGE, VEPAKULLAM -CHIDHABRA NAGAR ROAD"
744,TAMILNADU,SALEM,SHREE SATHYAM COLLEGE OF ENGINEERING AND TECHNOLOGY,MANJAKKALPATTI KUPPANUR. POST SANKARI.TALUK SALEM. DISTRICT
745,TAMILNADU,DHARMAPURI,SHREENIVASA ENGINEERING COLLEGE,"B.PALLIPATTI, BOMMIDI, PAPPIREDDIPATTI TALUK, DHARMAPURI DISTRICT TAMILNADU."
746,TAMILNADU,KANCHIPURAM,APOLLO ENGINEERING COLLEGE,"MEVALOORKUPPAM, VALARPURAM POST, SRIPERUMBUDUR TALUK, KANCHIPURAM DISTRICT, TAMILNADU."
747,TAMILNADU,KANCHIPURAM,MOHAMED SATHAK A.J COLLEGE OF ENGINEERING,"#34,RAJIV GANDHI ROAD (OMR), IT HIGHWAY SIRUSERI, EGATTUR, CHENNAI. PIN-603 103"
748,TAMILNADU,COIMBATORE,KARPAGAM INSTITUTE OF TECHNOLOGY,"KARPAGAM INSTITUTE OF TECHNOLOGY S.F.NO:247,248. L&T BYPASS ROAD SEERAPALAYAM VILLAGE BODIPALAYAM POST COIMBATORE - 641 105 TAMILNADU"
749,TAMILNADU,VILUPPURAM,E.S.ENGINEERING COLLEGE,"CHENNAI TRUNK ROAD, AYYANKOILPATTU,"
750,TAMILNADU,ERODE,SURYA ENGINEERING COLLEGE,"PERUNDURAI ROAD, MANAL MEDU, METTUKADAI, KATHIRAMPATTI POST"
751,TAMILNADU,TIRUPPUR,ERODE BUILDER EDUCATIONAL TRUST'S GROUP OF INSTITUTIONS,EBET KNOWLEDGE PARK ERODE ROAD NATHAKADAIYUR KANGEYAM
752,TAMILNADU,PUDUKKOTTAI,M.A.R. COLLEGE OF ENGINEERING AND TECHNOLOLGY,"TRICHY - VIRALIMALAI MAIN ROAD BOOTHAKUDI, RASANAICKENPATTY PO, ILLUPPUR TALUK, PUDUKKOTTAI DISTRICT, 621 316. TAMIL NADU."
753,TAMILNADU,THANJAVUR,P.R.ENGINEERING COLLEGE,"THANJAVUR-TRICHY HIGH WAYS VALLAM,THANJAVUR."
754,TAMILNADU,KANCHIPURAM,ST.JOSEPH'S INSTITUTE OF TECHNOLOGY,"JEPPIAAR NAGAR, OLD MAMALLAPURAM ROAD, CHENNAI-600119"
755,TAMILNADU,PUDUKKOTTAI,SRI BHARATHI ENGINEERING COLLEGE FOR WOMEN,"ARANTHANGI ROAD,KAIKURICHI ALANGUDI TALUK, PUDUKKOTTAI DT,622 303"
756,TAMILNADU,TIRUNELVELI,PET ENGINEERING COLLEGE,THIRUCHENDUR ROAD VALLIOOR
757,TAMILNADU,TIRUVANNAMALAI,SRI RAMANA MAHARISHI COLLEGE OF ENGINEERING,"THUMBAI VILLAGE,CHEYYAR TALUK, THIRUVANNAMALAI DISTRICT,TAMIL NADU. PIN CODE 604407"
758,TAMILNADU,MADURAI,ULTRA COLLEGE OF ENGINEERING & TECHNOLOGY FOR WOMEN,"69/1, ULTRA NAGAR, KODIKULAM I BIT, MADURAI - CHENNAI HIGHWAY, MADURAI - 625 104, TAMIL NADU"
759,TAMILNADU,TIRUVANNAMALAI,KRS COLLEGE OF ENGINEERING,"ELANGADU,VANDAVASI,VANDAVASI TALUK,THIRUVANAMALAI DISTRICT-604408"
760,TAMILNADU,KANCHIPURAM,P.T.LEE CHENGALVARAYA NAICKER COLLEGE OF ENGINEERING & TECHNOLOGY,"OOVERY, VELIYUR POST, KANCHIPURAM, KANCHIPURAM DT. PIN : 631 502. TAMIL NADU, SOUTH INDIA."
761,TAMILNADU,TIRUNELVELI,CAPE INSTITUTE OF TECHNOLOGY,"RAJAKRISHNAPURAM POST, RADHAPURAM TALUK."
762,TAMILNADU,KANCHIPURAM,JEI MATHAAJEE COLLEGE OF ENGINEERING,"NO. 124, VISHAKANDIKUPPAM VILLAGE, SIRUVAKKAM POST KANCHIPURAM"
763,TAMILNADU,TIRUNELVELI,SARDAR RAJA COLLEGE OF ENGINEERING,"RAJA NAGAR, ALANGULAM, TIRUNELVELI DIST, TAMILNADU."
764,TAMILNADU,NAMAKKAL,MAHENDRA ENGINEERING COLLEGE FOR WOMEN,"KOMARAMANAGALAM POST, TIRUCHENGODE TALUK, NAMAKKAL DT"
765,TAMILNADU,SALEM,AVS ENGINEERING COLLEGE,"MILITARY ROAD, AMMAPET, SALEM"
766,TAMILNADU,KANYAKUMARI,BETHLAHEM INSTITUTE OF ENGINEERING,NADUTHERI KARUNGAL
767,TAMILNADU,KARUR,N.S.N. COLLEGE OF ENGINEERING AND TECHNOLOGY,N. S. N. KALVI NAGAR KARUR-MADURAI NH-7 MANALMEDU THALAPATTI(PO)
768,TAMILNADU,VIRUDHUNAGAR,MEPCO SCHLENK ENGINEERING COLLEGE,"SIVAKASI, MEPCO ENGINEERING COLLEGE POST - 626 005 VIRUDHUNAGAR DISTRICT, TAMILNADU"
769,TAMILNADU,CUDDALORE,KRISHNASAMY COLLEGE OF ENGINEERING & TECHNOLOGY,"NELLIKUPPAM MAIN ROAD, S. KUMARAPURAM, CUDDALORE, TAMIL NADU, SOUTH INDIA"
770,TAMILNADU,KANCHIPURAM,APOLLO PRIYADARSHANAM INSTITUTE OF TECHNOLOGY,"PANRUTTI, NEAR ORAGADAM JUNCTION, SRIPERUMBUDUR TALUK,KANCHIPURAM DT, TAMIL NADU"
771,TAMILNADU,TIRUPPUR,MAHARAJA PRITHVI ENGINEERING COLLEGE,"KUPPANADAMPALAYAM PO, PALANKARAI VILLAGE, AVINASHI TK, TIRUPUR DT-641654."
772,TAMILNADU,THIRUVARUR,ANJALAI AMMAL MAHALINGAM ENGINEERING COLLEGE,ANJALAI AMMAL MAHALINGAM ENGG COLLEGE KOVILVENNI
773,TAMILNADU,KANCHIPURAM,ARIGNAR ANNA INSTITUTE OF SCIENCE AND TECHNOLOGY,"PENNALUR, SRIPERUMBUDUR - 602 105, KANCHEEPURAM DIST, TAMILNADU."
774,TAMILNADU,NAMAKKAL,SSM COLLEGE OF ENGINEERING,"NH-47 SALEM MAIN ROAD, KOMARAPALAYAM NAMKKAL DISTRICT"
775,TAMILNADU,VIRUDHUNAGAR,P.S.R.ENGINEERING COLLEGE,"APPAYANAICKENPATTY, SEVALPATTY, SIVAKASI-626 140, VIRUDHUNAGAR(DIST)."
776,TAMILNADU,SALEM,SONA COLLEGE OF TECHNOLOGY,"SONA NAGAR, THIAGARAJAR POLYTECHNIC COLLEGE ROAD, SURAMANGALAM (PO), SALEM DISTRICT, TAMILNADU"
777,TELANGANA,ADILABAD,RGUKT- BASAR,"MUDHOLE MANDAL, ADILABAD DISTRICT. HEAD OFFICE: RGUKT VINDHYA C-4, IIIT-H CAMPUS, GACHIBOWLI, HYDERABAD."
778,TELANGANA,RANGAREDDI,VIVEKANANDA GROUP OF INSTITUTIONS,BATASINGARAM(VI) HAYATHNAGAR(M) RANGA REDDY DIST. 501511
779,TELANGANA,RANGAREDDI,MALLA REDDY COLLEGE OF ENGINEERING & TECHNOLOGY,"MAISAMMAGUDA, DHULAPALLY VILLAGE, (VIA) HAKIMPET, MEDCHAL MANDAL, R.R. DIST., SECUNDERABAD -500 014."
780,TELANGANA,RANGAREDDI,CMR ENGINEERING COLLEGE,KANDLAKOYA (V) MEDCHAL (M)
781,TELANGANA,HYDERABAD,JB INSTITUTE OF ENGINEERING AND TECHNOLOGY,"YENKAPALLY VILLAGE MOINABAD MANDAL, RANGA REDDY DISTRICT ANDHRA PRADESH"
782,TELANGANA,RANGAREDDI,SIDDHARTHA INSTITUTE OF TECHNOLOGY AND SCIENCES,"NARAPALLY, KORREMULA ROAD, GHATAKESAR MANDAL, RANGA REDDY DIST. HYDERABAD-501301. ANDHRA PRADESH."
783,TELANGANA,KARIMNAGAR,SINDHURA COLLGE OF ENGINEERING & TECHNOLOGY,"MEDIPALLY, GODAVARIKHANI KARIMNAGAR ( DISTRICT ) AP 505209"
784,TELANGANA,RANGAREDDI,JOGINPALLY B.R. ENGINEERING COLLEGE,"SURVEY NO.220/221, YENKAPALLY VILLAGE, HIMAYATNAGAR POST, MOINABAD MANDAL, RANGA REDDY DISTRICT. HYDERABAD...."
785,TELANGANA,RANGAREDDI,KRISHNA MURTHY INSTITUTE OF TECHNOLOGY & ENGINEERING,"SY.NO. 23 & 39, EDULABAD VILLAGE, GHATKESAR MANDAL RANGA REDDY DISTRICT, ANDHRA PRADESH, PIN: 501 301."
786,TELANGANA,RANGAREDDI,INTERNATIONAL INSTITUTE OF INFORMATION TECHNOLOGY,PROF. C R RAO ROAD GACHIBOWLI
787,TELANGANA,KARIMNAGAR,SREE CHAITANYA COLLEGE OF ENGINEERING,"LMD COLONY, THIMMAPOOR VILLAGE, THIMMAPOOR TEHSILDHAR, KARIMNAGAR DIST."
788,TELANGANA,RANGAREDDI,GURU NANAK INSTITUTE OF TECHNOLOGY,"KHANAPUR, MANCHAL MANDAL, IBRAHIMPATNAM,"
789,TELANGANA,RANGAREDDI,DRK COLLEGE OF ENGINEERING & TECHNOLOGY,"BOWPAMPET,VIA AIRFORCE ACADEMY, ON MIYAPUR MEDCHEL HIGHWAY."
790,TELANGANA,WARANGAL,SUJALA BHARATI INSTITUTE OF TECHNOLOGY,H.NO 2-4/1 MAIN ROAD NH 202 VIA MULUGU ROAD OGULAPUR
791,TELANGANA,KHAMMAM,LAQSHYA INSTITUTE OF TECHNOLOGY & SCIENCES,LAQSHYA INSTITUTE OF TECHNOLOGY & SCIENCES TANIKELLA(V) KONIJERLA(M) KHAMMAM(DIST)
792,TELANGANA,WARANGAL,WARANGAL INSTITUTE OF TECHNOLOGY & SCIENCE,GUDEPADU - PARAKAL ROAD OORUGONDA (V) ATHMAKUR TASHIL WARANGAL ANDHRA PRADESH 506 342
793,TELANGANA,KARIMNAGAR,NIGAMA ENGINEERING COLLEGE,SAMBAIAHPALLY VILLAGE SULTANABAD MANDAL KARIMNAGAR DISTRICT
794,TELANGANA,RANGAREDDI,FARAH INSTITUTE OF TECHNOLOGY,"SY NO. 103 & 104,SHABAD ROAD CHEVELLA,RANGA REDDY DISTRICT ANDHRA PRADESH PIN 501503"
795,TELANGANA,NALGONDA,KHADER MEMORIAL COLLEGE OF ENGINEERING & TECHNOLOGY,"KONDA BHEEMANPALLY(V), DEVARAKONDA(M), NALGONDA DISTRICT - 508248. ANDHRA PRADESH, INDIA"
796,TELANGANA,MEDAK,MEDAK COLLEGE OF ENGINEERING & TECHNOLOGY,"KONDAPAK VILLAGE & MANDAL, SIDDIPET DIVISION, MEDAK DISTRICT, ANDHRA PRADESH PIN NO. 502372"
797,TELANGANA,RANGAREDDI,SWATHI INSTITUTE OF TECHNOLOGY AND SCIENCES,KOTHAGUDEM X ROADS BATA SINGARAM NEAR RAMOJI FILM CITY HYDERABAD - 501512 RANGA REDDY DISTRICT ANDHRA PRADESH
798,TELANGANA,RANGAREDDI,ROYAL INSTITUTE OF TECHNOLOGY & SCIENCE,"SURVEY NO 54, DAMERGIDDA CHEVELLA."
799,TELANGANA,HYDERABAD,UNIVERSITY COLLEGE OF ENGINEERING,OSMANIA UNIVERSITY HYDERABAD
800,TELANGANA,RANGAREDDI,JYOTHISHMATHI COLLEGE OF ENGINEERING & TECHNOLOGY,"TURKAPALLY(V), SHAMIRPET(M), R.R DIST"
801,TELANGANA,RANGAREDDI,DRK INSTITUTE OF SCIENCE AND TECHNOLOGY,"BOWRAMPET (V), VIA AIR FORCE ACADEMY QUTBALLAPUR MANDAL RANGA REDDY DIST. 500043"
802,TELANGANA,WARANGAL,PRASAD ENGINEERING COLLEGE,PRASAD ENGINEERING COLLEGE SHAMEERPET(VILLAGE) JANGAON(MDL) WARANGAL(DIST) ANDHRA PRADESH(STATE) INDIA
803,TELANGANA,KARIMNAGAR,TRINITY COLLEGE OF ENGINEERING & TECHNOLOGY,KARIMNAGAR-505001
804,TELANGANA,RANGAREDDI,ARJUN COLLEGE OF TECHNOLOGY AND SCIENCE,"SYS NO 367/7,BATASINGARAM (V) HAYATHNAGAR (M) R.R.DIST , A.P. PIN: 501 512"
805,TELANGANA,RANGAREDDI,AVANTHIS SCIENTIFIC TECHNOLOGICAL & RESEARCH ACADEMY,"GUNTHAPALLY VILLAGE,HAYATH NAGAR MANDAL NEAR RAMOJI FILM CITY,R.R.DIST.,HYDERABAD, ANDHRA PRADESH."
806,TELANGANA,RANGAREDDI,ST. MARY'S GROUP OF INSTITUTIONS HYDERABAD,"NEAR RAMOJI FILM CITY, BEHIND MOUNT OPERA, DESHMUKHI (V), POCHAMPALLY (M), NALGONDA (DT) & BATASINGARAM (V), HAYATHNAGAR (M), RANGA REDDY DISTRICT, GR"
807,TELANGANA,WARANGAL,VINUTHNA INSTITUTE OF TECHNOLOGY AND SCIENCE,"VILLAGE: HASANPARTHY, MANDAL: HASANPARTHY DIST: WARANGAL PIN: 506371"
808,TELANGANA,RANGAREDDI,DR. VRK WOMENS COLLEGE OF ENGINEERING & TECHNOLOGY,"AZIZ NAGAR,MOINABAD, RANGA REDDY DIST- 500075"
809,TELANGANA,RANGAREDDI,AMINA INSTITUTE OF TECHNOLOGY,"GHOUSE NAGAR, BABGUDA,ROAD SHAMIRPET, RR. DIST. A.P"
810,TELANGANA,KHAMMAM,SARADA INSTITUTE OF TECHNOLOGY AND SCIENCE,SARADA NAGAR RAGUNADHAPALEM KHAMMAM URBAN MANDAL KHAMMAM DIST ANDHRA PRADESH
811,TELANGANA,RANGAREDDI,ASIFIA COLLEGE ENGINEERING AND TECHNOLOGY,"SY. NO 186 & 187, CHINTULA(V), YACHARAM(M), IBRAHIMPATAN, RAGA REDDY, DIST."
812,TELANGANA,RANGAREDDI,MALLA REDDY INSTITUTE OF TECHNOLOGY,"MAISAMMAGUDA, DHULAPALLY (POST VIA HAKIMPET)"
813,TELANGANA,RANGAREDDI,SHADAN COLLEGE OF ENGINEERING & TECHNOLOGY,"PEERANCHERU, HIMAYAT SAGAR ROAD, HYDERABAD"
814,TELANGANA,RANGAREDDI,NARSIMHAREDDY ENGINEERING COLLEGE,"SY.NO: 518 MAISAMMAGUDA(V), DULLAPALLE, MEDCHAL MANDAL RANGAREDDY DISTRICT"
815,TELANGANA,RANGAREDDI,ST MARTIN'S ENGINEERING COLLEGE,ST. MARTIN'S ENGINEERING COLLEGE DHULAPALLY VILLAGE QUTABULLAPUR MANDAL R.R.DIST SECUNDERABAD 500 014 ANDHRA PRADESH
816,TELANGANA,NIZAMABAD,ARKAY COLLEGE OF ENGINEERING & TECHNOLOGY,SIVAR ACHANPALLY BODHAN DIST.NIZAMABAD ANDHRA PRADESH
817,TELANGANA,RANGAREDDI,BHARAT ENGINEERING COLEGE,"MANGALPALLY(V), IBRAHIMPATNAM(M), R.R. DIST(AP)-501510"
818,TELANGANA,RANGAREDDI,NALLA NARASIMHA REDDY EDUCATION SOCIETY'S GROUP OF INSTITUTIONS,"KORREMULA 'X' ROAD, CHOWDARIGUDA (VILLAGE), GHATKESAR (MANDAL), RANAGA REDDY (DIST)."
819,TELANGANA,RANGAREDDI,SLC'S INSTITUTE OF ENGINEERING & TECHNOLOGY,SY.NO. 17/2 PIGLIPUR(V) HAYATHNAGAR(M) NEAR RAMOJI FILM CITY
820,TELANGANA,MEDAK,MAHESHWARA ENGINEERING COLLEGE,"CHITKUL VILLAGE ISNAPUR 'X' ROADS, PATANCHERU MEDAK DIST"
821,TELANGANA,HYDERABAD,METHODIST COLLEGE OF ENGINEERING & TECHNOLOGY,"# 4-1-1001, 4-1-1-45, 878-B4, 3-2, KING KOTI ROAD, ABIDS, HYDERABAD - 500001"
822,TELANGANA,RANGAREDDI,CHAITANYA BHARATHI INSTITUTE OF TECHNOLOGY,"CHAITANYA BHARATHI POST, GANDIPET, KOKAPET(VILL.) HYDERABAD. 500075"
823,TELANGANA,RANGAREDDI,SAMSKRUTI COLLEGE OF ENGINEERING AND TECHNOLOGY,"KONDAPUR VILLAGE, GHATKESAR MANDAL R.R.DIST., PIN - 501301"
824,TELANGANA,RANGAREDDI,VIGNAN'S INSTITUTE OF MANAGEMENT AND TECHNOLOGY FOR WOMEN,"KONDAPUR VILLAGE, GHATKESAR MANDAL, RANGA REDDY DISTRICT, PIN: 501301"
825,TELANGANA,KARIMNAGAR,VAAGESWARI COLLEGE OF ENGINEERING,"BESIDE LMD POLICE STATION, RAMAKRISHNA COLONY"
826,TELANGANA,RANGAREDDI,P R R MEMORIAL ENGINEERING COLLEGE,"POST & MANDAL: SHABAD, DIST: RANGA REDDY, ANDHRA PRADESH PIN CODE: 509 217."
827,TELANGANA,WARANGAL,AURORA'S RESEARCH & TECHNOLOGICAL INSTITUTE,SHAYAMPET HUNTER ROAD WARANGAL - 506001
828,TELANGANA,NALGONDA,LUMBINI GROUP OF INSTITUTIONS,"POST: ANANTHARAM, BHONGIR (MANDAL), NALGONDA(DIST)"
829,TELANGANA,MEDAK,MNR COLLEGE OF ENGINEERING & TECHNOLOGY,"MNR NAGAR, NARSAPUR ROAD, FASALWADI, SANGAREDDY MANDAL, MEDAK DIST, AP-502294"
830,TELANGANA,NIZAMABAD,KAKATIYA INSTITUTE OF TECHNOLOGY AND SCIENCE FOR WOMEN,MANIK BHANDAR ARMOOR ROAD NIZAMABAD
831,TELANGANA,NALGONDA,SREE VAANMAYI INSTITUTE OF ENGINEERING AND TECHNOLOGY,"ANNAMPATLA VILLAGE,BIBINAGAR(M),NALGONDA(DIST),ANDHRAPRADESH-508126"
832,TELANGANA,HYDERABAD,STANLEY COLLEGE OF ENGINEERING & TECHNOLOGY FOR WOMEN,"# 5-9-78 TO 82, B-1-80 & 5-9-81, CHAPEL ROAD, ABIDS, HYDERABAD - 500001"
833,TELANGANA,RANGAREDDI,MALLA REDDY ENGINEERING COLLEGE AND MANAGEMENT SCIENCES,"KISTAPUR, HAMLET OF MEDCHAL (V&M), RR DISTRICT, ANDHRA PRADESH. PIN: 501401."
834,TELANGANA,KARIMNAGAR,JNTUH COLLEGE OF ENGINEERING,NACHUPALLY(KONDAGATTU) KODIMIAL (M) KARIMNAGAR (DT)
835,TELANGANA,NALGONDA,VATHSALYA INSTITUTE OF SCIENCE & TECHNOLOGY,"ANANTHARAM (POST), BHONGIR (MANDAL), NALGONDA DIST. ANDHRA PRADESH, PIN 508116."
836,TELANGANA,WARANGAL,VAAGDEVI COLLEGE OF ENGINEERING,BOLLIKUNTA (VILLAGE) SANGEM (MANDAL) WARANGAL (DIST.) - 506 005
837,TELANGANA,MEDAK,SYED HASHIM COLLEGE OF SCIENCE & TECHNOLOGY,RAJIV RAHDARI MARG PRAGNAPUR GAJWEL MANDAL MEDAK DISTRICT ANDHRA PRADESH
838,TELANGANA,MAHABUBNAGAR,NOOR COLLEGE OF ENGINEERING AND TECHNOLOGY,"NOOR GATE, SOLIPUR VILLAGE, AMANGAL ROAD, FAROOQNAGAR MANDAL , SHADNAGAR, MAHABUBNAGAR DISTRICT"
839,TELANGANA,RANGAREDDI,BHARAT INSTITUTE OF ENGINEERING AND TECHNOLOGY,MANGALPALLY (VILLAGE) IBRAHIMPATNAM (MANDAL) RANGA REDDY (DISTRICT)
840,TELANGANA,RANGAREDDI,GEETHANJALI COLLEGE OF ENGINEERING AND TECHNOLOGY,"CHEERYAL VILLAGE, KEESARA MANDAL , RANGA REDDY DISTRICT, ANDHRA PRADESH."
841,TELANGANA,KHAMMAM,VIJAYA ENGINEERING COLLEGE,"AMMAPALEM, NEAR THANIKELLA KONIJERLA (M), KHAMMAM - 507305"
842,TELANGANA,RANGAREDDI,VIJAYA KRISHNA INSTITUTE OF TECHNOLOGY & SCIENCES,"PALAMAKULA(V), SHAMSHABAD(M), RANGA REDDY DT. 501218"
843,TELANGANA,RANGAREDDI,MARRI LAXMAN REDDY INSTITUTE OF TECHNOLOGY AND MANAGEMENT,"MARRI EDUCATIONAL SOCIETY'S GROUP OF INSTITUTIONS MARRI LAXMAN REDDY INSTITUTE OF TECHNOLOGY & MANAGEMENT DUNDIGAL (V), QUTHBULLAPUR (M), HYDERABAD"
844,TELANGANA,RANGAREDDI,VIGNANA BHARATHI INSTITUTE OF TECHNOLOGY,"AUSHAPUR VILLAGE, GHATKESAR MANDAL, RANGA REDDY DISTRICT, PIN - 501 301"
845,TELANGANA,KHAMMAM,ABDULKALAM INSTITUTE OF TECHNOLOGICAL SCIENCES,"ABDULKALAM INSTITUTE OF TECHNOLOGICAL SCIENCES, VEPALAGADDA,KOTHAGUDEM, KHAMMAM DT ANDRAPRADESH"
846,TELANGANA,NALGONDA,ARVINDAKSHA EDUCATIONAL SOCIETY'S GROUP OF INSTITUTIONS,"BALEMLA SURYAPET, NALGONDA DIST PIN CODE: 508 376 ANDHRA PRADESH"
847,TELANGANA,RANGAREDDI,SYMBIOSIS INSTITUTE OF TECHNOLOGY & SCIENCE,"SHAMIRPET, RANGA REDDY DIST, A.P"
848,TELANGANA,RANGAREDDI,AURORA'S TECHNOLOGICAL INSTITUTE,"GAGILLAPUR, QUTUBULLAPUR, RANGA REDDY"
849,TELANGANA,WARANGAL,JAYAMUKHI INSTITUTE OF TECHNOLOGICAL SCIENCES,"CHENNARAOPET(MDL), MOQDUMPURAM(VILL), NARSAMPET,WARANGAL(DIST) ANDHRAPRADESH."
850,TELANGANA,RANGAREDDI,SRI INDU COLLEGE OF ENGINEERING & TECHNOLOGY,"SHERIGUDA(V), IBRAHIMPATNAM(M), RANGA REDDY DIST - 501 510."
851,TELANGANA,RANGAREDDI,AL HABEEB COLLEGE OF ENGINEERING AND TECHNOLOGY,"DAMERGIDDA(V), CHEVELLA(M),R.R.DIST-501503"
852,TELANGANA,NALGONDA,AURORA'S TECHNOLOGICAL & MANAGEMENT ACADEMY,"PARVATHAPUR (V), GHATKESAR (M), RANGA REDDY DIST."
853,TELANGANA,NALGONDA,KBR ENGINEERING COLLEGE,"PAGIDIPALLY VILLAGE, BHOVANAGIRI MANDAL, NALGONDA DISTRICT"
854,TELANGANA,NALGONDA,DHRUVA INSTITUTE OF ENGINEERING AND TECHNOLOGY,"TOOPRANPET (V).NEAR RAMOJI FILM CITY CHOUTUPPAL (MD), NALGONDA(DT), A.P. PIN-508252."
855,TELANGANA,KHAMMAM,DARIPALLY ANANTHA RAMULU COLLEGE OF ENGINEERING AND TECHNOLOGY,"DARE CAMPUS, KURAVI ROAD, KHAMMAM TOWN"
856,TELANGANA,HYDERABAD,VASAVI COLLEGE OF ENGINEERING,"9-5-81, IBRAHIMBAGH, HYDERABAD"
857,TELANGANA,WARANGAL,KAKATIYA INSTITUTE OF TECHNOLOGY & SCIENCE,OPP: YERRAGATTU HILLOCK BHEEMARAM VILLAGE HASANPARTHY MANDAL WARANGAL DISTRICT - 506015
858,UTTARPRADESH,MEERUT,SHREE BANKEY BIHARI INSTITUTE OF TECHNOLOGY,MEERUT-HAPUR BYPASS MEERUT (U.P.)
859,UTTARPRADESH,MEERUT,SUBHARTI INSTITUTE OF TECHNOLOGY AND ENGINEERING,NH-58 SUBHARTIPURAM DELHI-MEERUT-HARDIWAR BY PASS ROAD
860,UTTARPRADESH,SULTANPUR,RAJARSHI RANANJAY SINH INSTITUTE OF MANAGEMENT & TECHNOLOGY,"RAJARSHI NAGAR, MUNSHIGANJ"
861,UTTARPRADESH,MATHURA,HINDUSTASN COLLEGE OF SCIENCE & TECHNOLOGY,"NH#2, AGRA DELHI HIGHWAY, FARAH, MATHURA"
862,UTTARPRADESH,BARABANKI,JAHANGIRABAD EDUCATIONAL TRUST GROUP OF INSTITUTIONS,"JAHANGIRABAD FORT, JAHANGIRABAD,BARABANKI,UP-225203"
863,UTTARPRADESH,ALLAHABAD,HMFA MEMORIAL INSTITUTE OF ENGG & TECH.,"KARARI BHADAILY, HANDIA, ALLAHABAD"
864,UTTARPRADESH,LUCKNOW,GOEL INSTITUTE OF TECHNOLOGY & MANAGEMENT,"NEAR INDIRA CANAL, FAIZABAD ROAD, LUCKNOW-227105"
865,UTTARPRADESH,SAHARANPUR,STALLION COLLEGE FOR ENGINEERING AND TECHNOLOGY,"RASOOLPUR-MEERPUR, TEHSIL-BEHAT"
866,UTTARPRADESH,GAUTHAM BUDDHA NAGAR,I.T.S ENGINEERING COLLEGE,"PLOT NO 46, KNOWLEDGE PARK-III,"
867,UTTARPRADESH,BULANDSHAHAR,BABU BANARSI DAS INSTITUTE OF ENGINEERING TECHNOLOGY & RESEARCH CENTRE,"25TH KM, ON BULANDSHAHR ANOOPSHAHR ROAD, NEAR JAHANGIRABAD, BULANDSHAHR, (NATIONAL CAPITAL REGION) 202391"
868,UTTARPRADESH,ALIGARH,VISION INSTITUTE OF TECHNOLOGY,"SHAHPUR, MADROK ALIGARH-AGRA HIGHWAY ALIGARH"
869,UTTARPRADESH,GAUTAM BUDDHA NAGAR,NOIDA INSTITUTE OF ENGINEERING & TECHNOLOGY,"19, KNOWLEDGE PARK-II, INSTITUTIONAL AREA, GREATER NOIDA-201306"
870,UTTARPRADESH,GHAZIABAD,VIVEKANAND INSTITUTE OF TECHNOLOGY & SCIENCE,"33-34 KM. MILE STONE, N.H. - 24, DELHI - HAPUR BY PASS, JINDAL NAGAR, GHAZIABAD"
871,UTTARPRADESH,MEERUT,"SHRIRAM INSTITUTE OF TECHNOLOGY , MEERUT","NH-58 ,DELHI-ROORKEE BY PASS ROAD NEAR SARDHANA CROSSING,JATTOLI,MEERUT- 250001"
872,UTTARPRADESH,LUCKNOW,BANSAL INSTITUTE OF ENGINEERING AND TECNOLOGY,"NH-24, BEHIND SEWA HOSPITAL, SITAPUR ROAD, LUCKNOW"
873,UTTARPRADESH,LUCKNOW,M.G. INSTITUTE OF MANAGEMENT & TECHNOLOGY,GRAM KHANDEDEV
874,UTTARPRADESH,KAUSHAMBI,MADHU VACHASPATI INSTITUTE OF ENGIENEERING & TECHNOLOGY,"VILL: RASOOLABAD, KOILAHA, G.T.ROAD, KAUSHAMBI"
875,UTTARPRADESH,J P NAGAR,AMANI GROUP OF INSTITUTIONS,BIJNOR ROAD AMROHA
876,UTTARPRADESH,AGRA,DR. Z.H. INSTITUTE OF TECHNOLOGY & MANAGEMENT,NEAR ETMADPUR RAILWAY OVER BRIDGE NH 2 AGRA TUNDA FIROZABAD- 283202
877,UTTARPRADESH,LUCKNOW,DNM INSTITUTE OF ENGINEERING & TECHNOLOGY,"VILLAGE- SARAI SHEHZADI, PARGANA- BIJNAUR, P.O. BANTHARA LUCKNOW PIN- 227101"
878,UTTARPRADESH,BULANDSHAHAR,BRAHMANAND INSTITUTE OF RESEARCH TECHNOLOGY AND MANAGEMENT,MOHHMAD KARIMPUR(DHANKAR-KHABRA ROAD ) VILLAGE- MOHHMAD KARIMPUR(DHANKAR) TEHSIL-KHURJA
879,UTTARPRADESH,BIJNOR,R V INSTITUTE OF TECHNOLOGY,"VILLAGE ALHEDADPUR, 9TH KM MILESTONE, BIJNOR MORADABAD ROAD, BIJNOR, UTTAR PRADESH-246701"
880,UTTARPRADESH,GHAZIABAD,LORD KRISHNA COLLEGE OF ENGINEERING,"16KM STONE, GHAZIABAD-HAPUR ROAD, MAIN NATIONAL HIGHWAY-24, VILLAGE-CHIJARSI KULICH NAGAR, GHAZIABAD, U.P."
881,UTTARPRADESH,RAMABAI NAGAR (KANPUR DEHAT),PRABHAT ENGINEERING COLLEGE,"NATIONAL HIGHWAY-II, RANIA,BARA, KANPUR DEHAT-209304"
882,UTTARPRADESH,BAREILLY,PREM PRAKASH GUPTA INSTITUTE OF ENGINEERING,"16.1 KM.STONE, BAREILLY LUCKNOW ROAD"
883,UTTARPRADESH,JYOTIBA PHULE NAGAR,LANDMARK TECHNICAL CAMPUS,VILLAGE DIDAULI DELHI MORADABAD ROAD
884,UTTARPRADESH,GHAZIABAD,INTERNATIONAL COLLEGE OF ENGINEERING,"VILL. : DIDOLI, MURADNAGAR, GHAZIABAD"
885,UTTARPRADESH,BAREILLY,FOCUS INSTITUTE OF ENGINEERING & MANAGEMENT,"19TH KM. STONE, NH-24,RAMPUR ROAD, FATEHGANJ WEST ,BAREILLY"
886,UTTARPRADESH,BAREILLY,FUTURE INSTITUTE OF ENGINEEING & TECHNOLOGY,"NH-24, BAREILLY LUCKNOW ROAD, NEAR FARIDPUR, BAREILLY"
887,UTTARPRADESH,GHAZIABAD,RAJ KUMAR GOEL ENGINEERING COLLEGE,"40 KM STONE NH-24 DELHI HAPUR ROAD, PILKHUWA, GHAZIABAD"
888,UTTARPRADESH,JYOTIBA PHULE NAGAR,MAHARAJA AGRASEN COLLEGE OF ENGG. & TECHNOLOGY,"10 TH KM. BAGARPUR MAFEE, GAJRAULA, DHANAURA, J.P NAGAR-244236 (UP)"
889,UTTARPRADESH,LUCKNOW,COLLEGE OF ENGINEERING SCIENCE & TECHNOLOGY,"GAURA, MOHANLALGANJ, LUCKNOW"
890,UTTARPRADESH,HATHRAS,MASS COLLEGE OF ENGINEERING & MANAGEMENT,"VILLAGE & POST SUSYANT KALA, ALIGARH-AGRA ROAD, NEAR MANGALATAYAN, SASNI, HATHRAS"
891,UTTARPRADESH,RAMABAI NAGAR (KANPUR DEHAT),KAMAL INSTITUTE OF TECHNOLOGY,"PITAMPUR, NH-2, KANPUR DEHAT"
892,UTTARPRADESH,GAUTAM BUDDHA NAGAR,IIMT COLLEGE OF ENGINEERING,"PLOT NO A-20, KP-III, GREATER NOIDA"
893,UTTARPRADESH,MEERUT,SHRINATHJI INSTITUTE FOR TECHNICAL EDUCATION,"GHAT ROAD,DELHI-ROORKEE BYPASS NH-58 MEERUT UP 250103"
894,UTTARPRADESH,LUCKNOW,SR INSTITUTE OF MANAGEMENT& TECHNOLOGY,"BHAISAMAU, BAKSHI KA TALAB, LUCKNOW"
895,UTTARPRADESH,SULTANPUR,"KAMLA NEHRU INSTITUTE OF TECHNOLOGY , SULTANPUR","KAMLA NEHRU INSTITUTE OF TECHNOLOGY, SULTANPUR 228118 (U.P)"
896,UTTARPRADESH,GHAZIABAD,HI-TECH INSTITUTE OF ENGINEERING & TECHNOLOGY,"766, 26TH KM, DELHI-HAPUR BYPASS, NH-24"
897,UTTARPRADESH,KANPUR NAGAR,KANPUR INSTITUTE OF TECHNOLOGY,A-1 UPSIDC INDUSTRIAL AREA ROOMA
898,UTTARPRADESH,MUZAFFARNAGAR,BHAGWANT INSTITUTE OF TECHNOLOGY,"BHAGWANTPURAM, 17TH MILE STONE BIJNOR-DELHI HIGHWAY DISTT.- MUZAFFARNAGAR (U.P.)-251315"
899,UTTARPRADESH,GAUTAM BUDDHA NAGAR,SARVOTTAM INSTITUTE OF TECHNOLOGY & MANAGEMENT,"PLOT NO. 6,TECH ZONE IV NOIDA EXT."
900,UTTARPRADESH,MEERUT,MAHAVEER INSTITUTE OF ENGINEERING AND TECHNOLOGY,"VILLAGE-POHALLI,POST OFFICE-DABATHUWA,TEHSIL-SARDHANA,MEERUT"
901,UTTARPRADESH,BAREILLY,RAJSHREE INSTITUTE OF MANAGEMENT & TECHNOLOGY,"VILLAGE-LABHERA TEHSIL-NAWABGANJ,BAREILLY"
902,UTTARPRADESH,KANPUR NAGAR,MAHARANA PRATAP ENGINEERING COLLEGE,"430, INDRAPURI, SHARDA NAGAR, KANPUR U.P."
903,UTTARPRADESH,KANPUR NAGAR,HARCOURT BUTLER TECHNOLOGICAL INSTITUTE,NAWABGANJ
904,UTTARPRADESH,GAUTAM BUDDHA NAGAR,ACCURATE INSTITUTE OF MANAGEMENT & TECHNOLOGY,"PLOT NO. 49, KNOWLEDGE PARK-III"
905,UTTARPRADESH,UNNAO,MAHATMA GANDHI UNIVERSE INSTITUTE (MGUI),"MILE STONE -46, NH#25 LUCKNOW- KANPUR HIGHWAY JAGDISHPUR NAWABGANJ AJGAIN, UNNAO"
906,UTTARPRADESH,MEERUT,"SHANTI INSTITUTE OF TECHNOLOGY (B.TECH,CS, IT, EC, ME, CE, EE) & MBA","SHANTI PURAM, KURALI BAGHPAT ROAD, MEERUT- 250501"
907,UTTARPRADESH,MEERUT,SVS GROUP OF INSTITIONS,"SVS EDUCATIONAL VILLAGE,GANGA NAHAR"
908,UTTARPRADESH,RAE BARELI,FEROZE GANDHI INSTITUTE OF ENGG. & TECHNOLOGY,"RATAPUR CHURAHA, RAEBARELI"
909,UTTARPRADESH,JHANSI,INSTITUTE OF ENGINEERING & TECHNOLOGY,"BUNDELKHAND UNIVERSITY CAMPUS, KANPUR ROAD, JHANSI"
910,UTTARPRADESH,MEERUT,KITE GROUP OF INSTITUTIONS,"NH58, OPPOSITE ANSAL TOWNSHIP MAIN GATE, BYE-PASS MEERUT"
911,UTTARPRADESH,VARANASI,SARASWATI HIGHER EDUCATION AND TECHNICAL COLLEGE OF ENGINEERING,NH-56 AIRPORT ROAD NR GAS PLANT BABATPUR VARANASI
912,UTTARPRADESH,LUCKNOW,LUCKNOW MODEL INSTITUTE OF TECHNOLOGY & MANAGEMENT,"LUCKNOW MODEL INSTITUTE OF TECHNOLOGY & MANAGEMENT 4.0 K.M. STONE MOHANLALGANJ - KANPUR ROAD BYPASS VILLAGE: BHASANDA, PARGANA - NIGOHA TEHSIL: MOH"
913,UTTARPRADESH,GAUTAM BUDDHA NAGAR,MGM'S COLLEGE OF ENGINEERING AND TECHNOLOGY,"A-9, SECTOR-62, NOIDA"
914,UTTARPRADESH,UNNAO,DR. VIRENDRA SWARUP MEMORIAL TRUST GROUP OF INSTITUTION,"RAGENDRA SWARUP KNOWLEDGE CITY, LUCKNOW KANPUR NATIONAL HIGHWAY 25, POLE NO. 70-71, KADER PATARI, UNNAO"
915,UTTARPRADESH,LUCKNOW,SURYA SCHOOL OF PLANNING & ENGINEERING MANAGEMENT,"RAIBAREILLY ROAD, GAURA, MOHANLALGANJ, LUCKNOW-227305"
916,UTTARPRADESH,AGRA,"CHAUDHARY BEERI SINGH COLLEGE OF ENGINEERING & MANAGEMENT, AGRA","CH. BEERI SINGH COLLEGE OF ENGINEERING & MANAGEMENT, POIYA, NEAR 400 KV SUB STATION, PILI POKHAR, ALIGARH ROAD, AGRA-282006"
917,UTTARPRADESH,BARABANKI,SHERWOOD COLLEGE OF ENGINEERING RESEARCH & TECHNOLOGY,"LUCKNOW FAIZABAD ROAD, VILL. - DHARSANIYA"
918,UTTARPRADESH,MEERUT,NEELKANTH INSTITUTE OF TECHNOLOGY,"NH-58, NEAR SVBP AGRICULTURE UNIVERISTY,MEERUT"
919,UTTARPRADESH,MEERUT,GYAN BHARTI INSTITUTE OF TECHNOLOGY,"GYAN NAGAR, OPP. ANSAL SUSHANT CITY, NH-58, PARTAPUR BY-PASS ROAD, MEERUT-250002"
920,UTTARPRADESH,BAREILLY,SHRI JEET RAM SMARAK INSTITUTE OF ENGINEERING & TECHNOLOGY,VILL. KHATA BHANDSAR ROAD PO-BHANDSAR RITHORA
921,UTTARPRADESH,BAREILLY,A.N.A COLLEGE OF ENGINEERING AND MANAGEMENT STUDIES,"VILLAGE KURTARA , AGRAS ROAD, BEHIND RUBBER FACTORY P.O. BHITAURA BAREILLY - 243501 U.P."
922,WESTBENGAL,KOLKATA,ST. THOMAS' COLLEGE OF ENGINEERING & TECHNOLOGY,"4, DIAMOND HARBOUR ROAD, KOLKATA,WEST BENGAL, PIN - 700023"
923,WESTBENGAL,HOWRAH,"BENGAL ENGINEERING AND SCIENCE UNIVERSITY, SHIBPUR","P.O. BOTANIC GARDEN, SHIBPUR, HOWRAH"
924,WESTBENGAL,HOOGHLY,ACADEMY OF TECHNOLOGY,"G. T. ROAD, ADISAPTAGRAM P.O:AEDCONAGAR DIST-HOOGHLY WEST BENGAL"
925,WESTBENGAL,NORTH 24 PARGANAS,REGENT EDUCATION & RESEARCH FOUNDATION GROUP OF INSTITUTIONS,"BARA KANTHALIA, P.O: SEWLI TELINI PARA, P.S: TITAGARH NORTH 24 PARGANAS,"
926,WESTBENGAL,SOUTH 24 PARGANAS,BUDGE BUDGE INSTITUTE OF TECHNOLOGY,NISCHINTAPUR BUDGE BUDGE
927,WESTBENGAL,BARDHAMAN,TECHNO INDIA DURGAPUR,"BEHIND B.D.O. OFFICE, P.O.- PANAGARH BAZAR, DIST.- BURDWAN, PIN - 713148 (W.B.)"
928,WESTBENGAL,MALDA,GHANI KHAN CHOUDHURY INSTITUTE OF ENGINEERING AND TECHNOLOGY,"VILL. & P.O. KOTWALI, DIST. MALDA"
929,WESTBENGAL,SOUTH 24 PARGANAS,"NEOTIA INSTITUTE OF TECHNOLOGY ,MANAGEMENT AND SCIENCE",DIAMOND HARBOUR ROAD P.O.: AMIRA SOUTH 24 PARGANAS WEST BENGAL PIN-743368
930,WESTBENGAL,SOUTH 24 PARGANAS,HERITAGE INSTITUTE OF TECHNOLOGY,"994, MADURDAHA, CHOWBAGA ROAD, ANANDAPUR P.O. EAST KOLKATA TOWNSHIP"
931,WESTBENGAL,KOLKATA,BENGAL INSTITUTE OF TECHNOLOGY,"TECH TOWN, DHAPA MANPUR ON BASANTI HIGHWAY, PO-HADIA, KOLKATA - 700150"
932,WESTBENGAL,SOUTH 24 PARGANAS,TECHNO INDIA-BATANAGAR,"PUTKHALI, WARD NO.- 30, HOLDING NO.- B7-360/NEW"
933,WESTBENGAL,HOOGHLY,SAROJ MOHAN INSTITUTE OF TECHNOLOGY,"BADHAGACHI, GUPTIPARA HOOGHLY PIN-712512"
934,WESTBENGAL,KOLKATA,JADAVPUR UNIVERSITY,"MAIN CAMPUS: 188, RAJA S. C. MALLIK ROAD, JADAVPUR, KOLKATA - 700032 SECOND CAMPUS: PL - 8, BL - LB, SECTOR - III, SALT LAKE, KOLKATA - 700098"
935,WESTBENGAL,BARDHAMAN,BENGAL COLLEGE OF ENGINEERING & TECHNOLOGY,"BENGAL COLLEGE OF ENGINEERING & TECHNOLOGY SAHID SUKUMAR BANERJEE SARANI BIDHAN NAGAR, DURGAPUR PIN-713212 DIST: BURDWAN WEST BENGAL"
936,WESTBENGAL,KOLKATA,"UNIVERSITY COLLEGE OF SCIENCE & TECHNOLOGY,CALCUTTA UNIVERSITY)","92,APC ROAD"
937,WESTBENGAL,DAKSHIN DINAJPUR,TECHNO INDIA-BALURGHAT,"MANGALPUR, NEAR DISTRICT JAIL, PO: BELTALA PARK,P.S-BALURGHAT, DIST. SOUTH DINAJPUR, Mangalpur, Balurghat, West Bengal 733103"
938,WESTBENGAL,DARJEELING,SURENDRA INSTITUTE OF ENGINEERING & MANAGEMENT,"Dhukuria, P.O New Chumta, Darjeeling, Siliguri, West Bengal 734009
"
939,WESTBENGAL,SOUTH 24 PARGANAS,DREAM INSTITUTE OF TECHNOLOGY,"668,Thakurpukur-Bibirhat-Bakhrahat-Raipur Rd, Naurbad, Kolkata, West Bengal 700104"
940,WESTBENGAL,BARDHAMAN,CAMELLIA INSTITUTE OF ENGINEERING AND TECHNOLOGY,"BUD BUD BY-PASS (NORTH),  Budbud, West Bengal 713155"
941,WESTBENGAL,NORTH 24 PARGANAS,ALIAH UNIVERSITY," ll-A/27, Action Area II, Newtown, Kolkata, West Bengal 700156"
942,WESTBENGAL,NORTH 24 PARGANAS,ST. MARY'S TECHNICAL CAMPUS KOLKATA,"SAIBANA VILLAGE, OPP: WEST BENGAL STATE UNIVERSITY, ICHAPUR NILGUNGE GRAM PANCHAYAT, BARASAT, NORTH 24 PARGANAS DISTRICT, KOLKATA - 700 126"
943,WESTBENGAL,NORTH 24 PARGANAS,TECHNO INDIA-BANIPUR,"BANIPUR COLLEGE ROAD, BANIPUR, HABRA 24 PARGANAS(NORTH) WEST BENGAL - 743233"
944,WESTBENGAL,MURSHIDABAD,MURSHIDABAD COLLEGE OF ENGINEERING & TECHNOLOGY,"Banjetia, Berhampore, West Bengal 742102"
945,WESTBENGAL,KOLKATA,TECHNO INDIA COLLEGE OF TECHNOLOGY,"Plot No 1/1/DG, Service Road, Near Ohio Hospital, New Town Mega City, Rajarhat, Kolkata, West Bengal 700156"
946,WESTBENGAL,NORTH 24 PARGANAS,SABITA DEVI EDUCATION TRUST - BRAINWARE GROUP OF INSTITUTIONS,"398 RAMKRISHNAPUR ROAD P.S. BARASAT, West Bengal 700124"
947,WESTBENGAL,SOUTH 24 PARGANAS,PAILAN COLLEGE OF MANAGEMENT & TECHNOLOGY[B.TECH DIVISION],"BENGAL PAILAN PARK, SECTOR - 1 PHASE I JOKA, (OFF DIAMOND HARBOUR ROAD), KOLKATA- 700 104"
948,WESTBENGAL,KOLKATA,GOVERNMENT COLLEGE OF ENGINEERING & CERAMIC TECHNOLOGY,"73, ABINASH CHANDRA BANNERJEE LANE, KOLKATA-700010, WEST BENGAL"
949,WESTBENGAL,NORTH 24 PARGANAS,WEST BENGAL UNIVERSITY OF TECHNOLOGY,"BF-142, SALTLAKE KOLKATA - 700064 WEST BENGAL INDIA"
950,WESTBENGAL,HOOGHLY,ABACUS INSTITUTE OF ENGINEERING AND MANAGEMENT,"Natungram, Dist. Hooghly, Mogra, West Bengal 712148"
951,WESTBENGAL,BARDHAMAN,NATIONAL POWER TRAINING INSTITUTE(ER),MICHAEL FARADAY STREET CITY CENTRE DURGAOUR-713216
952,WESTBENGAL,NORTH 24 PARGANAS,CAMELLIA SCHOOL OF ENGINEERING & TECHNOLOGY,"NADIBHAG, P.O. KAZIPARA, BARASAT, KOLKATA-700124"
953,WESTBENGAL,BARDHAMAN,KANAD INSTITUTE OF ENGINEERING & MANAGEMENT,"Burdwan, Mankar, West Bengal 713144"
954,WESTBENGAL,BARDHAMAN,SANAKA EDUCATIONAL TRUST'S GROUP OF INSTITUTIONS,"Vill & Post : Malandighi, P.S. : Kanksha, Durgapur, West Bengal 713212"
955,WESTBENGAL,NADIA,IDEAL INSTITUTE OF ENGINEERING,"KALYANI SHILPANCHAL, P.O. + P.S.- KALYANI, DISTRICT - NADIA, WEST BENGAL, PIN CODE- 741235"
956,WESTBENGAL,NORTH 24 PARGANAS,GURUNANAK INSTITUTE OF TECHNOLOGY,"157/F, NILGUNJ ROAD, PANIHATI, SODEPUR, KOLKATA-700114"
957,WESTBENGAL,HOWRAH,CALCUTTA INSTITUTE OF TECHNOLOGY,"BANITABLA, ULUBERIA, HOWRAH-711316"
958,WESTBENGAL,KOLKATA,"TECHNO INDIA KOLKATA, JOKA","Em-4/1, Sector-V, Salt Lake, Kolkata-91, North 24 Parganas, Salt Lake, West Bengal, 700091"
959,WESTBENGAL,MURSHIDABAD,DUMKAL INSTITUTE OF ENGINEERING & TECHNOLOGY,VILLAGE BASANTAPUR PO BASANTAPUR PS DUMKAL DIST MURSHIDABAD PIN 742406 WEST BENGAL INDIA
960,WESTBENGAL,HOOGHLY,MODERN INSTITUTE OF ENGINEERING & TECHNOLOGY,"Barol-Malimpur, Rajhat, Dist. Hooghly, Bandel, West Bengal 712123"
961,WESTBENGAL,HOWRAH,MCKV INSTITUTE OF ENGINEERING,"243 G. T. Road (North), Liluah, Howrah, West Bengal 711204
"
962,WESTBENGAL,SOUTH 24 PARGANAS,SWAMI VIVEKANANDA INSTITUTE OF SCIENCE & TECHNOLOGY,"Dakshin Gobindapur, Sonarpur, Kolkata, West Bengal 700145"
963,WESTBENGAL,NADIA,JIS COLLEGE OF ENGINEERING,"Barrackpore - Kalyani Expressway, Block A, Phase III, Dist. Nadia, Kalyani, West Bengal 741235"
964,WESTBENGAL,MALDA,IMPS COLLEGE OF ENGINEERING & TECHNOLOGY,VILL-NITYANANDAPUR P.O.-CHANDIPUR(KAZIGRAM) DIST-MALDA PIN-732103 WEST BENGAL
965,WESTBENGAL,KOLKATA,SEACOM ENGINEERING COLLEGE,"JL-2, Jaladhulagori, Via Andul Mouri, Sankrail, Howrah, West Bengal 711302"
966,WESTBENGAL,MURSHIDABAD,"GOVT. COLLEGE OF ENGINEERING AND TEXTILE TECHNOLOGY, BERHAMPORE","No.4, Cantonment Road, District Murshidabad, Berhampore, West Bengal 742101"
967,WESTBENGAL,KOLKATA,INSTITUTE OF ENGINEERING & MANAGEMENT,"Ashram Building, GN-34/2, Sector – V, Saltlake Electronics Complex
Kolkata – 700 091, West Bengal, India."
968,WESTBENGAL,PURBA MEDINIPUR,"COLLEGE OF ENGINEERING & MANAGEMENT, KOLAGHAT","KTPP Township, Kolaghat, West Bengal 721171"
969,WESTBENGAL,BARDHAMAN,ASANSOL ENGINEERING COLLEGE,"Vivekananda Sarani, Kanyapur, Asansol, West Bengal 713305"
970,WESTBENGAL,NADIA,UNIVERSITY SCIENCE INSTRUMENTATION CENTRE,"UNIVERSITY OF KALYANI, GHOSHPARA, KALYANI, NADIA, W. BENGAL, 700009"
971,WESTBENGAL,BARDHAMAN,"DR. B.C. ROY ENGINEERING COLLEGE, DURGAPUR"," Jemua Road, Fuljhore, Durgapur, West Bengal 713206"
972,WESTBENGAL,BANKURA,MALLABHUM INSTITUTE OF TECHNOLOGY,"266, Rash Behari Ave, Hindustan Park, Ballygunge, Kolkata, West Bengal 700019"
973,WESTBENGAL,NORTH 24 PARGANAS,ELITTE COLLEGE OF ENGIINEERING,"Sarojini Naidu Road, Near Mohispota, P.O. Karnamadhavpur, P.S.-Ghola, Mohispota, West Bengal 700113"
974,WESTBENGAL,SOUTH 24 PARGANAS,JLD ENGINEERING AND MANAGEMENT COLLEGE,"Mouza- Begampur, P.O.- Tentulia, P.S.- Baruipur
South 24 Parganas, Pin- 743610
West Bengal"
975,WESTBENGAL,JALPAIGURI,JALPAIGURI GOVERNMENT ENGINEERING COLLEGE,JALPAIGURI GOVT. ENGG. COLLEGE JALPAIGURI-735102
976,WESTBENGAL,BIRBHUM,BIRBHUM INSTITUTE OF ENGINEERING & TECHNOLOGY,"P.O.- SURI, DIST.- BIRBHUM: PIN CODE -731101"
977,WESTBENGAL,KOLKATA,NETAJI SUBHASH ENGINEERING COLLEGE,"Techno City, Panchpota, Garia, Kolkata, West Bengal 700152"
978,WESTBENGAL,BARDHAMAN,BENGAL COLLEGE OF ENGINEERING,"Bidhannagar, Near Punjab National Bank, Durgapur, West Bengal 713212"
979,WESTBENGAL,PASCHIM MEDINIPUR,INSTITUTE OF SCIENCE AND TECHNOLOGY,"Dhurabila, Dhamkuria, Gopsai, Chandrakona, West Bengal 721201"
980,WESTBENGAL,KOLKATA,MEGHNAD SAHA INSTITUTE OF TECHNOLOGY,"Behind Urbana Complex, Near Ruby General Hospital, Nazirabad Rd, Uchhepota, Kolkata, West Bengal 700150"
981,WESTBENGAL,BANKURA,BANKURA UNNAYANI INSTITUTE OF ENGINEERING,"Subhankar Nagar, Pohabagan, Bankura, West Bengal 722146"
982,WESTBENGAL,BIRBHUM,BENGAL INSTITUTE OF TECHNOLOGY AND MANAGEMENT,"SANTINIKETAN BYPASS P.O.-DWARANDA, Sriniketan, West Bengal 731236"
983,WESTBENGAL,BARDHAMAN,DURGAPUR INSTITUTE OF ADVANCED TECHNOLOGY & MANAGEMENT," G T Road, Rajbandh,
Durgapur Dist. Paschim Bardhaman (WB)
PIN - 713212 "
984,WESTBENGAL,HOOGHLY,SUPREME KNOWLEDGE FOUNDATION GROUP OF INSTITUTIONS,"1, KHAN ROAD, MANKUNDU STATION ROAD, P.O. MANKUNDU, DIST. HOOGHLY, WEST BENGAL, PIN - 712139"
985,WESTBENGAL,NORTH 24 PARGANAS,NARULA INSTITUTE OF TECHNOLOGY,"81, Nilgunj Road, Agarpara, Kolkata, West Bengal 700109"
986,WESTBENGAL,NORTH 24 PARGANAS,B. P. PODDAR INSTITUTE OF MANAGEMENT & TECHNOLOGY,"137,V.I.P. Road, Poddar Vihar
Kolkata-700052,"
987,WESTBENGAL,KOLKATA,DR. SUDHIR CHANDRA SUR DEGREE ENGINEERING COLLEGE,"  540 Dum Dum Road, Surermath,
(Near Dum Dum Jn. Station),
Kolkata-700 074
West Bengal "
988,WESTBENGAL,SOUTH 24 PARGANAS,FUTURE INSTITUTE OF ENGINEERING AND MANAGEMENT,"Sonarpur Station Road, Kolkata-700150, West Bengal. India."
989,WESTBENGAL,HOOGHLY,HOOGHLY ENGINEERING & TECHNOLOGY COLLEGE,"Vivekananda Road, Pipulpati
P.O. & Dist. Hooghly,Pin 712103
West Bengal "
990,WESTBENGAL,DARJEELING,SILIGURI INSTITUTE OF TECHNOLOGY,"S.I.T Campus, Salbari,
P.O. Sukna, Dt. Darjeeling,
West Bengal - 734009, India"
991,WESTBENGAL,SOUTH 24 PARGANAS,GARGI MEMORIAL INSTITUTE OF TECHNOLOGY CAMPUS,BALARAMPUR (MOUZA- BERELIA) P.S- BARUIPUR KOLKATA 700144
992,WESTBENGAL,NADIA,GLOBAL INSTITUTE OF MANAGEMENT AND TECHNOLOGY,"Palpara More, NH-34, Krishnagar, Nadia, Pin-741102, W.B."
993,WESTBENGAL,PURULIYA,PURULIA GOVERNMENT ENGINEERING COLLEGE,"Chas Road, Post Ramamoti, Agharpur, Puruliya, West Bengal 723103
"
994,WESTBENGAL,COOCH BEHAR,COOCH BEHAR GOVERNMENT ENGINEERING COLLEGE,"Post Ghughumari, District Coochbehar, Harinchawra, West Bengal 736170"
